{
"type": "FeatureCollection",
"name": "bicsZI",
"features": [
{ "type": "Feature", "id": 0, "properties": { "FID": 0, "Entity": "LWPolyline", "Handle": "372", "Layer": "0", "LyrFrzn": 1000, "LyrOn": 1, "Color": 5, "Linetype": "Continuous", "Elevation": 0, "LineWt": 25, "RefName": "MOSQUERA", "DocUpdate": 1756339200000, "DocId": 1.0511109989899999e+19, "GlobalWidt": 6 }, "geometry": { "type": "Polygon", "coordinates": [ [ [ -74.229013926662503, 4.705839679640202 ], [ -74.228318614606493, 4.706732211661976 ], [ -74.228227114118653, 4.706654240677378 ], [ -74.228193403076475, 4.706688946495373 ], [ -74.228088219034873, 4.706812169809892 ], [ -74.228057949068614, 4.70684702666172 ], [ -74.228146926250361, 4.706953738495617 ], [ -74.228101673719436, 4.707012598777823 ], [ -74.228093723635396, 4.707001591421005 ], [ -74.228058865623623, 4.707028957728358 ], [ -74.228074001522103, 4.707047762501082 ], [ -74.228061235017293, 4.707064732024959 ], [ -74.22803639319487, 4.707033162332293 ], [ -74.227973862178686, 4.70708430188596 ], [ -74.228000617144971, 4.707117476772508 ], [ -74.228003293798352, 4.707139237142019 ], [ -74.227942810756559, 4.707189697910865 ], [ -74.227953681944541, 4.707202878745687 ], [ -74.227933706700568, 4.707228292362775 ], [ -74.227909789145997, 4.707204646175564 ], [ -74.227844693333111, 4.707273409295929 ], [ -74.227875270968283, 4.707303170138868 ], [ -74.227845373154295, 4.707341969438288 ], [ -74.227813778675099, 4.707311257262067 ], [ -74.22777993930238, 4.707345503319321 ], [ -74.227822678366309, 4.707386746943012 ], [ -74.227824552792129, 4.707384809214319 ], [ -74.227856607723382, 4.707410347366349 ], [ -74.227819915591297, 4.707448160704721 ], [ -74.227882802023544, 4.707509720898037 ], [ -74.227925302706836, 4.707465538521749 ], [ -74.227992265268767, 4.707517825162746 ], [ -74.227977894911973, 4.707528678387471 ], [ -74.22803629648206, 4.707607108603415 ], [ -74.22807069412994, 4.707580048173366 ], [ -74.228391061403087, 4.707834368705303 ], [ -74.227977817866659, 4.70815335990057 ], [ -74.228826089551987, 4.709879830796177 ], [ -74.230977729087584, 4.710612007020385 ], [ -74.232045035084226, 4.70980862485982 ], [ -74.229938189967967, 4.708106760841767 ], [ -74.230030051309996, 4.707988342090188 ], [ -74.23044277007493, 4.708319433366142 ], [ -74.230502849490335, 4.708244986641502 ], [ -74.230092089452427, 4.707909977271638 ], [ -74.230172902276337, 4.707808267167174 ], [ -74.230189065560339, 4.707820511258854 ], [ -74.230222860100099, 4.707777902041722 ], [ -74.230300734415778, 4.707841571560211 ], [ -74.230393792994903, 4.707731862728775 ], [ -74.230476565783576, 4.707796022933093 ], [ -74.23058333786814, 4.707665741764091 ], [ -74.23054807286789, 4.707635375489098 ], [ -74.230619580819763, 4.707544276297846 ], [ -74.230686190862272, 4.707467871479874 ], [ -74.230542766869362, 4.707343304430442 ], [ -74.23064488716318, 4.70723147190148 ], [ -74.230633621493993, 4.70722085939274 ], [ -74.23068113017176, 4.707160725121189 ], [ -74.229013926662503, 4.705839679640202 ] ] ] } },
{ "type": "Feature", "id": 1, "properties": { "FID": 1, "Entity": "LWPolyline", "Handle": "38C", "Layer": "0", "LyrFrzn": 1000, "LyrOn": 1, "Color": 5, "Linetype": "Continuous", "Elevation": 0, "LineWt": 25, "RefName": "MADRID", "DocUpdate": 1756339200000, "DocId": 1.1527770411399999e+19, "GlobalWidt": 7 }, "geometry": { "type": "Polygon", "coordinates": [ [ [ -74.262426967370772, 4.734580244611574 ], [ -74.262222598361632, 4.734844343075205 ], [ -74.262426697922905, 4.735032371308868 ], [ -74.262834362811788, 4.735413250045968 ], [ -74.262857397602232, 4.735396644750435 ], [ -74.263005784262333, 4.735526817085402 ], [ -74.263231312413808, 4.735474855196011 ], [ -74.263362022623852, 4.73538378763557 ], [ -74.263479875735598, 4.735288433257666 ], [ -74.263681297751461, 4.735061297728665 ], [ -74.263639512390512, 4.735029157759942 ], [ -74.263865575567991, 4.734680954655779 ], [ -74.263821649324896, 4.73464988549059 ], [ -74.264041283650357, 4.734294986792367 ], [ -74.264259847066882, 4.733925357520956 ], [ -74.264393235935941, 4.733714828794113 ], [ -74.264467160810156, 4.733756612963197 ], [ -74.264806256141895, 4.733047887617226 ], [ -74.265121244994688, 4.732572191666482 ], [ -74.265044105656159, 4.73232791336606 ], [ -74.264819113832374, 4.732311843207193 ], [ -74.264436627837156, 4.732466122955348 ], [ -74.26389503903026, 4.73318288378908 ], [ -74.263813077967967, 4.733129850366022 ], [ -74.263949680600632, 4.732951463237837 ], [ -74.263827541172802, 4.732853430262339 ], [ -74.263673262071819, 4.733041460145525 ], [ -74.263639511758072, 4.733009317456887 ], [ -74.263792185407908, 4.732822895822156 ], [ -74.263367914089898, 4.732466123171617 ], [ -74.263175064532163, 4.732705578422658 ], [ -74.263128458934887, 4.732658973840735 ], [ -74.263318095988978, 4.73240023293034 ], [ -74.263114799602008, 4.732220238787513 ], [ -74.262880163983056, 4.732496658279447 ], [ -74.262811862645492, 4.732451658462455 ], [ -74.262772489576321, 4.73251353239845 ], [ -74.262737134941489, 4.732487015492445 ], [ -74.262972572914308, 4.732229882366609 ], [ -74.263095111819808, 4.732097698430575 ], [ -74.263014356688998, 4.731953060301518 ], [ -74.262822710534522, 4.732123010642042 ], [ -74.26257682658607, 4.732374920717485 ], [ -74.262541872243588, 4.732349609688679 ], [ -74.26271423199961, 4.732150732847759 ], [ -74.262659993711807, 4.731996451763745 ], [ -74.262487633763143, 4.731997656920484 ], [ -74.262435805242319, 4.732044665380712 ], [ -74.26227790855441, 4.732325502896719 ], [ -74.262183894182058, 4.732472551182618 ], [ -74.262139297859207, 4.732444830163797 ], [ -74.261904261706917, 4.732660579900554 ], [ -74.261946447526569, 4.73270999789413 ], [ -74.261842789868538, 4.732814861514063 ], [ -74.26190546683867, 4.732902849330968 ], [ -74.261739132664289, 4.733031816965334 ], [ -74.261840379862477, 4.733102529750198 ], [ -74.261682081937792, 4.733317879240024 ], [ -74.261309237537006, 4.733494657444568 ], [ -74.261389592162558, 4.733623224410257 ], [ -74.261257811073605, 4.733685902156538 ], [ -74.261439412815633, 4.733992853853476 ], [ -74.261539051851557, 4.73394624891381 ], [ -74.261648333650015, 4.734029817089856 ], [ -74.261510124435972, 4.734094101093648 ], [ -74.261556728446052, 4.734168025845303 ], [ -74.26172868787441, 4.734320700984529 ], [ -74.261783327728168, 4.734241952356395 ], [ -74.26196814300117, 4.734396232922284 ], [ -74.262087067187082, 4.734503907310492 ], [ -74.262128851679961, 4.734460516776565 ], [ -74.262289560181316, 4.734548906138245 ], [ -74.262326522654618, 4.734511944253464 ], [ -74.262426967370772, 4.734580244611574 ] ] ] } },
{ "type": "Feature", "id": 2, "properties": { "FID": 2, "Entity": "LWPolyline", "Handle": "30A", "Layer": "0", "LyrFrzn": 1000, "LyrOn": 1, "Color": 5, "Linetype": "Continuous", "Elevation": 0, "LineWt": 25, "RefName": "FONTIBON", "DocUpdate": 1756339200000, "DocId": 1.10471922519e+19, "GlobalWidt": 2 }, "geometry": { "type": "Polygon", "coordinates": [ [ [ -74.140613838721166, 4.674706553828446 ], [ -74.140318159642646, 4.674958858987071 ], [ -74.139898609396639, 4.675325986491564 ], [ -74.139899116117689, 4.675351690027794 ], [ -74.139984091940079, 4.675430578192849 ], [ -74.13980630535346, 4.675605122164217 ], [ -74.139774964662422, 4.675573556941248 ], [ -74.139711607004585, 4.675632856491147 ], [ -74.139667564186908, 4.675674192889475 ], [ -74.139528522356045, 4.675827664462779 ], [ -74.13955460281845, 4.675851714863395 ], [ -74.139467118046923, 4.675936644492409 ], [ -74.139441264989358, 4.675914997794038 ], [ -74.139226613417634, 4.67616632555726 ], [ -74.139445373234736, 4.676447916907649 ], [ -74.139491469328036, 4.676409034846279 ], [ -74.139602302398288, 4.676562156971785 ], [ -74.139637978555243, 4.676531693555409 ], [ -74.139714070714675, 4.676609457118817 ], [ -74.139711933151858, 4.676611193731285 ], [ -74.139841805410015, 4.676769392582241 ], [ -74.139764754546505, 4.676836777710151 ], [ -74.140171386129722, 4.677294985348563 ], [ -74.140176730804939, 4.677299260245079 ], [ -74.140183054624345, 4.677303001873977 ], [ -74.140188934898688, 4.677304961860378 ], [ -74.140195348714073, 4.677306209236498 ], [ -74.140202207463417, 4.677306297485843 ], [ -74.140209511689051, 4.677305138848863 ], [ -74.140215925179703, 4.677302735101115 ], [ -74.140290504019092, 4.677206177032789 ], [ -74.140393297220953, 4.677312265104359 ], [ -74.140348402334482, 4.67739804597969 ], [ -74.140580000652292, 4.677609779844427 ], [ -74.14062774601102, 4.677651109684128 ], [ -74.140779051818058, 4.677488858087778 ], [ -74.140778382824223, 4.677488157728592 ], [ -74.140968090120055, 4.677334203890886 ], [ -74.140918946274212, 4.677273239820854 ], [ -74.140984983834471, 4.6772110085351 ], [ -74.141015247687179, 4.67725029055725 ], [ -74.1411164594751, 4.677167717957539 ], [ -74.141215066690961, 4.677093561102926 ], [ -74.141164209628201, 4.677042805449341 ], [ -74.141362310084304, 4.676856581211974 ], [ -74.141502604462346, 4.677001820206702 ], [ -74.14174181713031, 4.676798057328811 ], [ -74.141691222191923, 4.676744434881039 ], [ -74.141781248305946, 4.676653695512219 ], [ -74.14168717682405, 4.676558402911153 ], [ -74.141759425192163, 4.676504790726613 ], [ -74.141656475037948, 4.676403778013408 ], [ -74.141729428419836, 4.676347861392227 ], [ -74.141683331690743, 4.676299760199508 ], [ -74.141630621156182, 4.67613200817248 ], [ -74.141687541390681, 4.67609132176911 ], [ -74.141610578483792, 4.675997926282096 ], [ -74.141765905279058, 4.67587506760517 ], [ -74.141689544989404, 4.675784276152723 ], [ -74.141488722670289, 4.675548583159359 ], [ -74.141406951801258, 4.67561171504838 ], [ -74.141155022839484, 4.675336336167351 ], [ -74.140863409401817, 4.675017667778967 ], [ -74.140779835374857, 4.674910040860505 ], [ -74.140692050745855, 4.674807225625883 ], [ -74.140613838721166, 4.674706553828446 ] ] ] } },
{ "type": "Feature", "id": 3, "properties": { "FID": 3, "Entity": "LWPolyline", "Handle": "3DA", "Layer": "0", "LyrFrzn": 1000, "LyrOn": 1, "Color": 5, "Linetype": "Continuous", "Elevation": 0, "LineWt": 25, "RefName": "FACATATIVA", "DocUpdate": 1756339200000, "DocId": 1.30145545751e+19, "GlobalWidt": 9 }, "geometry": { "type": "Polygon", "coordinates": [ [ [ -74.35247484173469, 4.804254702648153 ], [ -74.351910256813397, 4.803548691503543 ], [ -74.35153163728414, 4.803879425445001 ], [ -74.351550568822773, 4.803900583563766 ], [ -74.350687542721616, 4.804655591610049 ], [ -74.351394666945566, 4.805215723351287 ], [ -74.351233198742321, 4.805558707933389 ], [ -74.350827854586754, 4.80523242891828 ], [ -74.350597342737615, 4.805495233934384 ], [ -74.35017083992939, 4.805150023222797 ], [ -74.349705919018291, 4.805735210536857 ], [ -74.350869612396735, 4.806532163677483 ], [ -74.350924551001853, 4.806578192052078 ], [ -74.351060407520094, 4.806651689375016 ], [ -74.351365528402141, 4.806805363866041 ], [ -74.351463152084705, 4.806674145496879 ], [ -74.351478371937858, 4.806682683381974 ], [ -74.351505531112196, 4.806624839282649 ], [ -74.351663122954918, 4.806753395163176 ], [ -74.351699747247636, 4.806703738563682 ], [ -74.351775305458602, 4.80674036292777 ], [ -74.351725937500134, 4.80680692997112 ], [ -74.351795968907197, 4.806858648751633 ], [ -74.351851648987889, 4.806901213335944 ], [ -74.351870703510755, 4.806877457424569 ], [ -74.352019428237313, 4.806993270325109 ], [ -74.351889261962597, 4.807159564843853 ], [ -74.35213870492808, 4.807343924297822 ], [ -74.352227296531893, 4.807406780282924 ], [ -74.352433185509867, 4.807120466028151 ], [ -74.352584633198603, 4.807249641222561 ], [ -74.352736080248775, 4.807377084398182 ], [ -74.35275266106936, 4.807357533574706 ], [ -74.352890744281694, 4.807456272499304 ], [ -74.352962014353821, 4.807365535435912 ], [ -74.353156850114274, 4.807536862126225 ], [ -74.353181430104954, 4.807508486431519 ], [ -74.353202547213129, 4.807588500627203 ], [ -74.353110381145214, 4.80769210521842 ], [ -74.353193363553913, 4.807763208740619 ], [ -74.353220749899549, 4.807732853211102 ], [ -74.353256466407856, 4.807765601250066 ], [ -74.353114505763457, 4.807911851061342 ], [ -74.353082500949668, 4.807880506196478 ], [ -74.352993413972911, 4.807970912138345 ], [ -74.352985495542669, 4.807962993924575 ], [ -74.352946890926617, 4.808001268219898 ], [ -74.353313520260485, 4.808336937240949 ], [ -74.353350750700443, 4.808297892976145 ], [ -74.35334415086362, 4.808290744186829 ], [ -74.353465407368205, 4.808155573485618 ], [ -74.353531032340001, 4.808219328863618 ], [ -74.353512846791787, 4.808239419046991 ], [ -74.353499063377996, 4.808225194563786 ], [ -74.353473473258688, 4.808253715286959 ], [ -74.353523625117248, 4.808307278220655 ], [ -74.353563981013878, 4.808260792002395 ], [ -74.353569122604355, 4.808260600052674 ], [ -74.353622217002481, 4.808306049953457 ], [ -74.353481043813545, 4.808477239945009 ], [ -74.353829883745348, 4.808775761601122 ], [ -74.353825429322029, 4.808782690229589 ], [ -74.353933818025894, 4.808879201743533 ], [ -74.353975391816817, 4.808830698225806 ], [ -74.354002716157424, 4.808851230821406 ], [ -74.353964750712919, 4.808905431636329 ], [ -74.354012140592857, 4.808946635549553 ], [ -74.354045299482053, 4.808902091182421 ], [ -74.354081182273589, 4.808930797261906 ], [ -74.354050991039628, 4.808981775471115 ], [ -74.354153441383303, 4.80905634375033 ], [ -74.354222400410094, 4.808957029277744 ], [ -74.354267548292455, 4.808995687440837 ], [ -74.354190121627738, 4.809096432116376 ], [ -74.3543151710291, 4.809202015624031 ], [ -74.354397988919288, 4.809270976422397 ], [ -74.354430983917609, 4.809230721765918 ], [ -74.354460459723185, 4.809252939085188 ], [ -74.354503629000234, 4.809200119837004 ], [ -74.354536335764877, 4.80922679053055 ], [ -74.354533351863637, 4.809231904345285 ], [ -74.354551884688192, 4.809246107003551 ], [ -74.354480046715736, 4.80933789314043 ], [ -74.354551502091908, 4.809396728268322 ], [ -74.354687916444874, 4.80950585935084 ], [ -74.354739820597473, 4.809531471331783 ], [ -74.354800841532807, 4.809539060479479 ], [ -74.354842084572638, 4.809489072884543 ], [ -74.354897135912694, 4.80953645145236 ], [ -74.354873965941053, 4.809565776518463 ], [ -74.354937888899826, 4.80961200509499 ], [ -74.354995887712619, 4.80965394972822 ], [ -74.355030037530327, 4.809678820489882 ], [ -74.355145294358309, 4.809763453496121 ], [ -74.355227946087098, 4.809826617247486 ], [ -74.355294575951305, 4.80987924550779 ], [ -74.355295483025529, 4.809880069733133 ], [ -74.355412987490581, 4.809989075903034 ], [ -74.355432700729509, 4.810007801184358 ], [ -74.355450629036298, 4.810025013779658 ], [ -74.355489783728331, 4.810062491495093 ], [ -74.355619507732314, 4.810188971407327 ], [ -74.355703756916128, 4.810274097706912 ], [ -74.355721353256911, 4.810274539245064 ], [ -74.355736750630669, 4.810257876021981 ], [ -74.355794889790161, 4.810307808720129 ], [ -74.355765345987706, 4.810336514385402 ], [ -74.355910166219047, 4.810484909384228 ], [ -74.356274349588602, 4.810864476004878 ], [ -74.35662005557252, 4.810535722761331 ], [ -74.356659895727987, 4.810494396093529 ], [ -74.356725720851017, 4.810549827824785 ], [ -74.3567702656091, 4.810505284184265 ], [ -74.356776698846744, 4.810511222605298 ], [ -74.356841162753014, 4.810441068052239 ], [ -74.356836709315218, 4.810436861352693 ], [ -74.356881376122146, 4.810382666470598 ], [ -74.356856133966232, 4.810361631986333 ], [ -74.357184888091993, 4.810023411973227 ], [ -74.357229061003437, 4.810058798990017 ], [ -74.357366401858783, 4.809903733598831 ], [ -74.357340418832294, 4.809883318158753 ], [ -74.357458366745377, 4.809749037865239 ], [ -74.357454777688716, 4.809746192996924 ], [ -74.357478781034132, 4.809722063449275 ], [ -74.357505754561515, 4.809744149744859 ], [ -74.357610926363975, 4.809622677980383 ], [ -74.357591810291893, 4.809605880437931 ], [ -74.357737920775094, 4.809456360004943 ], [ -74.357790537995882, 4.809507306502891 ], [ -74.357995368457452, 4.809298299389537 ], [ -74.357920723690683, 4.809231066562499 ], [ -74.35799181742739, 4.809150367170795 ], [ -74.35794202031235, 4.809105501880918 ], [ -74.357981627564854, 4.809031888533746 ], [ -74.357994546102248, 4.809043281282833 ], [ -74.358137948990816, 4.808882083988374 ], [ -74.358077229812963, 4.808827940164225 ], [ -74.358105946006361, 4.808746959614545 ], [ -74.358132724304426, 4.808772015392774 ], [ -74.358204914256774, 4.80869199331007 ], [ -74.358163886656541, 4.80865597584831 ], [ -74.358236860738273, 4.808574859499145 ], [ -74.358183304078111, 4.808527252642746 ], [ -74.358211805206608, 4.808450520443232 ], [ -74.358221357057175, 4.808459290111363 ], [ -74.35833191556722, 4.808349828404859 ], [ -74.358245316594093, 4.808266518722291 ], [ -74.358228228410553, 4.808284193843535 ], [ -74.358227876290542, 4.808180737110668 ], [ -74.358267514584071, 4.808140129065755 ], [ -74.358320189465871, 4.808200380623981 ], [ -74.358360710274241, 4.808161093549309 ], [ -74.358241970377492, 4.808028965517492 ], [ -74.358320718473522, 4.807955147816823 ], [ -74.358248047779369, 4.807874021376288 ], [ -74.358220565536527, 4.807899390928534 ], [ -74.358202331205561, 4.807816060245572 ], [ -74.35894842077461, 4.807130926332299 ], [ -74.35888993044415, 4.806840418707194 ], [ -74.358901734792184, 4.806670764161264 ], [ -74.35884958842253, 4.806576219975685 ], [ -74.358765025241553, 4.806524777290377 ], [ -74.358627492582912, 4.806644457715083 ], [ -74.357994331322956, 4.807190590594858 ], [ -74.357910473121791, 4.80710461938768 ], [ -74.357895673585674, 4.807119065273984 ], [ -74.357838595050026, 4.807046834018644 ], [ -74.357826614032419, 4.807036616505624 ], [ -74.357864315042178, 4.807002791494219 ], [ -74.357496555496965, 4.80660816524944 ], [ -74.357456564112084, 4.806644984892328 ], [ -74.357383277782972, 4.806566060827422 ], [ -74.357348395917967, 4.806598300593521 ], [ -74.357313954571225, 4.806566677101587 ], [ -74.357347844044384, 4.806532169831931 ], [ -74.35726688312225, 4.806449621015757 ], [ -74.357231603946587, 4.806484403716819 ], [ -74.357168777505549, 4.806425539931477 ], [ -74.3571644162501, 4.80643009962378 ], [ -74.357116751396489, 4.806386496214519 ], [ -74.357142118920365, 4.806357757993514 ], [ -74.357072157303762, 4.806291760567918 ], [ -74.35711258874403, 4.806246572284412 ], [ -74.357027365655469, 4.806171257777865 ], [ -74.356963943192866, 4.80624696826479 ], [ -74.356904089186727, 4.806191276876404 ], [ -74.356957600665226, 4.806128646970448 ], [ -74.356802216361061, 4.805998235840721 ], [ -74.356754650153931, 4.806054918376366 ], [ -74.356699750415714, 4.806003784497443 ], [ -74.356744642493751, 4.805949454316317 ], [ -74.356187000153454, 4.805478546620614 ], [ -74.356160688918479, 4.805511099084144 ], [ -74.356050988617284, 4.805411433008883 ], [ -74.356075069582118, 4.80538356189444 ], [ -74.355547080456802, 4.804940413914742 ], [ -74.355527683344647, 4.804962821123112 ], [ -74.355493903353988, 4.80493489579489 ], [ -74.355511963262543, 4.804913323110926 ], [ -74.355139091196008, 4.804602241607992 ], [ -74.355190764198696, 4.804540220267932 ], [ -74.355166118866961, 4.804514071201438 ], [ -74.355022577059557, 4.804394044478496 ], [ -74.354932463179765, 4.804212688369455 ], [ -74.354919670479262, 4.804174686017205 ], [ -74.354920422894935, 4.804112790829139 ], [ -74.354945632231065, 4.804133673084086 ], [ -74.354999248127257, 4.804070650856614 ], [ -74.354968395291223, 4.804044124021674 ], [ -74.354920423302133, 4.804100186772187 ], [ -74.354920423485467, 4.804069333988432 ], [ -74.355017497355803, 4.803955327571868 ], [ -74.355031795459439, 4.803948554441646 ], [ -74.355043459091377, 4.803949683376005 ], [ -74.355066787806166, 4.8039609703976 ], [ -74.35509500650457, 4.803988062380961 ], [ -74.355213340716659, 4.803846964238515 ], [ -74.355016228594948, 4.803679105735777 ], [ -74.354985469095539, 4.803687430437287 ], [ -74.354959647023222, 4.803690112322235 ], [ -74.354926067256855, 4.803687713460487 ], [ -74.354924655154946, 4.803687008658065 ], [ -74.354941587020207, 4.803023993931657 ], [ -74.354972064742626, 4.802328104669963 ], [ -74.354982223140595, 4.801571259892903 ], [ -74.355038097665187, 4.801190298900272 ], [ -74.355043178081971, 4.800949022074782 ], [ -74.355088893635781, 4.800720446478132 ], [ -74.355119370384074, 4.800659491839204 ], [ -74.355198100827124, 4.800593458502593 ], [ -74.355350486809684, 4.800646793729171 ], [ -74.355960024377097, 4.801116644721844 ], [ -74.357605778648946, 4.800156622437051 ], [ -74.356638136815562, 4.799295648929694 ], [ -74.356249554709521, 4.799051833981145 ], [ -74.355236198587889, 4.798739446001847 ], [ -74.354756185883033, 4.798777542135793 ], [ -74.354203793010015, 4.798985166373191 ], [ -74.353872354769209, 4.799293744637807 ], [ -74.353329484936353, 4.800105193535224 ], [ -74.353232339546395, 4.801008072254977 ], [ -74.353172338187917, 4.801570228392634 ], [ -74.353173408856705, 4.801619515484657 ], [ -74.35311447955111, 4.801669874393299 ], [ -74.353155195666204, 4.801717016644849 ], [ -74.353073764497395, 4.801789876120194 ], [ -74.35316564102375, 4.801890593659458 ], [ -74.353162695445732, 4.802129527766555 ], [ -74.353123052263825, 4.802086669779821 ], [ -74.353075372267753, 4.802130064202398 ], [ -74.353150909405315, 4.802209886442279 ], [ -74.353102158712744, 4.802253280195656 ], [ -74.353057156125061, 4.802292924220154 ], [ -74.353131088105243, 4.80237489083701 ], [ -74.353153052214168, 4.802351854552057 ], [ -74.353150909184976, 4.802410784748679 ], [ -74.353062246416798, 4.802496768373099 ], [ -74.35313751591562, 4.802574516536008 ], [ -74.353047848084174, 4.802662307611008 ], [ -74.35312338672928, 4.802740256018963 ], [ -74.353131957778899, 4.802732087183273 ], [ -74.353131153916749, 4.802781373375284 ], [ -74.353046241669034, 4.802860126198529 ], [ -74.353127136576163, 4.802946378005767 ], [ -74.353122047402309, 4.803127722092851 ], [ -74.353065796051126, 4.803174598294998 ], [ -74.352940568519585, 4.803282681379003 ], [ -74.353103196062037, 4.803481770418104 ], [ -74.353113743094255, 4.80347273037743 ], [ -74.353111333058663, 4.803625814147922 ], [ -74.353004053217788, 4.803728874532077 ], [ -74.353110126349634, 4.803858453791259 ], [ -74.353108922048179, 4.804042275610125 ], [ -74.353094456692546, 4.804027206921958 ], [ -74.352907622579963, 4.804204399336752 ], [ -74.353076376348099, 4.80441594534165 ], [ -74.352946797651299, 4.804536484125604 ], [ -74.352983561053975, 4.80458168404494 ], [ -74.352917868156666, 4.804643763326008 ], [ -74.35303720011116, 4.8047950383329 ], [ -74.353046242115624, 4.804800462438511 ], [ -74.353054076097266, 4.804796847389914 ], [ -74.353077581760814, 4.804773342437938 ], [ -74.353072157653457, 4.80492763175029 ], [ -74.352791905934424, 4.805221142003893 ], [ -74.352706925994696, 4.805171722102549 ], [ -74.352664736789407, 4.805150627496801 ], [ -74.352696679538255, 4.805112657821462 ], [ -74.352112669058229, 4.804623271159391 ], [ -74.35247484173469, 4.804254702648153 ] ] ] } },
{ "type": "Feature", "id": 5, "properties": { "FID": 5, "Entity": "LWPolyline", "Handle": "2F0", "Layer": "0", "LyrFrzn": 1000, "LyrOn": 1, "Color": 5, "Linetype": "Continuous", "Elevation": 0, "LineWt": 25, "RefName": "CUAN", "DocUpdate": 1756339200000, "DocId": 5.9984323274099999e+18, "GlobalWidt": 1 }, "geometry": { "type": "Polygon", "coordinates": [ [ [ -74.091842297651951, 4.62526259496351 ], [ -74.086154477977615, 4.624686133066453 ], [ -74.086073785214893, 4.625591777418932 ], [ -74.086034302403533, 4.625587968907383 ], [ -74.086006250485511, 4.625855505812881 ], [ -74.085903001296174, 4.625827757895803 ], [ -74.085761526907007, 4.626047416356537 ], [ -74.086017981695861, 4.626216595091237 ], [ -74.086006812887177, 4.626336338527575 ], [ -74.085952039391202, 4.626299316768652 ], [ -74.085876308301437, 4.626403114661548 ], [ -74.085993923851134, 4.626488878137991 ], [ -74.085976245258337, 4.626678964016784 ], [ -74.085856145649942, 4.626834859633089 ], [ -74.085954912574181, 4.62691755616601 ], [ -74.085935254055144, 4.627136634198187 ], [ -74.085886307348602, 4.627096796330846 ], [ -74.085646985202317, 4.627259072165514 ], [ -74.085738934079032, 4.627391541752448 ], [ -74.085531754879653, 4.627534240707774 ], [ -74.085451397804647, 4.627417354090945 ], [ -74.085419836730736, 4.62743956259372 ], [ -74.08536928399441, 4.627364756643238 ], [ -74.085201749954138, 4.627515149205292 ], [ -74.085210190879465, 4.627525539520312 ], [ -74.085422272049499, 4.627800868885443 ], [ -74.085406817962195, 4.62781125946481 ], [ -74.08560747025335, 4.628113733112316 ], [ -74.085913516167608, 4.627907235596514 ], [ -74.086097027120161, 4.628184399215183 ], [ -74.086036100230444, 4.628225383137739 ], [ -74.086246821949416, 4.628528809139251 ], [ -74.086254383256801, 4.62853242650793 ], [ -74.08626983446176, 4.628555766509059 ], [ -74.086278709769616, 4.62854985007678 ], [ -74.086299420272965, 4.628579435294879 ], [ -74.086302708013505, 4.628577134737982 ], [ -74.086343801167374, 4.628634993749553 ], [ -74.086335912138836, 4.628641239130824 ], [ -74.086351033306727, 4.628664579134215 ], [ -74.08634511569953, 4.628668415241326 ], [ -74.086357279076921, 4.628686604510006 ], [ -74.086351689851966, 4.628689673958387 ], [ -74.08654992017766, 4.628983950392146 ], [ -74.086601697316553, 4.628949598189627 ], [ -74.086675663402815, 4.62906013680804 ], [ -74.086619366920274, 4.62909761364727 ], [ -74.086847513644443, 4.629435969215958 ], [ -74.086900275413157, 4.629400465617073 ], [ -74.086959366846415, 4.629489799693701 ], [ -74.086906439476707, 4.629523332295586 ], [ -74.087128669403938, 4.62986500284249 ], [ -74.087182580829918, 4.629828840734336 ], [ -74.087258556545521, 4.629942146172472 ], [ -74.087196388041534, 4.629981620082687 ], [ -74.087283760893087, 4.630108830015238 ], [ -74.087289604248056, 4.630105031985786 ], [ -74.087461535457265, 4.63036853469819 ], [ -74.087516910655253, 4.630333140854934 ], [ -74.087593055923918, 4.630448135763272 ], [ -74.087538964034394, 4.630483290601077 ], [ -74.087799326546914, 4.630894337386381 ], [ -74.087861641411124, 4.630854523422522 ], [ -74.087921033983591, 4.630944434195025 ], [ -74.087861203242795, 4.630984456211769 ], [ -74.08799187690424, 4.631186139098673 ], [ -74.088126660814552, 4.631095078497713 ], [ -74.088107375929141, 4.631064176920139 ], [ -74.088655933585414, 4.63067725019834 ], [ -74.088769019443049, 4.63060229729057 ], [ -74.089127017724394, 4.631147677686958 ], [ -74.089144933413948, 4.631171673847904 ], [ -74.089165644088453, 4.631199783072712 ], [ -74.089178137579566, 4.631215234075963 ], [ -74.089217257098156, 4.631251065840083 ], [ -74.089259664326178, 4.63128229651567 ], [ -74.089303715647461, 4.631308923921855 ], [ -74.089352370449888, 4.631330950216532 ], [ -74.08947038767927, 4.631252709165937 ], [ -74.090173233877167, 4.632321115960847 ], [ -74.092627773262649, 4.630658676277876 ], [ -74.091789107298197, 4.629411108708553 ], [ -74.091917808289978, 4.629294611018867 ], [ -74.091971937724566, 4.629254398904847 ], [ -74.093693878205869, 4.628068633844054 ], [ -74.092606241016128, 4.626935793926922 ], [ -74.092111404191527, 4.627344829222428 ], [ -74.091734175851386, 4.627661406790672 ], [ -74.091633951224182, 4.627561182356804 ], [ -74.091645044698126, 4.627433958298768 ], [ -74.091722709757079, 4.627528636115246 ], [ -74.091824044560198, 4.627443574589062 ], [ -74.091709395799839, 4.627303778048051 ], [ -74.09178040474437, 4.627247563001814 ], [ -74.091723450798497, 4.627175076365734 ], [ -74.091931296948289, 4.627003473973078 ], [ -74.091764131782654, 4.626794149161373 ], [ -74.09178373234046, 4.62662735417343 ], [ -74.091868424968766, 4.626556346103377 ], [ -74.091764131661947, 4.62643060193406 ], [ -74.091791476253405, 4.626217983575673 ], [ -74.091755798205341, 4.626214457351659 ], [ -74.091842297651951, 4.62526259496351 ] ] ] } },
{ "type": "Feature", "id": 6, "properties": { "FID": 6, "Entity": "LWPolyline", "Handle": "3A6", "Layer": "0", "LyrFrzn": 1000, "LyrOn": 1, "Color": 5, "Linetype": "Continuous", "Elevation": 0, "LineWt": 25, "RefName": "CORZO", "DocUpdate": 1756339200000, "DocId": 3.2071602835000003e+18, "GlobalWidt": 8 }, "geometry": { "type": "Polygon", "coordinates": [ [ [ -74.316957397863462, 4.771483327338504 ], [ -74.316753191631307, 4.771252359117995 ], [ -74.316567573273502, 4.771018226707383 ], [ -74.315774476066082, 4.770389654763195 ], [ -74.314778888153143, 4.769734366137505 ], [ -74.315434683848238, 4.770634568010346 ], [ -74.315644676903688, 4.770934558091136 ], [ -74.3161077845932, 4.771392041328718 ], [ -74.315835920076339, 4.771618908120041 ], [ -74.315817170620647, 4.771582346932095 ], [ -74.315857482232687, 4.771552348234076 ], [ -74.315724361160491, 4.771346105667011 ], [ -74.315412185137433, 4.771656406530306 ], [ -74.315571554827272, 4.771834525324523 ], [ -74.315463746035519, 4.771924522335125 ], [ -74.315310001937263, 4.77175765286942 ], [ -74.313996922572827, 4.77294073563684 ], [ -74.313783181044485, 4.773101980777765 ], [ -74.316903069808106, 4.778160550252238 ], [ -74.31743836320662, 4.77747619976418 ], [ -74.317743976847737, 4.776984968219592 ], [ -74.318402078598453, 4.776107499317622 ], [ -74.318165133802637, 4.774906369916966 ], [ -74.317923267570421, 4.774636378830965 ], [ -74.31801818566511, 4.774566772413834 ], [ -74.318139118637788, 4.774698252921781 ], [ -74.31809341825641, 4.774511227489397 ], [ -74.318368330406187, 4.77431084357832 ], [ -74.318458677962141, 4.774896878391102 ], [ -74.318967408579582, 4.775487546163917 ], [ -74.319146708524656, 4.775545050275348 ], [ -74.319175840530079, 4.775537050465817 ], [ -74.319641995054042, 4.775834461790192 ], [ -74.31986980081318, 4.775927271188305 ], [ -74.320131352860628, 4.776011643760099 ], [ -74.320502590259991, 4.775994768148895 ], [ -74.320907575014175, 4.775868210998432 ], [ -74.321025696338225, 4.775775402320247 ], [ -74.321059445284092, 4.775581345913084 ], [ -74.321186004105769, 4.775488536422316 ], [ -74.321186002932365, 4.775260732589733 ], [ -74.321261939433299, 4.775100426114956 ], [ -74.321337873419836, 4.774990742462397 ], [ -74.321472869246548, 4.774923244651963 ], [ -74.321557239946785, 4.774965430876984 ], [ -74.321641612318686, 4.77516792363055 ], [ -74.321759734162768, 4.775260731130886 ], [ -74.321785044537876, 4.7750582390914 ], [ -74.321785045292316, 4.774847309725057 ], [ -74.321793481295572, 4.774771374688429 ], [ -74.321827231792525, 4.774602631320326 ], [ -74.321877854938791, 4.774484510288731 ], [ -74.322012848650388, 4.774484509114176 ], [ -74.322257527617452, 4.774400137345108 ], [ -74.322215342946549, 4.774256705410674 ], [ -74.322232217071331, 4.774163896765063 ], [ -74.322316587490917, 4.774062650271122 ], [ -74.32236721147828, 4.773978277574488 ], [ -74.322384085370388, 4.773936091752253 ], [ -74.319868393276678, 4.771731170772708 ], [ -74.319280602797662, 4.772333024167567 ], [ -74.319258102269302, 4.772437082179773 ], [ -74.319289040013274, 4.772580514990308 ], [ -74.319289039106181, 4.772695824103264 ], [ -74.319238416397809, 4.772861755118724 ], [ -74.319109046280545, 4.772982687686564 ], [ -74.318906552932873, 4.773038935394375 ], [ -74.318757496554198, 4.773047372323288 ], [ -74.318628124804547, 4.773086745722693 ], [ -74.318434069099652, 4.773320175796822 ], [ -74.318254076088067, 4.773637976523384 ], [ -74.317580036820061, 4.772589890111635 ], [ -74.317602536691055, 4.772565515188813 ], [ -74.317623806825537, 4.77252031268223 ], [ -74.317422894858638, 4.772173068517167 ], [ -74.317179270361947, 4.771793393388759 ], [ -74.316957397863462, 4.771483327338504 ] ] ] } },
{ "type": "Feature", "id": 7, "properties": { "FID": 7, "Entity": "LWPolyline", "Handle": "33E", "Layer": "0", "LyrFrzn": 1000, "LyrOn": 1, "Color": 5, "Linetype": "Continuous", "Elevation": 0, "LineWt": 25, "RefName": "CERRITO", "DocUpdate": 1756339200000, "DocId": 1.21082923497e+19, "GlobalWidt": 4 }, "geometry": { "type": "Polygon", "coordinates": [ [ [ -74.18284532223565, 4.697627694500148 ], [ -74.182734465167442, 4.69776978359395 ], [ -74.182738625725122, 4.697773302168776 ], [ -74.182634375786535, 4.697920367691921 ], [ -74.182595763519814, 4.69797030578884 ], [ -74.182562300653345, 4.698014580149863 ], [ -74.1824964037923, 4.698104158090071 ], [ -74.182206678035115, 4.698494817153883 ], [ -74.182169032394512, 4.698464410624817 ], [ -74.182125706336365, 4.698431352297273 ], [ -74.182046768370157, 4.698537177004655 ], [ -74.181968687638204, 4.698544325360154 ], [ -74.181992023499561, 4.698512193683757 ], [ -74.181850280649314, 4.698444223539808 ], [ -74.181901761242941, 4.698377868705363 ], [ -74.181934939363202, 4.698330962742982 ], [ -74.182028749377068, 4.698199399164503 ], [ -74.182127136969967, 4.698064402339436 ], [ -74.182417954636264, 4.697670346471629 ], [ -74.182254697669507, 4.697520983174591 ], [ -74.181818818013681, 4.6981113075807 ], [ -74.181547681179694, 4.698480260559099 ], [ -74.18143098976374, 4.698437359254032 ], [ -74.182177474152383, 4.697424885098616 ], [ -74.183128171660201, 4.696021721811404 ], [ -74.181897757679877, 4.695068164926271 ], [ -74.181027715307621, 4.696084929760683 ], [ -74.181045734032651, 4.69609265156041 ], [ -74.180842382210514, 4.696314023363166 ], [ -74.179739386095605, 4.697583048503836 ], [ -74.180428596518951, 4.698362997 ], [ -74.18047493127699, 4.698457112277952 ], [ -74.180561805506969, 4.698493309257921 ], [ -74.180554566687121, 4.698914655944047 ], [ -74.178111917937954, 4.698021286367931 ], [ -74.177593562279313, 4.698562809373408 ], [ -74.177654374060211, 4.698585976271474 ], [ -74.178276981348247, 4.699029042317929 ], [ -74.179907343957197, 4.699576357044473 ], [ -74.179927614561436, 4.699585044443984 ], [ -74.180541534338957, 4.699518438491276 ], [ -74.180535742968843, 4.69981671220492 ], [ -74.175355072194805, 4.700300319289776 ], [ -74.174584776012622, 4.700364027123001 ], [ -74.174625318418776, 4.700474069987206 ], [ -74.17517552937602, 4.700595694824044 ], [ -74.175966094681471, 4.700995321670381 ], [ -74.176435221829138, 4.701325448757871 ], [ -74.17671032813935, 4.701554220760583 ], [ -74.177028870828906, 4.701991494804243 ], [ -74.17721420503446, 4.702269495818877 ], [ -74.177283706330329, 4.702547496821807 ], [ -74.177272123339606, 4.702910443869352 ], [ -74.177171733893104, 4.703053304427312 ], [ -74.177360929791504, 4.703277250631011 ], [ -74.177472901642219, 4.703427834478307 ], [ -74.177546263404253, 4.703674947480859 ], [ -74.177553986121254, 4.703775336926939 ], [ -74.177534679402356, 4.703852558491672 ], [ -74.177569431002254, 4.703937503938785 ], [ -74.177801097772814, 4.704265699730798 ], [ -74.178009598839367, 4.704578451492098 ], [ -74.178241267034124, 4.705265732723186 ], [ -74.178519267388481, 4.705497401233646 ], [ -74.179044381682218, 4.705983903685735 ], [ -74.179144741277256, 4.705980237369736 ], [ -74.179243229834384, 4.705980042495861 ], [ -74.179466209987353, 4.706029270974428 ], [ -74.180039587834528, 4.706058229551673 ], [ -74.180404464762844, 4.706104562832947 ], [ -74.18071142546917, 4.706208814593899 ], [ -74.181927681524513, 4.706417314803983 ], [ -74.182396808412634, 4.706434690144365 ], [ -74.182715350854963, 4.706428897974011 ], [ -74.183277145787372, 4.706353606998491 ], [ -74.183670981916322, 4.706313064626987 ], [ -74.18329452166931, 4.700608244221215 ], [ -74.183129457082657, 4.699570083010887 ], [ -74.182773268822288, 4.699586371258878 ], [ -74.182782228226642, 4.699022223409582 ], [ -74.183365378479763, 4.699030369568763 ], [ -74.183756317743757, 4.698432557869967 ], [ -74.18284532223565, 4.697627694500148 ] ] ] } },
{ "type": "Feature", "id": 8, "properties": { "FID": 8, "Entity": "LWPolyline", "Handle": "324", "Layer": "0", "LyrFrzn": 1000, "LyrOn": 1, "Color": 5, "Linetype": "Continuous", "Elevation": 0, "LineWt": 25, "RefName": "ENGATIVA", "DocUpdate": 1756339200000, "DocId": 1.4790120317e+19, "GlobalWidt": 3 }, "geometry": { "type": "Polygon", "coordinates": [ [ [ -74.15960057950015, 4.693482252883394 ], [ -74.159329086966991, 4.693670702452842 ], [ -74.159351142154719, 4.693791503107167 ], [ -74.158932405091775, 4.693560421534672 ], [ -74.158030594847361, 4.694539079464104 ], [ -74.158544510229021, 4.695055598590121 ], [ -74.159470906551874, 4.694450856009786 ], [ -74.159499447202194, 4.694614383661383 ], [ -74.159338234763027, 4.694717743368123 ], [ -74.159397628517297, 4.694783309748781 ], [ -74.159193219104367, 4.694912383566886 ], [ -74.159227159356305, 4.69494529487019 ], [ -74.159111454925494, 4.695019344192307 ], [ -74.159452738007175, 4.695391651125154 ], [ -74.159644718815599, 4.695607631361791 ], [ -74.160259746215317, 4.696262655183665 ], [ -74.160427653538761, 4.69643147705565 ], [ -74.16044685303882, 4.696442751573215 ], [ -74.160474279042717, 4.696449150328258 ], [ -74.160502009310562, 4.696451283058545 ], [ -74.160526997048493, 4.696447323186766 ], [ -74.160555032328773, 4.696437571386178 ], [ -74.160571182982309, 4.696429647387885 ], [ -74.160803390563842, 4.696191956892102 ], [ -74.161329968628507, 4.695658064732237 ], [ -74.161601248601073, 4.695383399411151 ], [ -74.161611406085484, 4.69536077945627 ], [ -74.161613843798875, 4.695352638516821 ], [ -74.161619261053247, 4.695340599930336 ], [ -74.161623234166484, 4.695327958793333 ], [ -74.161625280682372, 4.695314716267924 ], [ -74.161626243556469, 4.695302287440936 ], [ -74.161625520876356, 4.695290006738631 ], [ -74.161622721865356, 4.695276283500871 ], [ -74.161620014661111, 4.695266622019641 ], [ -74.161615589956412, 4.695256780259282 ], [ -74.161763170391907, 4.695334114866353 ], [ -74.161921428170615, 4.695173487295675 ], [ -74.161508955318212, 4.694960648352108 ], [ -74.161550580253646, 4.694841281791413 ], [ -74.161628410280699, 4.694882635767247 ], [ -74.16162190984862, 4.694894734094618 ], [ -74.16496629794284, 4.696756359170946 ], [ -74.164981556350455, 4.696735968941705 ], [ -74.165021500102469, 4.696682278949433 ], [ -74.16505376708929, 4.696639007338364 ], [ -74.165086272232926, 4.696595397353311 ], [ -74.165118234985613, 4.69655205733625 ], [ -74.16515074012959, 4.696508514133644 ], [ -74.165183333873159, 4.696465242475609 ], [ -74.165215208044287, 4.696421902465325 ], [ -74.165247711506083, 4.696378200298145 ], [ -74.165307665786486, 4.696297119683316 ], [ -74.165279044161167, 4.696271747038156 ], [ -74.165273265681463, 4.696276171608669 ], [ -74.164833186002994, 4.695876963795178 ], [ -74.164615222003818, 4.695675495047875 ], [ -74.164610527128715, 4.695669956308648 ], [ -74.164608059014256, 4.69566778967863 ], [ -74.164165331030318, 4.695257806672243 ], [ -74.163462503649939, 4.694592060700479 ], [ -74.163341153268561, 4.694467819993977 ], [ -74.162880246627594, 4.694009922865432 ], [ -74.162666404334715, 4.694268161287241 ], [ -74.162243350903765, 4.693832837543831 ], [ -74.161874657609872, 4.693453016682874 ], [ -74.1616052730256, 4.693175641876186 ], [ -74.161599637169587, 4.69318584306238 ], [ -74.161590648098397, 4.693189483122885 ], [ -74.161525372080732, 4.693259254703243 ], [ -74.161292849092675, 4.69342533715382 ], [ -74.161133453785197, 4.693326137420637 ], [ -74.161230486967426, 4.693245476043809 ], [ -74.16123530298438, 4.693238494457733 ], [ -74.160683984583102, 4.692774697532526 ], [ -74.160494011325582, 4.692928734505878 ], [ -74.160444411715559, 4.692898397189175 ], [ -74.16039625621822, 4.692835795714459 ], [ -74.161047315976987, 4.692335621674305 ], [ -74.161055662999402, 4.6922945288738 ], [ -74.160304306109651, 4.69155316549584 ], [ -74.160298545823366, 4.691548532594991 ], [ -74.160292088628822, 4.691544679124026 ], [ -74.160285061633715, 4.691541862274537 ], [ -74.160277767967486, 4.691540202886639 ], [ -74.16027024176519, 4.691539936085202 ], [ -74.160262946734235, 4.691540701946566 ], [ -74.160255776162458, 4.691542592658426 ], [ -74.160248820275541, 4.691545661196869 ], [ -74.160239367757512, 4.691551760764689 ], [ -74.159294882367817, 4.692372969062815 ], [ -74.158660872644504, 4.692924151431122 ], [ -74.158639256747151, 4.692947552024955 ], [ -74.159593516351038, 4.6934761894873 ], [ -74.15960057950015, 4.693482252883394 ] ] ] } },
{ "type": "Feature", "id": 9, "properties": { "FID": 9, "Entity": " ", "Handle": " ", "Layer": " ", "LyrFrzn": 0, "LyrOn": 0, "Color": 0, "Linetype": " ", "Elevation": 0, "LineWt": 0, "RefName": "LOS MICOS", "DocUpdate": null, "DocId": 0.0, "GlobalWidt": 0 }, "geometry": { "type": "Polygon", "coordinates": [ [ [ -74.350730491999968, 4.802711219000074 ], [ -74.350295349999939, 4.802153277000072 ], [ -74.350188565999972, 4.802270738000067 ], [ -74.349993686999937, 4.802123911000022 ], [ -74.349846859999957, 4.801958397000046 ], [ -74.349708040999985, 4.801819579000069 ], [ -74.349550535999981, 4.80177953500003 ], [ -74.349270229999931, 4.801694108000049 ], [ -74.34914742899997, 4.80172080400004 ], [ -74.349096706999958, 4.80182758700004 ], [ -74.349011279999942, 4.802177303000068 ], [ -74.348957888999962, 4.802305443000045 ], [ -74.348771017999979, 4.8021052240001 ], [ -74.348666903999955, 4.80217730300008 ], [ -74.348800382999968, 4.80233747800003 ], [ -74.348594824999964, 4.802481635000065 ], [ -74.34854944199995, 4.802593758000048 ], [ -74.348418632999923, 4.802681854000077 ], [ -74.348549441999978, 4.802836690000046 ], [ -74.348431980999976, 4.802932795000086 ], [ -74.348168358999942, 4.803152368000047 ], [ -74.347467593999951, 4.803032237000034 ], [ -74.347247352999929, 4.803090300000067 ], [ -74.347379497999952, 4.803610869000057 ], [ -74.347403523999944, 4.803650913000111 ], [ -74.347243348999925, 4.803807083000049 ], [ -74.347443567999946, 4.804103407000067 ], [ -74.347355470999943, 4.804327652000063 ], [ -74.348404617999961, 4.804884260000068 ], [ -74.349585907999924, 4.80568913900005 ], [ -74.350230611999962, 4.804884260000068 ], [ -74.349613938999937, 4.804407739000089 ], [ -74.350392789999944, 4.803783057000043 ], [ -74.350376771999947, 4.803765037000061 ], [ -74.350443844999972, 4.803709977000064 ], [ -74.350471875999972, 4.803741011000071 ], [ -74.350826262999988, 4.803435677000066 ], [ -74.350566478999937, 4.80311733 ], [ -74.350408806999937, 4.803262989000096 ], [ -74.350353245999941, 4.803214936000087 ], [ -74.350447849999952, 4.80314435900006 ], [ -74.350338229999963, 4.803009212000108 ], [ -74.350730491999968, 4.802711219000074 ] ] ] } },
{ "type": "Feature", "id": 10, "properties": { "FID": 10, "Entity": " ", "Handle": " ", "Layer": " ", "LyrFrzn": 0, "LyrOn": 0, "Color": 0, "Linetype": " ", "Elevation": 0, "LineWt": 0, "RefName": "CEMENTERIO CENTRAL", "DocUpdate": null, "DocId": 0.0, "GlobalWidt": 0 }, "geometry": { "type": "Polygon", "coordinates": [ [ [ -74.075364342999919, 4.614035767000067 ], [ -74.075325922999966, 4.613986708000047 ], [ -74.075314101999936, 4.613970159000107 ], [ -74.075231943999938, 4.614026310000076 ], [ -74.07466274799998, 4.614348440000107 ], [ -74.07437194399995, 4.614511574000075 ], [ -74.074176892999958, 4.614632152000103 ], [ -74.073776150999919, 4.614864440000096 ], [ -74.073397129999975, 4.615080770000039 ], [ -74.073297387999958, 4.615142389000049 ], [ -74.073107544999971, 4.615331123000031 ], [ -74.073108541999929, 4.615375010000066 ], [ -74.073112531999982, 4.615408922000045 ], [ -74.073132480999959, 4.615471760000045 ], [ -74.073206289999959, 4.615582474000093 ], [ -74.073674080999979, 4.616266705000057 ], [ -74.074231639999951, 4.617084592000059 ], [ -74.074957763999961, 4.618133880000092 ], [ -74.075161237999964, 4.618422634000104 ], [ -74.075876389999962, 4.619463943000025 ], [ -74.076494292999939, 4.620354143000046 ], [ -74.077134637999961, 4.621275761000037 ], [ -74.077358060999984, 4.621580474000047 ], [ -74.077395962999958, 4.621624361000069 ], [ -74.077624372999921, 4.621451806000058 ], [ -74.077996410999944, 4.62120943300008 ], [ -74.07831758199994, 4.620997979000049 ], [ -74.078264717999957, 4.62090322400007 ], [ -74.077896668999955, 4.620349655000044 ], [ -74.077876720999939, 4.620324719000079 ], [ -74.077869738999951, 4.620287814000053 ], [ -74.07787173399997, 4.620253902000065 ], [ -74.077886694999961, 4.620211013000102 ], [ -74.077919609999967, 4.620180093000053 ], [ -74.078092163999941, 4.620070376000083 ], [ -74.078951941999932, 4.619496858000049 ], [ -74.078986851999957, 4.619473419000047 ], [ -74.077946539999957, 4.617974293000052 ], [ -74.077161069999974, 4.616849699000061 ], [ -74.076873063999983, 4.616409586000055 ], [ -74.076701008999962, 4.61606547500004 ], [ -74.076555135999953, 4.615788691000061 ], [ -74.07586878499994, 4.614772567000053 ], [ -74.075364342999919, 4.614035767000067 ] ] ] } }
]
}
