{"type":"FeatureCollection","features":[{"type":"Feature","id":0,"geometry":{"type":"Polygon","coordinates":[[[-74.340969871994005,4.7928954540179598],[-74.340949154802956,4.7929227437264137],[-74.340995659477201,4.7929662532137733],[-74.341019391951136,4.7929389026580136],[-74.340969871994005,4.7928954540179598]]]},"properties":{"FID":0,"Entity":"LWPolyline","Handle":"8F","Layer":"Areas Requeridas","LyrFrzn":0,"LyrOn":1,"Color":152,"Linetype":"Continuous","Elevation":0,"LineWt":25,"RefName":"PRG-156","DocUpdate":1731628800000,"DocId":1.2886881495800001e+19,"GlobalWidt":0,"days":180}}]}