{
"type": "FeatureCollection",
"name": "Stations",
"crs": { "type": "name", "properties": { "name": "urn:ogc:def:crs:EPSG::4686" } },
"features": [
{ "type": "Feature", "id": 16, "properties": { "OBJECTID": 16, "Name": "Estacion Calle 26", "FolderPath": "Cl26", "SymbolID": 1, "AltMode": 0, "Base": 0, "Clamped": -1, "Extruded": 0, "Snippet": "Estacion", "PopupInfo": "<html xmlns:fo=\"http://www.w3.org/1999/XSL/Format\" xmlns:msxsl=\"urn:schemas-microsoft-com:xslt\">\n\n<head>\n\n<META http-equiv=\"Content-Type\" content=\"text/html\">\n\n<meta http-equiv=\"content-type\" content=\"text/html; charset=UTF-8\">\n\n</head>\n\n<body style=\"margin:0px 0px 0px 0px;overflow:auto;background:#FFFFFF;\">\n\n<table style=\"font-family:Arial,Verdana,Times;font-size:12px;text-align:left;width:100%;border-collapse:collapse;padding:3px 3px 3px 3px\">\n\n<tr style=\"text-align:center;font-weight:bold;background:#9CBCE2\">\n\n<td></td>\n\n</tr>\n\n<tr>\n\n<td>\n\n<table style=\"font-family:Arial,Verdana,Times;font-size:12px;text-align:left;width:100%;border-spacing:0px; padding:3px 3px 3px 3px\">\n\n<tr>\n\n<td>EXPEDIENTE</td>\n\n<td><Null></td>\n\n</tr>\n\n<tr bgcolor=\"#D4E4F3\">\n\n<td>OPERADOR</td>\n\n<td>Concesionaria Férrea de Occidente S.A.S.</td>\n\n</tr>\n\n<tr>\n\n<td>PROYECTO</td>\n\n<td>Regiotram de Occidente</td>\n\n</tr>\n\n<tr bgcolor=\"#D4E4F3\">\n\n<td>NUM_ACT_AD</td>\n\n<td><Null></td>\n\n</tr>\n\n<tr>\n\n<td>FEC_ACT_AD</td>\n\n<td><Null></td>\n\n</tr>\n\n<tr bgcolor=\"#D4E4F3\">\n\n<td>ART_ACT_AD</td>\n\n<td><Null></td>\n\n</tr>\n\n<tr>\n\n<td>TIPO_INFRA</td>\n\n<td>Estaciones</td>\n\n</tr>\n\n<tr bgcolor=\"#D4E4F3\">\n\n<td>ID_INFRA_PG</td>\n\n<td>Cll. 26</td>\n\n</tr>\n\n<tr>\n\n<td>CARACTER</td>\n\n<td>Total de 17 estaciones de pasajeros; 9  estaciones en la zona urbana y 8  estaciones en la zona suburbana (2 estaciones por cada municipio)</td>\n\n</tr>\n\n<tr bgcolor=\"#D4E4F3\">\n\n<td>ESTADO</td>\n\n<td>Proyectada</td>\n\n</tr>\n\n<tr>\n\n<td>ADECUACION</td>\n\n<td><Null></td>\n\n</tr>\n\n<tr bgcolor=\"#D4E4F3\">\n\n<td>TIPO_ADEC</td>\n\n<td><Null></td>\n\n</tr>\n\n<tr>\n\n<td>CALIDAD</td>\n\n<td><Null></td>\n\n</tr>\n\n<tr bgcolor=\"#D4E4F3\">\n\n<td>REQU_OCUP</td>\n\n<td><Null></td>\n\n</tr>\n\n<tr>\n\n<td>OBSERV</td>\n\n<td><Null></td>\n\n</tr>\n\n<tr bgcolor=\"#D4E4F3\">\n\n<td>AREA_HA</td>\n\n<td>0,305046</td>\n\n</tr>\n\n</table>\n\n</td>\n\n</tr>\n\n</table>\n\n</body>\n\n</html>", "Shape_Length": 0.0035954867761875185, "Shape_Area": 2.4891708508380501e-07 }, "geometry": { "type": "Polygon", "coordinates": [ [ [ -74.073870543999988, 4.614778811000065, 0.0 ], [ -74.073889903999941, 4.614781205000043, 0.0 ], [ -74.073909403999949, 4.614780757000062, 0.0 ], [ -74.073919142999955, 4.614779099000032, 0.0 ], [ -74.073928635999948, 4.614777483000069, 0.0 ], [ -74.073932971999966, 4.614774977000025, 0.0 ], [ -74.074284345999956, 4.614571993000027, 0.0 ], [ -74.074542505999943, 4.614422857000022, 0.0 ], [ -74.074613468999985, 4.614381862000073, 0.0 ], [ -74.074867264999966, 4.614235248000057, 0.0 ], [ -74.07493802099998, 4.614194372000043, 0.0 ], [ -74.075110348999942, 4.614094820000048, 0.0 ], [ -74.075124735999964, 4.614086508000071, 0.0 ], [ -74.075303621999979, 4.613983166000025, 0.0 ], [ -74.075230283999986, 4.613855344000058, 0.0 ], [ -74.075126211999986, 4.613915481000049, 0.0 ], [ -74.074810875999958, 4.614097695000055, 0.0 ], [ -74.074774679999962, 4.614118610000048, 0.0 ], [ -74.074714605999986, 4.614153325000075, 0.0 ], [ -74.074684568999942, 4.614170681000076, 0.0 ], [ -74.074548503999949, 4.614249304000055, 0.0 ], [ -74.074425677999955, 4.614320278000037, 0.0 ], [ -74.07431339599998, 4.614385158000061, 0.0 ], [ -74.074185064999938, 4.614459312000065, 0.0 ], [ -74.074010827999984, 4.614559994000047, 0.0 ], [ -74.074005874999955, 4.614563273000044, 0.0 ], [ -74.07400135599994, 4.614566266000054, 0.0 ], [ -74.073991024999941, 4.614570984000068, 0.0 ], [ -74.073980087999985, 4.614574026000071, 0.0 ], [ -74.073968813999954, 4.614575322000064, 0.0 ], [ -74.073957474999986, 4.614574841000035, 0.0 ], [ -74.073918162999973, 4.614579591000052, 0.0 ], [ -74.073899095999934, 4.614585547000047, 0.0 ], [ -74.073881282999935, 4.614594601000022, 0.0 ], [ -74.073856436999961, 4.614608987000054, 0.0 ], [ -74.073833826999987, 4.614626700000031, 0.0 ], [ -74.073813894999944, 4.61464740200006, 0.0 ], [ -74.073806979999972, 4.614659289000031, 0.0 ], [ -74.073802094999962, 4.614672151000036, 0.0 ], [ -74.073799367999982, 4.614685638000026, 0.0 ], [ -74.073798873999976, 4.614699392000034, 0.0 ], [ -74.073800625999979, 4.614713044000041, 0.0 ], [ -74.073804576999976, 4.614726224000037, 0.0 ], [ -74.073810619999961, 4.614738580000051, 0.0 ], [ -74.073818594999977, 4.614749780000068, 0.0 ], [ -74.073828284999934, 4.614759520000064, 0.0 ], [ -74.073839430999953, 4.614767542000038, 0.0 ], [ -74.073851733999959, 4.614773630000059, 0.0 ], [ -74.073870543999988, 4.614778811000065, 0.0 ] ] ] } },
{ "type": "Feature", "id": 17, "properties": { "OBJECTID": 17, "Name": "Estacion Av. Cr 30", "FolderPath": "Cr30", "SymbolID": 1, "AltMode": 0, "Base": 0, "Clamped": -1, "Extruded": 0, "Snippet": "Estacion", "PopupInfo": "<html xmlns:fo=\"http://www.w3.org/1999/XSL/Format\" xmlns:msxsl=\"urn:schemas-microsoft-com:xslt\">\n\n<head>\n\n<META http-equiv=\"Content-Type\" content=\"text/html\">\n\n<meta http-equiv=\"content-type\" content=\"text/html; charset=UTF-8\">\n\n</head>\n\n<body style=\"margin:0px 0px 0px 0px;overflow:auto;background:#FFFFFF;\">\n\n<table style=\"font-family:Arial,Verdana,Times;font-size:12px;text-align:left;width:100%;border-collapse:collapse;padding:3px 3px 3px 3px\">\n\n<tr style=\"text-align:center;font-weight:bold;background:#9CBCE2\">\n\n<td></td>\n\n</tr>\n\n<tr>\n\n<td>\n\n<table style=\"font-family:Arial,Verdana,Times;font-size:12px;text-align:left;width:100%;border-spacing:0px; padding:3px 3px 3px 3px\">\n\n<tr>\n\n<td>EXPEDIENTE</td>\n\n<td><Null></td>\n\n</tr>\n\n<tr bgcolor=\"#D4E4F3\">\n\n<td>OPERADOR</td>\n\n<td>Concesionaria Férrea de Occidente S.A.S.</td>\n\n</tr>\n\n<tr>\n\n<td>PROYECTO</td>\n\n<td>Regiotram de Occidente</td>\n\n</tr>\n\n<tr bgcolor=\"#D4E4F3\">\n\n<td>NUM_ACT_AD</td>\n\n<td><Null></td>\n\n</tr>\n\n<tr>\n\n<td>FEC_ACT_AD</td>\n\n<td><Null></td>\n\n</tr>\n\n<tr bgcolor=\"#D4E4F3\">\n\n<td>ART_ACT_AD</td>\n\n<td><Null></td>\n\n</tr>\n\n<tr>\n\n<td>TIPO_INFRA</td>\n\n<td>Estaciones</td>\n\n</tr>\n\n<tr bgcolor=\"#D4E4F3\">\n\n<td>ID_INFRA_PG</td>\n\n<td>Cra. 30</td>\n\n</tr>\n\n<tr>\n\n<td>CARACTER</td>\n\n<td>Total de 17 estaciones de pasajeros; 9  estaciones en la zona urbana y 8  estaciones en la zona suburbana (2 estaciones por cada municipio)</td>\n\n</tr>\n\n<tr bgcolor=\"#D4E4F3\">\n\n<td>ESTADO</td>\n\n<td>Proyectada</td>\n\n</tr>\n\n<tr>\n\n<td>ADECUACION</td>\n\n<td><Null></td>\n\n</tr>\n\n<tr bgcolor=\"#D4E4F3\">\n\n<td>TIPO_ADEC</td>\n\n<td><Null></td>\n\n</tr>\n\n<tr>\n\n<td>CALIDAD</td>\n\n<td><Null></td>\n\n</tr>\n\n<tr bgcolor=\"#D4E4F3\">\n\n<td>REQU_OCUP</td>\n\n<td><Null></td>\n\n</tr>\n\n<tr>\n\n<td>OBSERV</td>\n\n<td><Null></td>\n\n</tr>\n\n<tr bgcolor=\"#D4E4F3\">\n\n<td>AREA_HA</td>\n\n<td>0,147834</td>\n\n</tr>\n\n</table>\n\n</td>\n\n</tr>\n\n</table>\n\n</body>\n\n</html>", "Shape_Length": 0.0054268615429282959, "Shape_Area": 1.2063186577364054e-07 }, "geometry": { "type": "Polygon", "coordinates": [ [ [ -74.085217499999942, 4.619542243000069, 0.0 ], [ -74.085257550999984, 4.619583889000069, 0.0 ], [ -74.085273223999934, 4.619568714000025, 0.0 ], [ -74.085268556999949, 4.619563913000036, 0.0 ], [ -74.085368809999977, 4.619533362000027, 0.0 ], [ -74.085649893999971, 4.619261188000053, 0.0 ], [ -74.085653671999978, 4.61926507000004, 0.0 ], [ -74.085669110999959, 4.619250120000061, 0.0 ], [ -74.085629059999974, 4.619208474000061, 0.0 ], [ -74.085613372999944, 4.619223663000071, 0.0 ], [ -74.085617149999962, 4.619227547000037, 0.0 ], [ -74.085445991999961, 4.619393278000075, 0.0 ], [ -74.084372769999959, 4.618277311000043, 0.0 ], [ -74.084538026999951, 4.618117294000058, 0.0 ], [ -74.084540963999984, 4.618115197000066, 0.0 ], [ -74.084543052999948, 4.618118146000029, 0.0 ], [ -74.084557741999959, 4.618107664000036, 0.0 ], [ -74.084524316999989, 4.618060497000045, 0.0 ], [ -74.084509628999967, 4.618070978000048, 0.0 ], [ -74.084511717999987, 4.618073926000022, 0.0 ], [ -74.084508779999965, 4.618076022000025, 0.0 ], [ -74.084510179999938, 4.61807890800003, 0.0 ], [ -74.084340224999949, 4.618243474000053, 0.0 ], [ -74.084315841999967, 4.61826708600006, 0.0 ], [ -74.084297566999965, 4.618284783000036, 0.0 ], [ -74.08418562199995, 4.618393178000076, 0.0 ], [ -74.084148855999956, 4.618428778000066, 0.0 ], [ -74.084147038999959, 4.618432230000053, 0.0 ], [ -74.084143826999934, 4.61843059000006, 0.0 ], [ -74.084135652999976, 4.618446710000057, 0.0 ], [ -74.084187061999955, 4.618472953000037, 0.0 ], [ -74.084195233999935, 4.618456833000039, 0.0 ], [ -74.084192020999978, 4.618455193000045, 0.0 ], [ -74.084193655999968, 4.618451969000034, 0.0 ], [ -74.084193047999975, 4.618451336000021, 0.0 ], [ -74.084340344999987, 4.618308709000075, 0.0 ], [ -74.085413565999943, 4.619424676000051, 0.0 ], [ -74.085336261999942, 4.619499530000041, 0.0 ], [ -74.085240057999954, 4.619530009000073, 0.0 ], [ -74.085237622999955, 4.61953207800002, 0.0 ], [ -74.085235567999973, 4.619529776000036, 0.0 ], [ -74.085231766999982, 4.619528428000024, 0.0 ], [ -74.085217499999942, 4.619542243000069, 0.0 ] ] ] } },
{ "type": "Feature", "id": 18, "properties": { "OBJECTID": 18, "Name": "Estacion Cr 40", "FolderPath": "Cr40", "SymbolID": 1, "AltMode": 0, "Base": 0, "Clamped": -1, "Extruded": 0, "Snippet": "Estacion", "PopupInfo": "<html xmlns:fo=\"http://www.w3.org/1999/XSL/Format\" xmlns:msxsl=\"urn:schemas-microsoft-com:xslt\">\n\n<head>\n\n<META http-equiv=\"Content-Type\" content=\"text/html\">\n\n<meta http-equiv=\"content-type\" content=\"text/html; charset=UTF-8\">\n\n</head>\n\n<body style=\"margin:0px 0px 0px 0px;overflow:auto;background:#FFFFFF;\">\n\n<table style=\"font-family:Arial,Verdana,Times;font-size:12px;text-align:left;width:100%;border-collapse:collapse;padding:3px 3px 3px 3px\">\n\n<tr style=\"text-align:center;font-weight:bold;background:#9CBCE2\">\n\n<td></td>\n\n</tr>\n\n<tr>\n\n<td>\n\n<table style=\"font-family:Arial,Verdana,Times;font-size:12px;text-align:left;width:100%;border-spacing:0px; padding:3px 3px 3px 3px\">\n\n<tr>\n\n<td>EXPEDIENTE</td>\n\n<td><Null></td>\n\n</tr>\n\n<tr bgcolor=\"#D4E4F3\">\n\n<td>OPERADOR</td>\n\n<td>Concesionaria Férrea de Occidente S.A.S.</td>\n\n</tr>\n\n<tr>\n\n<td>PROYECTO</td>\n\n<td>Regiotram de Occidente</td>\n\n</tr>\n\n<tr bgcolor=\"#D4E4F3\">\n\n<td>NUM_ACT_AD</td>\n\n<td><Null></td>\n\n</tr>\n\n<tr>\n\n<td>FEC_ACT_AD</td>\n\n<td><Null></td>\n\n</tr>\n\n<tr bgcolor=\"#D4E4F3\">\n\n<td>ART_ACT_AD</td>\n\n<td><Null></td>\n\n</tr>\n\n<tr>\n\n<td>TIPO_INFRA</td>\n\n<td>Estaciones</td>\n\n</tr>\n\n<tr bgcolor=\"#D4E4F3\">\n\n<td>ID_INFRA_PG</td>\n\n<td>Cra. 40</td>\n\n</tr>\n\n<tr>\n\n<td>CARACTER</td>\n\n<td>Total de 17 estaciones de pasajeros; 9  estaciones en la zona urbana y 8  estaciones en la zona suburbana (2 estaciones por cada municipio)</td>\n\n</tr>\n\n<tr bgcolor=\"#D4E4F3\">\n\n<td>ESTADO</td>\n\n<td>Proyectada</td>\n\n</tr>\n\n<tr>\n\n<td>ADECUACION</td>\n\n<td><Null></td>\n\n</tr>\n\n<tr bgcolor=\"#D4E4F3\">\n\n<td>TIPO_ADEC</td>\n\n<td><Null></td>\n\n</tr>\n\n<tr>\n\n<td>CALIDAD</td>\n\n<td><Null></td>\n\n</tr>\n\n<tr bgcolor=\"#D4E4F3\">\n\n<td>REQU_OCUP</td>\n\n<td><Null></td>\n\n</tr>\n\n<tr>\n\n<td>OBSERV</td>\n\n<td><Null></td>\n\n</tr>\n\n<tr bgcolor=\"#D4E4F3\">\n\n<td>AREA_HA</td>\n\n<td>0,158682</td>\n\n</tr>\n\n</table>\n\n</td>\n\n</tr>\n\n</table>\n\n</body>\n\n</html>", "Shape_Length": 0.0059104378016358048, "Shape_Area": 1.2948485779486102e-07 }, "geometry": { "type": "Polygon", "coordinates": [ [ [ -74.096285482999974, 4.630769937000025, 0.0 ], [ -74.096288303999984, 4.63077011300004, 0.0 ], [ -74.096291114999985, 4.630769820000069, 0.0 ], [ -74.096293840999977, 4.630769069000053, 0.0 ], [ -74.096296404999975, 4.630767877000039, 0.0 ], [ -74.096298739999952, 4.630766278000067, 0.0 ], [ -74.096300779999979, 4.630764316000068, 0.0 ], [ -74.096302470999944, 4.630762043000061, 0.0 ], [ -74.096303766999938, 4.630759522000062, 0.0 ], [ -74.096304630999953, 4.630756822000023, 0.0 ], [ -74.096305040999937, 4.630754016000026, 0.0 ], [ -74.096304984999961, 4.630751180000061, 0.0 ], [ -74.096304464999946, 4.630748393000033, 0.0 ], [ -74.096303494999972, 4.630745729000068, 0.0 ], [ -74.096302100999935, 4.630743261000021, 0.0 ], [ -74.096271127999955, 4.630697517000044, 0.0 ], [ -74.096363940999936, 4.630608327000061, 0.0 ], [ -74.096371420999958, 4.63061616400006, 0.0 ], [ -74.096373961999973, 4.63061840000006, 0.0 ], [ -74.096376849999956, 4.630620155000031, 0.0 ], [ -74.096379996999985, 4.63062138500004, 0.0 ], [ -74.096383310999954, 4.630622043000074, 0.0 ], [ -74.096386687999939, 4.63062211700003, 0.0 ], [ -74.096390024999948, 4.63062160100003, 0.0 ], [ -74.09639322299995, 4.630620511000075, 0.0 ], [ -74.096396183999957, 4.630618880000043, 0.0 ], [ -74.096398817999955, 4.63061675900002, 0.0 ], [ -74.096401043999947, 4.630614210000033, 0.0 ], [ -74.09640279599995, 4.630611311000052, 0.0 ], [ -74.096404019999966, 4.630608152000036, 0.0 ], [ -74.096404676999953, 4.630604830000038, 0.0 ], [ -74.096404750999966, 4.630601441000067, 0.0 ], [ -74.096404235999955, 4.630598092000071, 0.0 ], [ -74.096403149999958, 4.630594882000025, 0.0 ], [ -74.096401524999976, 4.630591912000057, 0.0 ], [ -74.096399408999957, 4.630589269000041, 0.0 ], [ -74.096391929999982, 4.630581431000053, 0.0 ], [ -74.096406070999933, 4.630567842000062, 0.0 ], [ -74.096488694999948, 4.630486370000028, 0.0 ], [ -74.096443663999935, 4.630439489000025, 0.0 ], [ -74.096429385999954, 4.630453292000027, 0.0 ], [ -74.096442888999945, 4.63046735100005, 0.0 ], [ -74.09635951599995, 4.630547469000021, 0.0 ], [ -74.096309645999952, 4.630495222000036, 0.0 ], [ -74.096307249999938, 4.630493093000041, 0.0 ], [ -74.09630453699998, 4.630491390000032, 0.0 ], [ -74.096301580999977, 4.630490159000033, 0.0 ], [ -74.096298463999972, 4.630489432000047, 0.0 ], [ -74.096295269999985, 4.630489230000023, 0.0 ], [ -74.096292086999938, 4.630489558000022, 0.0 ], [ -74.096289000999946, 4.630490408000071, 0.0 ], [ -74.096286095999972, 4.630491755000037, 0.0 ], [ -74.096283451999966, 4.630493566000041, 0.0 ], [ -74.096281139999974, 4.630495785000051, 0.0 ], [ -74.096279224999989, 4.630498358000068, 0.0 ], [ -74.096277757999985, 4.630501213000059, 0.0 ], [ -74.096276778999936, 4.630504269000028, 0.0 ], [ -74.096276314999955, 4.630507446000024, 0.0 ], [ -74.096276376999981, 4.63051065600007, 0.0 ], [ -74.096276966999937, 4.630513812000061, 0.0 ], [ -74.096278064999979, 4.630516829000044, 0.0 ], [ -74.096279642999946, 4.630519622000065, 0.0 ], [ -74.096281658999942, 4.630522116000066, 0.0 ], [ -74.096331526999961, 4.63057436500003, 0.0 ], [ -74.096305165999979, 4.630599698000026, 0.0 ], [ -74.095238578999954, 4.629482198000062, 0.0 ], [ -74.095264051999948, 4.629465746000051, 0.0 ], [ -74.095306659999949, 4.629510389000075, 0.0 ], [ -74.095309056999952, 4.629512516000034, 0.0 ], [ -74.095311769999967, 4.629514220000033, 0.0 ], [ -74.09531472499998, 4.629515452000021, 0.0 ], [ -74.095317842999975, 4.629516177000028, 0.0 ], [ -74.095321036999962, 4.629516380000041, 0.0 ], [ -74.095324219999952, 4.629516051000053, 0.0 ], [ -74.095327306999934, 4.629515203000039, 0.0 ], [ -74.095330210999975, 4.629513854000038, 0.0 ], [ -74.095332854999981, 4.629512046000059, 0.0 ], [ -74.095335165999984, 4.629509824000024, 0.0 ], [ -74.095337081999958, 4.629507252000053, 0.0 ], [ -74.095338548999962, 4.629504398000051, 0.0 ], [ -74.095339527999954, 4.629501341000037, 0.0 ], [ -74.095339992999982, 4.62949816400004, 0.0 ], [ -74.095339929999966, 4.629494953000062, 0.0 ], [ -74.095339340999942, 4.629491796000025, 0.0 ], [ -74.095338241999968, 4.62948878100002, 0.0 ], [ -74.095336662999955, 4.629485989000045, 0.0 ], [ -74.095334647999948, 4.62948349200002, 0.0 ], [ -74.095297246999962, 4.629444306000039, 0.0 ], [ -74.095308209999985, 4.62943722600005, 0.0 ], [ -74.095394658999965, 4.629375967000044, 0.0 ], [ -74.095410870999956, 4.629392935000055, 0.0 ], [ -74.095425150999972, 4.629379133000043, 0.0 ], [ -74.095392247999939, 4.62934487900003, 0.0 ], [ -74.095380119999959, 4.62933225300003, 0.0 ], [ -74.095365843999957, 4.629346060000046, 0.0 ], [ -74.095269102999964, 4.629406560000064, 0.0 ], [ -74.095264226999973, 4.629409710000061, 0.0 ], [ -74.095253674999981, 4.629398654000056, 0.0 ], [ -74.095251134999955, 4.629396421000024, 0.0 ], [ -74.095248246999972, 4.629394662000038, 0.0 ], [ -74.095245099999943, 4.629393435000054, 0.0 ], [ -74.095241785999974, 4.629392776000032, 0.0 ], [ -74.095238408999933, 4.629392701000029, 0.0 ], [ -74.095235070999934, 4.629393218000075, 0.0 ], [ -74.095231873999978, 4.629394307000041, 0.0 ], [ -74.095228911999982, 4.629395938000073, 0.0 ], [ -74.095226278999974, 4.629398060000028, 0.0 ], [ -74.095224052999981, 4.629400609000072, 0.0 ], [ -74.095222300999978, 4.629403507000063, 0.0 ], [ -74.095221076999962, 4.629406666000023, 0.0 ], [ -74.095220419999976, 4.629409989000067, 0.0 ], [ -74.095220345999962, 4.629413378000038, 0.0 ], [ -74.095220860999973, 4.629416727000034, 0.0 ], [ -74.09522194699997, 4.629419936000033, 0.0 ], [ -74.095223571999952, 4.629422909000027, 0.0 ], [ -74.095225686999981, 4.629425549000075, 0.0 ], [ -74.095231031999958, 4.629431150000073, 0.0 ], [ -74.095217687999934, 4.629439770000033, 0.0 ], [ -74.095186208999962, 4.629460100000074, 0.0 ], [ -74.095154769999965, 4.629480405000038, 0.0 ], [ -74.095072445999961, 4.629533575000039, 0.0 ], [ -74.094980670999973, 4.629591797000046, 0.0 ], [ -74.094966621999959, 4.629600711000023, 0.0 ], [ -74.094966499999941, 4.629600788000062, 0.0 ], [ -74.094964122999954, 4.629598342000065, 0.0 ], [ -74.094948499999987, 4.62961335500006, 0.0 ], [ -74.094984370999953, 4.629650250000054, 0.0 ], [ -74.094988776999969, 4.629654782000046, 0.0 ], [ -74.095004271999983, 4.629639638000071, 0.0 ], [ -74.095001742999955, 4.629637038000055, 0.0 ], [ -74.095097557999964, 4.629573280000045, 0.0 ], [ -74.095199979999961, 4.629507128000057, 0.0 ], [ -74.096272621999958, 4.630630972000063, 0.0 ], [ -74.096183006999979, 4.63071708800004, 0.0 ], [ -74.096046868999963, 4.63071268300007, 0.0 ], [ -74.096044362999976, 4.630710104000059, 0.0 ], [ -74.096028868999952, 4.630725249000022, 0.0 ], [ -74.096069148999959, 4.630766674000029, 0.0 ], [ -74.096084641999937, 4.630751531000044, 0.0 ], [ -74.096082112999966, 4.630748930000038, 0.0 ], [ -74.096215782999934, 4.630750701000068, 0.0 ], [ -74.096233499999983, 4.630733676000034, 0.0 ], [ -74.096277719999989, 4.630766710000046, 0.0 ], [ -74.096280117999981, 4.630768212000021, 0.0 ], [ -74.096282728999938, 4.630769298000075, 0.0 ], [ -74.096285482999974, 4.630769937000025, 0.0 ] ] ] } },
{ "type": "Feature", "id": 19, "properties": { "OBJECTID": 19, "Name": "Estacion Av. Cr 68", "FolderPath": "Cr68", "SymbolID": 1, "AltMode": 0, "Base": 0, "Clamped": -1, "Extruded": 0, "Snippet": "Estacion", "PopupInfo": "<html xmlns:fo=\"http://www.w3.org/1999/XSL/Format\" xmlns:msxsl=\"urn:schemas-microsoft-com:xslt\">\n\n<head>\n\n<META http-equiv=\"Content-Type\" content=\"text/html\">\n\n<meta http-equiv=\"content-type\" content=\"text/html; charset=UTF-8\">\n\n</head>\n\n<body style=\"margin:0px 0px 0px 0px;overflow:auto;background:#FFFFFF;\">\n\n<table style=\"font-family:Arial,Verdana,Times;font-size:12px;text-align:left;width:100%;border-collapse:collapse;padding:3px 3px 3px 3px\">\n\n<tr style=\"text-align:center;font-weight:bold;background:#9CBCE2\">\n\n<td></td>\n\n</tr>\n\n<tr>\n\n<td>\n\n<table style=\"font-family:Arial,Verdana,Times;font-size:12px;text-align:left;width:100%;border-spacing:0px; padding:3px 3px 3px 3px\">\n\n<tr>\n\n<td>EXPEDIENTE</td>\n\n<td><Null></td>\n\n</tr>\n\n<tr bgcolor=\"#D4E4F3\">\n\n<td>OPERADOR</td>\n\n<td>Concesionaria Férrea de Occidente S.A.S.</td>\n\n</tr>\n\n<tr>\n\n<td>PROYECTO</td>\n\n<td>Regiotram de Occidente</td>\n\n</tr>\n\n<tr bgcolor=\"#D4E4F3\">\n\n<td>NUM_ACT_AD</td>\n\n<td><Null></td>\n\n</tr>\n\n<tr>\n\n<td>FEC_ACT_AD</td>\n\n<td><Null></td>\n\n</tr>\n\n<tr bgcolor=\"#D4E4F3\">\n\n<td>ART_ACT_AD</td>\n\n<td><Null></td>\n\n</tr>\n\n<tr>\n\n<td>TIPO_INFRA</td>\n\n<td>Estaciones</td>\n\n</tr>\n\n<tr bgcolor=\"#D4E4F3\">\n\n<td>ID_INFRA_PG</td>\n\n<td>Av. 68</td>\n\n</tr>\n\n<tr>\n\n<td>CARACTER</td>\n\n<td>Total de 17 estaciones de pasajeros; 9  estaciones en la zona urbana y 8  estaciones en la zona suburbana (2 estaciones por cada municipio)</td>\n\n</tr>\n\n<tr bgcolor=\"#D4E4F3\">\n\n<td>ESTADO</td>\n\n<td>Proyectada</td>\n\n</tr>\n\n<tr>\n\n<td>ADECUACION</td>\n\n<td><Null></td>\n\n</tr>\n\n<tr bgcolor=\"#D4E4F3\">\n\n<td>TIPO_ADEC</td>\n\n<td><Null></td>\n\n</tr>\n\n<tr>\n\n<td>CALIDAD</td>\n\n<td><Null></td>\n\n</tr>\n\n<tr bgcolor=\"#D4E4F3\">\n\n<td>REQU_OCUP</td>\n\n<td><Null></td>\n\n</tr>\n\n<tr>\n\n<td>OBSERV</td>\n\n<td><Null></td>\n\n</tr>\n\n<tr bgcolor=\"#D4E4F3\">\n\n<td>AREA_HA</td>\n\n<td>0,118926</td>\n\n</tr>\n\n</table>\n\n</td>\n\n</tr>\n\n</table>\n\n</body>\n\n</html>", "Shape_Length": 0.0043737206208127504, "Shape_Area": 9.7044235427301173e-08 }, "geometry": { "type": "Polygon", "coordinates": [ [ [ -74.107720471999983, 4.642792411000073, 0.0 ], [ -74.107760857999949, 4.642833733000032, 0.0 ], [ -74.107775013999969, 4.642819803000066, 0.0 ], [ -74.107776297999976, 4.64281853500006, 0.0 ], [ -74.107772514999965, 4.642814663000024, 0.0 ], [ -74.10783992599994, 4.642747951000047, 0.0 ], [ -74.10788462499994, 4.64278033100004, 0.0 ], [ -74.107887044999984, 4.642781797000055, 0.0 ], [ -74.107889671999942, 4.642782842000031, 0.0 ], [ -74.10789243399995, 4.642783442000052, 0.0 ], [ -74.107895257999985, 4.642783576000056, 0.0 ], [ -74.107898064999972, 4.642783243000054, 0.0 ], [ -74.107900778999976, 4.642782450000027, 0.0 ], [ -74.107903326999974, 4.642781221000064, 0.0 ], [ -74.107905636999988, 4.642779588000053, 0.0 ], [ -74.107907648999969, 4.642777595000041, 0.0 ], [ -74.107909305999954, 4.642775298000061, 0.0 ], [ -74.107910563999951, 4.642772759000025, 0.0 ], [ -74.10791138899998, 4.642770046000066, 0.0 ], [ -74.107911757999943, 4.642767234000075, 0.0 ], [ -74.107911659999957, 4.642764400000033, 0.0 ], [ -74.107911098999978, 4.642761621000034, 0.0 ], [ -74.107910091999941, 4.642758971000035, 0.0 ], [ -74.107908661999943, 4.642756524000049, 0.0 ], [ -74.107877020999979, 4.642711242000075, 0.0 ], [ -74.107942531999981, 4.642646410000054, 0.0 ], [ -74.106843289999972, 4.64152808800003, 0.0 ], [ -74.10677777799998, 4.641592918000072, 0.0 ], [ -74.106733089999977, 4.641560548000029, 0.0 ], [ -74.106730671999969, 4.641559080000036, 0.0 ], [ -74.106728045999944, 4.641558031000045, 0.0 ], [ -74.106725283999936, 4.641557430000034, 0.0 ], [ -74.106722459999958, 4.641557293000062, 0.0 ], [ -74.106719652999971, 4.641557624000029, 0.0 ], [ -74.106716938999966, 4.64155841500002, 0.0 ], [ -74.106714390999969, 4.641559642000061, 0.0 ], [ -74.106712077999987, 4.641561273000036, 0.0 ], [ -74.106710064999959, 4.641563264000069, 0.0 ], [ -74.106708406999985, 4.641565559000071, 0.0 ], [ -74.106707144999973, 4.64156809800005, 0.0 ], [ -74.106706317999965, 4.641570810000076, 0.0 ], [ -74.106705946999966, 4.64157362100002, 0.0 ], [ -74.106706042999974, 4.641576456000053, 0.0 ], [ -74.106706600999985, 4.64157923700003, 0.0 ], [ -74.106707607999965, 4.64158188600004, 0.0 ], [ -74.106709034999938, 4.641584334000072, 0.0 ], [ -74.106740683999988, 4.641629630000068, 0.0 ], [ -74.10667988199998, 4.641689799000062, 0.0 ], [ -74.106666114999939, 4.641675453000062, 0.0 ], [ -74.106654444999947, 4.641686760000027, 0.0 ], [ -74.106714455999963, 4.641749296000057, 0.0 ], [ -74.106724842999938, 4.641739260000065, 0.0 ], [ -74.106726126999945, 4.641737990000024, 0.0 ], [ -74.106712389999984, 4.641723675000037, 0.0 ], [ -74.106844114999944, 4.641593318000048, 0.0 ], [ -74.107877155999972, 4.642645062000042, 0.0 ], [ -74.107739701999947, 4.642781090000028, 0.0 ], [ -74.107735900999955, 4.642777223000053, 0.0 ], [ -74.107734627999946, 4.64277848200004, 0.0 ], [ -74.107720471999983, 4.642792411000073, 0.0 ] ] ] } },
{ "type": "Feature", "id": 20, "properties": { "OBJECTID": 20, "Name": "Estacion La Felicidad", "FolderPath": "LaFelicidad", "SymbolID": 1, "AltMode": 0, "Base": 0, "Clamped": -1, "Extruded": 0, "Snippet": "Estacion", "PopupInfo": "<html xmlns:fo=\"http://www.w3.org/1999/XSL/Format\" xmlns:msxsl=\"urn:schemas-microsoft-com:xslt\">\n\n<head>\n\n<META http-equiv=\"Content-Type\" content=\"text/html\">\n\n<meta http-equiv=\"content-type\" content=\"text/html; charset=UTF-8\">\n\n</head>\n\n<body style=\"margin:0px 0px 0px 0px;overflow:auto;background:#FFFFFF;\">\n\n<table style=\"font-family:Arial,Verdana,Times;font-size:12px;text-align:left;width:100%;border-collapse:collapse;padding:3px 3px 3px 3px\">\n\n<tr style=\"text-align:center;font-weight:bold;background:#9CBCE2\">\n\n<td></td>\n\n</tr>\n\n<tr>\n\n<td>\n\n<table style=\"font-family:Arial,Verdana,Times;font-size:12px;text-align:left;width:100%;border-spacing:0px; padding:3px 3px 3px 3px\">\n\n<tr>\n\n<td>EXPEDIENTE</td>\n\n<td><Null></td>\n\n</tr>\n\n<tr bgcolor=\"#D4E4F3\">\n\n<td>OPERADOR</td>\n\n<td>Concesionaria Férrea de Occidente S.A.S.</td>\n\n</tr>\n\n<tr>\n\n<td>PROYECTO</td>\n\n<td>Regiotram de Occidente</td>\n\n</tr>\n\n<tr bgcolor=\"#D4E4F3\">\n\n<td>NUM_ACT_AD</td>\n\n<td><Null></td>\n\n</tr>\n\n<tr>\n\n<td>FEC_ACT_AD</td>\n\n<td><Null></td>\n\n</tr>\n\n<tr bgcolor=\"#D4E4F3\">\n\n<td>ART_ACT_AD</td>\n\n<td><Null></td>\n\n</tr>\n\n<tr>\n\n<td>TIPO_INFRA</td>\n\n<td>Estaciones</td>\n\n</tr>\n\n<tr bgcolor=\"#D4E4F3\">\n\n<td>ID_INFRA_PG</td>\n\n<td>La Felicidad</td>\n\n</tr>\n\n<tr>\n\n<td>CARACTER</td>\n\n<td>Total de 17 estaciones de pasajeros; 9  estaciones en la zona urbana y 8  estaciones en la zona suburbana (2 estaciones por cada municipio)</td>\n\n</tr>\n\n<tr bgcolor=\"#D4E4F3\">\n\n<td>ESTADO</td>\n\n<td>Proyectada</td>\n\n</tr>\n\n<tr>\n\n<td>ADECUACION</td>\n\n<td><Null></td>\n\n</tr>\n\n<tr bgcolor=\"#D4E4F3\">\n\n<td>TIPO_ADEC</td>\n\n<td><Null></td>\n\n</tr>\n\n<tr>\n\n<td>CALIDAD</td>\n\n<td><Null></td>\n\n</tr>\n\n<tr bgcolor=\"#D4E4F3\">\n\n<td>REQU_OCUP</td>\n\n<td><Null></td>\n\n</tr>\n\n<tr>\n\n<td>OBSERV</td>\n\n<td><Null></td>\n\n</tr>\n\n<tr bgcolor=\"#D4E4F3\">\n\n<td>AREA_HA</td>\n\n<td>0,102824</td>\n\n</tr>\n\n</table>\n\n</td>\n\n</tr>\n\n</table>\n\n</body>\n\n</html>", "Shape_Length": 0.0037744302776885064, "Shape_Area": 8.3905911998694043e-08 }, "geometry": { "type": "Polygon", "coordinates": [ [ [ -74.123530946999949, 4.65873807600002, 0.0 ], [ -74.123656241999981, 4.658866609000029, 0.0 ], [ -74.123773508999989, 4.65875219000003, 0.0 ], [ -74.123739892999936, 4.658718002000057, 0.0 ], [ -74.123655675999942, 4.658801364000055, 0.0 ], [ -74.12260155599995, 4.657720011000038, 0.0 ], [ -74.122686655999985, 4.65763649400003, 0.0 ], [ -74.122653508999974, 4.657603259000041, 0.0 ], [ -74.122536587999946, 4.657718673000034, 0.0 ], [ -74.123530946999949, 4.65873807600002, 0.0 ] ] ] } },
{ "type": "Feature", "id": 21, "properties": { "OBJECTID": 21, "Name": "Estacion Av. Cali", "FolderPath": "AvCali", "SymbolID": 1, "AltMode": 0, "Base": 0, "Clamped": -1, "Extruded": 0, "Snippet": "Estacion", "PopupInfo": "<html xmlns:fo=\"http://www.w3.org/1999/XSL/Format\" xmlns:msxsl=\"urn:schemas-microsoft-com:xslt\">\n\n<head>\n\n<META http-equiv=\"Content-Type\" content=\"text/html\">\n\n<meta http-equiv=\"content-type\" content=\"text/html; charset=UTF-8\">\n\n</head>\n\n<body style=\"margin:0px 0px 0px 0px;overflow:auto;background:#FFFFFF;\">\n\n<table style=\"font-family:Arial,Verdana,Times;font-size:12px;text-align:left;width:100%;border-collapse:collapse;padding:3px 3px 3px 3px\">\n\n<tr style=\"text-align:center;font-weight:bold;background:#9CBCE2\">\n\n<td></td>\n\n</tr>\n\n<tr>\n\n<td>\n\n<table style=\"font-family:Arial,Verdana,Times;font-size:12px;text-align:left;width:100%;border-spacing:0px; padding:3px 3px 3px 3px\">\n\n<tr>\n\n<td>EXPEDIENTE</td>\n\n<td><Null></td>\n\n</tr>\n\n<tr bgcolor=\"#D4E4F3\">\n\n<td>OPERADOR</td>\n\n<td>Concesionaria Férrea de Occidente S.A.S.</td>\n\n</tr>\n\n<tr>\n\n<td>PROYECTO</td>\n\n<td>Regiotram de Occidente</td>\n\n</tr>\n\n<tr bgcolor=\"#D4E4F3\">\n\n<td>NUM_ACT_AD</td>\n\n<td><Null></td>\n\n</tr>\n\n<tr>\n\n<td>FEC_ACT_AD</td>\n\n<td><Null></td>\n\n</tr>\n\n<tr bgcolor=\"#D4E4F3\">\n\n<td>ART_ACT_AD</td>\n\n<td><Null></td>\n\n</tr>\n\n<tr>\n\n<td>TIPO_INFRA</td>\n\n<td>Estaciones</td>\n\n</tr>\n\n<tr bgcolor=\"#D4E4F3\">\n\n<td>ID_INFRA_PG</td>\n\n<td>Av. Cali</td>\n\n</tr>\n\n<tr>\n\n<td>CARACTER</td>\n\n<td>Total de 17 estaciones de pasajeros; 9  estaciones en la zona urbana y 8  estaciones en la zona suburbana (2 estaciones por cada municipio)</td>\n\n</tr>\n\n<tr bgcolor=\"#D4E4F3\">\n\n<td>ESTADO</td>\n\n<td>Proyectada</td>\n\n</tr>\n\n<tr>\n\n<td>ADECUACION</td>\n\n<td><Null></td>\n\n</tr>\n\n<tr bgcolor=\"#D4E4F3\">\n\n<td>TIPO_ADEC</td>\n\n<td><Null></td>\n\n</tr>\n\n<tr>\n\n<td>CALIDAD</td>\n\n<td><Null></td>\n\n</tr>\n\n<tr bgcolor=\"#D4E4F3\">\n\n<td>REQU_OCUP</td>\n\n<td><Null></td>\n\n</tr>\n\n<tr>\n\n<td>OBSERV</td>\n\n<td><Null></td>\n\n</tr>\n\n<tr bgcolor=\"#D4E4F3\">\n\n<td>AREA_HA</td>\n\n<td>0,156087</td>\n\n</tr>\n\n</table>\n\n</td>\n\n</tr>\n\n</table>\n\n</body>\n\n</html>", "Shape_Length": 0.0057606541904938954, "Shape_Area": 1.2737168041005311e-07 }, "geometry": { "type": "Polygon", "coordinates": [ [ [ -74.129198235999979, 4.664962004000074, 0.0 ], [ -74.129268529999933, 4.665012621000074, 0.0 ], [ -74.129282192999938, 4.664993519000063, 0.0 ], [ -74.129266290999965, 4.664982068000029, 0.0 ], [ -74.129371416999959, 4.664879349000046, 0.0 ], [ -74.129505460999951, 4.664748364000047, 0.0 ], [ -74.129513065999959, 4.664756174000047, 0.0 ], [ -74.129515627999979, 4.664758383000049, 0.0 ], [ -74.129518533999942, 4.664760112000067, 0.0 ], [ -74.129521693999948, 4.664761308000038, 0.0 ], [ -74.129525013999967, 4.664761935000058, 0.0 ], [ -74.129528389999962, 4.664761974000044, 0.0 ], [ -74.129531723999946, 4.664761425000052, 0.0 ], [ -74.129534910999951, 4.664760303000037, 0.0 ], [ -74.129537855999956, 4.664758644000074, 0.0 ], [ -74.129540467999959, 4.664756497000042, 0.0 ], [ -74.129542668999989, 4.66475392500007, 0.0 ], [ -74.129544391999957, 4.664751010000032, 0.0 ], [ -74.12954558399997, 4.664747838000039, 0.0 ], [ -74.129546208999955, 4.664744507000023, 0.0 ], [ -74.12954624799994, 4.664741119000041, 0.0 ], [ -74.129545701999973, 4.664737775000049, 0.0 ], [ -74.129544582999984, 4.664734576000058, 0.0 ], [ -74.129542928999967, 4.664731623000023, 0.0 ], [ -74.129540787999986, 4.664729001000069, 0.0 ], [ -74.129533228999946, 4.664721239000073, 0.0 ], [ -74.129536123999969, 4.66471838800004, 0.0 ], [ -74.129578624999965, 4.664631783000061, 0.0 ], [ -74.129581138999981, 4.664634377000027, 0.0 ], [ -74.129596643999946, 4.664619242000072, 0.0 ], [ -74.129556419999972, 4.664577760000043, 0.0 ], [ -74.129540916999986, 4.664592893000076, 0.0 ], [ -74.129543430999945, 4.664595486000053, 0.0 ], [ -74.129502086999935, 4.664686021000023, 0.0 ], [ -74.129500477999954, 4.664687603000061, 0.0 ], [ -74.129463905999955, 4.664650043000051, 0.0 ], [ -74.129461342999946, 4.664647835000039, 0.0 ], [ -74.129458438999961, 4.664646107000067, 0.0 ], [ -74.129455277999966, 4.66464491000005, 0.0 ], [ -74.129451958999937, 4.66464428300003, 0.0 ], [ -74.129448580999963, 4.664644243000055, 0.0 ], [ -74.129445247999968, 4.664644793000036, 0.0 ], [ -74.129442060999963, 4.664645915000051, 0.0 ], [ -74.129439116999947, 4.66464757500006, 0.0 ], [ -74.129436503999955, 4.664649723000025, 0.0 ], [ -74.129434302999982, 4.664652295000053, 0.0 ], [ -74.129432579999957, 4.664655209000045, 0.0 ], [ -74.129431387999944, 4.664658381000038, 0.0 ], [ -74.129430762999959, 4.664661711000065, 0.0 ], [ -74.129430722999984, 4.664665100000036, 0.0 ], [ -74.129431270999987, 4.664668444000029, 0.0 ], [ -74.129432388999987, 4.66467164200003, 0.0 ], [ -74.129434044999982, 4.664674596000054, 0.0 ], [ -74.129436184999975, 4.664677218000065, 0.0 ], [ -74.12947270899997, 4.664714727000046, 0.0 ], [ -74.129448041999979, 4.664738830000033, 0.0 ], [ -74.128369671999963, 4.663627808000058, 0.0 ], [ -74.128393054999947, 4.663604959000054, 0.0 ], [ -74.128443358999959, 4.663656787000036, 0.0 ], [ -74.128445769999985, 4.663658929000064, 0.0 ], [ -74.128448499999934, 4.663660641000035, 0.0 ], [ -74.128451475999952, 4.663661875000059, 0.0 ], [ -74.128454612999974, 4.663662599000077, 0.0 ], [ -74.128457826999977, 4.663662792000025, 0.0 ], [ -74.128461027999947, 4.663662446000046, 0.0 ], [ -74.128464128999951, 4.663661575000049, 0.0 ], [ -74.128467041999954, 4.663660201000027, 0.0 ], [ -74.128469688999985, 4.663658362000035, 0.0 ], [ -74.128471995999973, 4.663656107000065, 0.0 ], [ -74.128473898999971, 4.663653501000056, 0.0 ], [ -74.12847534499997, 4.663650615000051, 0.0 ], [ -74.128476295999974, 4.663647529000059, 0.0 ], [ -74.128476722999949, 4.663644327000043, 0.0 ], [ -74.128476616999933, 4.663641098000028, 0.0 ], [ -74.128475978999973, 4.663637931000039, 0.0 ], [ -74.12847482799998, 4.663634915000046, 0.0 ], [ -74.12847319399998, 4.663632130000053, 0.0 ], [ -74.128471123999987, 4.663629656000069, 0.0 ], [ -74.128420816999949, 4.663577830000065, 0.0 ], [ -74.12849188399997, 4.663508376000038, 0.0 ], [ -74.128495683999972, 4.663512255000057, 0.0 ], [ -74.128511106999952, 4.663497036000024, 0.0 ], [ -74.128470663999963, 4.663455769000052, 0.0 ], [ -74.128455240999983, 4.663470987000039, 0.0 ], [ -74.128458702999978, 4.663474519000033, 0.0 ], [ -74.128391638999972, 4.663543229000027, 0.0 ], [ -74.128390378999939, 4.663541935000069, 0.0 ], [ -74.128388120999944, 4.663544142000035, 0.0 ], [ -74.128380574999937, 4.663536367000063, 0.0 ], [ -74.128378164999958, 4.663534223000056, 0.0 ], [ -74.128375434999953, 4.663532506000024, 0.0 ], [ -74.128372457999944, 4.663531267000053, 0.0 ], [ -74.128369318999944, 4.663530541000057, 0.0 ], [ -74.128366102999962, 4.663530348000052, 0.0 ], [ -74.128362898999967, 4.663530691000062, 0.0 ], [ -74.128359796999973, 4.663531563000049, 0.0 ], [ -74.128356879999956, 4.66353293700007, 0.0 ], [ -74.128354231999936, 4.663534778000042, 0.0 ], [ -74.128351923999958, 4.663537033000068, 0.0 ], [ -74.12835002099996, 4.663539641000057, 0.0 ], [ -74.128348572999982, 4.66354252900004, 0.0 ], [ -74.128347622999968, 4.663545618000057, 0.0 ], [ -74.128347196999982, 4.663548822000052, 0.0 ], [ -74.128347304999977, 4.663552053000046, 0.0 ], [ -74.128347944999973, 4.663555220000035, 0.0 ], [ -74.12834909999998, 4.663558238000064, 0.0 ], [ -74.128350736999948, 4.663561022000067, 0.0 ], [ -74.128352809999967, 4.663563497000041, 0.0 ], [ -74.128360355999973, 4.663571271000023, 0.0 ], [ -74.128209322999965, 4.663718852000045, 0.0 ], [ -74.128133828999978, 4.663795010000058, 0.0 ], [ -74.128132476999951, 4.663793813000041, 0.0 ], [ -74.128131284999938, 4.663795169000025, 0.0 ], [ -74.128128580999942, 4.663792776000037, 0.0 ], [ -74.128126632999965, 4.663794788000075, 0.0 ], [ -74.12811546599994, 4.663807698000028, 0.0 ], [ -74.12815872699997, 4.66384597900003, 0.0 ], [ -74.128173034999975, 4.663829701000054, 0.0 ], [ -74.128168978999952, 4.663826113000027, 0.0 ], [ -74.128242013999966, 4.663752547000058, 0.0 ], [ -74.128337402999989, 4.663659370000062, 0.0 ], [ -74.128388814999937, 4.663712339000028, 0.0 ], [ -74.129415757999936, 4.664770378000071, 0.0 ], [ -74.129227614999934, 4.664954219000037, 0.0 ], [ -74.129211898999984, 4.664942903000053, 0.0 ], [ -74.129198235999979, 4.664962004000074, 0.0 ] ] ] } },
{ "type": "Feature", "id": 22, "properties": { "OBJECTID": 22, "Name": "Estacion Fontibon", "FolderPath": "Fontibon", "SymbolID": 1, "AltMode": 0, "Base": 0, "Clamped": -1, "Extruded": 0, "Snippet": "Estacion", "PopupInfo": "<html xmlns:fo=\"http://www.w3.org/1999/XSL/Format\" xmlns:msxsl=\"urn:schemas-microsoft-com:xslt\">\n\n<head>\n\n<META http-equiv=\"Content-Type\" content=\"text/html\">\n\n<meta http-equiv=\"content-type\" content=\"text/html; charset=UTF-8\">\n\n</head>\n\n<body style=\"margin:0px 0px 0px 0px;overflow:auto;background:#FFFFFF;\">\n\n<table style=\"font-family:Arial,Verdana,Times;font-size:12px;text-align:left;width:100%;border-collapse:collapse;padding:3px 3px 3px 3px\">\n\n<tr style=\"text-align:center;font-weight:bold;background:#9CBCE2\">\n\n<td></td>\n\n</tr>\n\n<tr>\n\n<td>\n\n<table style=\"font-family:Arial,Verdana,Times;font-size:12px;text-align:left;width:100%;border-spacing:0px; padding:3px 3px 3px 3px\">\n\n<tr>\n\n<td>EXPEDIENTE</td>\n\n<td><Null></td>\n\n</tr>\n\n<tr bgcolor=\"#D4E4F3\">\n\n<td>OPERADOR</td>\n\n<td>Concesionaria Férrea de Occidente S.A.S.</td>\n\n</tr>\n\n<tr>\n\n<td>PROYECTO</td>\n\n<td>Regiotram de Occidente</td>\n\n</tr>\n\n<tr bgcolor=\"#D4E4F3\">\n\n<td>NUM_ACT_AD</td>\n\n<td><Null></td>\n\n</tr>\n\n<tr>\n\n<td>FEC_ACT_AD</td>\n\n<td><Null></td>\n\n</tr>\n\n<tr bgcolor=\"#D4E4F3\">\n\n<td>ART_ACT_AD</td>\n\n<td><Null></td>\n\n</tr>\n\n<tr>\n\n<td>TIPO_INFRA</td>\n\n<td>Estaciones</td>\n\n</tr>\n\n<tr bgcolor=\"#D4E4F3\">\n\n<td>ID_INFRA_PG</td>\n\n<td>Fontibon</td>\n\n</tr>\n\n<tr>\n\n<td>CARACTER</td>\n\n<td>Total de 17 estaciones de pasajeros; 9  estaciones en la zona urbana y 8  estaciones en la zona suburbana (2 estaciones por cada municipio)</td>\n\n</tr>\n\n<tr bgcolor=\"#D4E4F3\">\n\n<td>ESTADO</td>\n\n<td>Proyectada</td>\n\n</tr>\n\n<tr>\n\n<td>ADECUACION</td>\n\n<td><Null></td>\n\n</tr>\n\n<tr bgcolor=\"#D4E4F3\">\n\n<td>TIPO_ADEC</td>\n\n<td><Null></td>\n\n</tr>\n\n<tr>\n\n<td>CALIDAD</td>\n\n<td><Null></td>\n\n</tr>\n\n<tr bgcolor=\"#D4E4F3\">\n\n<td>REQU_OCUP</td>\n\n<td><Null></td>\n\n</tr>\n\n<tr>\n\n<td>OBSERV</td>\n\n<td><Null></td>\n\n</tr>\n\n<tr bgcolor=\"#D4E4F3\">\n\n<td>AREA_HA</td>\n\n<td>0,119472</td>\n\n</tr>\n\n</table>\n\n</td>\n\n</tr>\n\n</table>\n\n</body>\n\n</html>", "Shape_Length": 0.0045217015809928939, "Shape_Area": 9.7491851256221232e-08 }, "geometry": { "type": "Polygon", "coordinates": [ [ [ -74.139187766999953, 4.674966654000059, 0.0 ], [ -74.139188695999962, 4.674967236000043, 0.0 ], [ -74.139192446999971, 4.674957322000068, 0.0 ], [ -74.139192913999977, 4.674956086000066, 0.0 ], [ -74.139210036999941, 4.674910830000044, 0.0 ], [ -74.139224397999953, 4.674872867000033, 0.0 ], [ -74.139238777999935, 4.674834861000022, 0.0 ], [ -74.139248222999981, 4.67480989400002, 0.0 ], [ -74.139274024999963, 4.674741696000069, 0.0 ], [ -74.13928163099996, 4.674742959000071, 0.0 ], [ -74.139286820999985, 4.674740917000065, 0.0 ], [ -74.139292011999942, 4.67473237400003, 0.0 ], [ -74.139297109999973, 4.674715282000022, 0.0 ], [ -74.13929927099997, 4.674708036000027, 0.0 ], [ -74.139275677999933, 4.674699050000072, 0.0 ], [ -74.139267923999967, 4.674719310000057, 0.0 ], [ -74.139265712999986, 4.674719458000027, 0.0 ], [ -74.139238575999968, 4.674691284000062, 0.0 ], [ -74.139229535999959, 4.674700118000032, 0.0 ], [ -74.139236796999967, 4.674707593000051, 0.0 ], [ -74.139212253999972, 4.674772462000021, 0.0 ], [ -74.139197151999952, 4.674812384000063, 0.0 ], [ -74.138126495999984, 4.673709358000053, 0.0 ], [ -74.138197955999942, 4.673639530000059, 0.0 ], [ -74.138209135999944, 4.673651324000048, 0.0 ], [ -74.138211659999968, 4.673653934000072, 0.0 ], [ -74.138223375999985, 4.673642725000036, 0.0 ], [ -74.13816374299995, 4.673579822000022, 0.0 ], [ -74.138152002999959, 4.673591055000031, 0.0 ], [ -74.138154473999975, 4.67359366200003, 0.0 ], [ -74.138165653999977, 4.673605455000029, 0.0 ], [ -74.137982453999939, 4.673784469000054, 0.0 ], [ -74.137970906999954, 4.67377304300004, 0.0 ], [ -74.137969640999984, 4.673774331000061, 0.0 ], [ -74.13796707399996, 4.673771791000036, 0.0 ], [ -74.137956947999953, 4.673782093000057, 0.0 ], [ -74.138018554999974, 4.673843050000073, 0.0 ], [ -74.13802868099998, 4.673832748000052, 0.0 ], [ -74.138026113999956, 4.673830208000027, 0.0 ], [ -74.138027379999983, 4.673828920000062, 0.0 ], [ -74.138015629999984, 4.67381729400006, 0.0 ], [ -74.138094211999942, 4.673740904000056, 0.0 ], [ -74.139179508999973, 4.674859015000038, 0.0 ], [ -74.139151790999961, 4.674932281000054, 0.0 ], [ -74.139180052999961, 4.674961825000025, 0.0 ], [ -74.139187766999953, 4.674966654000059, 0.0 ] ] ] } },
{ "type": "Feature", "id": 24, "properties": { "OBJECTID": 24, "Name": "Estacion Funza 2", "FolderPath": "Funza2", "SymbolID": 1, "AltMode": 0, "Base": 0, "Clamped": -1, "Extruded": 0, "Snippet": "Estacion", "PopupInfo": "<html xmlns:fo=\"http://www.w3.org/1999/XSL/Format\" xmlns:msxsl=\"urn:schemas-microsoft-com:xslt\">\n\n<head>\n\n<META http-equiv=\"Content-Type\" content=\"text/html\">\n\n<meta http-equiv=\"content-type\" content=\"text/html; charset=UTF-8\">\n\n</head>\n\n<body style=\"margin:0px 0px 0px 0px;overflow:auto;background:#FFFFFF;\">\n\n<table style=\"font-family:Arial,Verdana,Times;font-size:12px;text-align:left;width:100%;border-collapse:collapse;padding:3px 3px 3px 3px\">\n\n<tr style=\"text-align:center;font-weight:bold;background:#9CBCE2\">\n\n<td></td>\n\n</tr>\n\n<tr>\n\n<td>\n\n<table style=\"font-family:Arial,Verdana,Times;font-size:12px;text-align:left;width:100%;border-spacing:0px; padding:3px 3px 3px 3px\">\n\n<tr>\n\n<td>EXPEDIENTE</td>\n\n<td><Null></td>\n\n</tr>\n\n<tr bgcolor=\"#D4E4F3\">\n\n<td>OPERADOR</td>\n\n<td>Concesionaria Férrea de Occidente S.A.S.</td>\n\n</tr>\n\n<tr>\n\n<td>PROYECTO</td>\n\n<td>Regiotram de Occidente</td>\n\n</tr>\n\n<tr bgcolor=\"#D4E4F3\">\n\n<td>NUM_ACT_AD</td>\n\n<td><Null></td>\n\n</tr>\n\n<tr>\n\n<td>FEC_ACT_AD</td>\n\n<td><Null></td>\n\n</tr>\n\n<tr bgcolor=\"#D4E4F3\">\n\n<td>ART_ACT_AD</td>\n\n<td><Null></td>\n\n</tr>\n\n<tr>\n\n<td>TIPO_INFRA</td>\n\n<td>Estaciones</td>\n\n</tr>\n\n<tr bgcolor=\"#D4E4F3\">\n\n<td>ID_INFRA_PG</td>\n\n<td>Funza 2</td>\n\n</tr>\n\n<tr>\n\n<td>CARACTER</td>\n\n<td>Total de 17 estaciones de pasajeros; 9  estaciones en la zona urbana y 8  estaciones en la zona suburbana (2 estaciones por cada municipio)</td>\n\n</tr>\n\n<tr bgcolor=\"#D4E4F3\">\n\n<td>ESTADO</td>\n\n<td>Proyectada</td>\n\n</tr>\n\n<tr>\n\n<td>ADECUACION</td>\n\n<td><Null></td>\n\n</tr>\n\n<tr bgcolor=\"#D4E4F3\">\n\n<td>TIPO_ADEC</td>\n\n<td><Null></td>\n\n</tr>\n\n<tr>\n\n<td>CALIDAD</td>\n\n<td><Null></td>\n\n</tr>\n\n<tr bgcolor=\"#D4E4F3\">\n\n<td>REQU_OCUP</td>\n\n<td><Null></td>\n\n</tr>\n\n<tr>\n\n<td>OBSERV</td>\n\n<td><Null></td>\n\n</tr>\n\n<tr bgcolor=\"#D4E4F3\">\n\n<td>AREA_HA</td>\n\n<td>0,1122</td>\n\n</tr>\n\n</table>\n\n</td>\n\n</tr>\n\n</table>\n\n</body>\n\n</html>", "Shape_Length": 0.0036961970445081103, "Shape_Area": 9.1558667315195388e-08 }, "geometry": { "type": "Polygon", "coordinates": [ [ [ -74.201700588999984, 4.69832944500007, 0.0 ], [ -74.201699034999933, 4.698290950000057, 0.0 ], [ -74.201664541999946, 4.698293342000056, 0.0 ], [ -74.20166506299995, 4.698360108000031, 0.0 ], [ -74.201665643999945, 4.698434665000036, 0.0 ], [ -74.201702748999935, 4.698434603000067, 0.0 ], [ -74.201703737999935, 4.69843460200002, 0.0 ], [ -74.201701682999953, 4.698383738000075, 0.0 ], [ -74.201996509999958, 4.698365718000048, 0.0 ], [ -74.202556709999953, 4.698331477000067, 0.0 ], [ -74.202940879999971, 4.698307997000029, 0.0 ], [ -74.203154702999939, 4.698294929000042, 0.0 ], [ -74.203239384999961, 4.698289658000022, 0.0 ], [ -74.203237807999983, 4.69826015600006, 0.0 ], [ -74.203253866999944, 4.69825910000003, 0.0 ], [ -74.203255537999951, 4.698284698000066, 0.0 ], [ -74.203344720999951, 4.698279226000068, 0.0 ], [ -74.203342113999952, 4.698235915000055, 0.0 ], [ -74.203252920999944, 4.69824135600004, 0.0 ], [ -74.203252304999978, 4.698242873000027, 0.0 ], [ -74.203236770999979, 4.698244343000056, 0.0 ], [ -74.203236601999947, 4.698241405000033, 0.0 ], [ -74.203103705999979, 4.698244524000074, 0.0 ], [ -74.201786628999969, 4.698324598000056, 0.0 ], [ -74.201706809999962, 4.698329095000076, 0.0 ], [ -74.201700588999984, 4.69832944500007, 0.0 ] ] ] } },
{ "type": "Feature", "id": 25, "properties": { "OBJECTID": 25, "Name": "Estacion Funza 1", "FolderPath": "Funza1", "SymbolID": 1, "AltMode": 0, "Base": 0, "Clamped": -1, "Extruded": 0, "Snippet": "Estacion", "PopupInfo": "<html xmlns:fo=\"http://www.w3.org/1999/XSL/Format\" xmlns:msxsl=\"urn:schemas-microsoft-com:xslt\">\n\n<head>\n\n<META http-equiv=\"Content-Type\" content=\"text/html\">\n\n<meta http-equiv=\"content-type\" content=\"text/html; charset=UTF-8\">\n\n</head>\n\n<body style=\"margin:0px 0px 0px 0px;overflow:auto;background:#FFFFFF;\">\n\n<table style=\"font-family:Arial,Verdana,Times;font-size:12px;text-align:left;width:100%;border-collapse:collapse;padding:3px 3px 3px 3px\">\n\n<tr style=\"text-align:center;font-weight:bold;background:#9CBCE2\">\n\n<td></td>\n\n</tr>\n\n<tr>\n\n<td>\n\n<table style=\"font-family:Arial,Verdana,Times;font-size:12px;text-align:left;width:100%;border-spacing:0px; padding:3px 3px 3px 3px\">\n\n<tr>\n\n<td>EXPEDIENTE</td>\n\n<td><Null></td>\n\n</tr>\n\n<tr bgcolor=\"#D4E4F3\">\n\n<td>OPERADOR</td>\n\n<td>Concesionaria Férrea de Occidente S.A.S.</td>\n\n</tr>\n\n<tr>\n\n<td>PROYECTO</td>\n\n<td>Regiotram de Occidente</td>\n\n</tr>\n\n<tr bgcolor=\"#D4E4F3\">\n\n<td>NUM_ACT_AD</td>\n\n<td><Null></td>\n\n</tr>\n\n<tr>\n\n<td>FEC_ACT_AD</td>\n\n<td><Null></td>\n\n</tr>\n\n<tr bgcolor=\"#D4E4F3\">\n\n<td>ART_ACT_AD</td>\n\n<td><Null></td>\n\n</tr>\n\n<tr>\n\n<td>TIPO_INFRA</td>\n\n<td>Estaciones</td>\n\n</tr>\n\n<tr bgcolor=\"#D4E4F3\">\n\n<td>ID_INFRA_PG</td>\n\n<td>Funza 1</td>\n\n</tr>\n\n<tr>\n\n<td>CARACTER</td>\n\n<td>Total de 17 estaciones de pasajeros; 9  estaciones en la zona urbana y 8  estaciones en la zona suburbana (2 estaciones por cada municipio)</td>\n\n</tr>\n\n<tr bgcolor=\"#D4E4F3\">\n\n<td>ESTADO</td>\n\n<td>Proyectada</td>\n\n</tr>\n\n<tr>\n\n<td>ADECUACION</td>\n\n<td><Null></td>\n\n</tr>\n\n<tr bgcolor=\"#D4E4F3\">\n\n<td>TIPO_ADEC</td>\n\n<td><Null></td>\n\n</tr>\n\n<tr>\n\n<td>CALIDAD</td>\n\n<td><Null></td>\n\n</tr>\n\n<tr bgcolor=\"#D4E4F3\">\n\n<td>REQU_OCUP</td>\n\n<td><Null></td>\n\n</tr>\n\n<tr>\n\n<td>OBSERV</td>\n\n<td><Null></td>\n\n</tr>\n\n<tr bgcolor=\"#D4E4F3\">\n\n<td>AREA_HA</td>\n\n<td>0,241438</td>\n\n</tr>\n\n</table>\n\n</td>\n\n</tr>\n\n</table>\n\n</body>\n\n</html>", "Shape_Length": 0.0044672365434324469, "Shape_Area": 1.9702140629737891e-07 }, "geometry": { "type": "Polygon", "coordinates": [ [ [ -74.184618636999971, 4.699433976000023, 0.0 ], [ -74.184618506999982, 4.699432327000068, 0.0 ], [ -74.184616269999935, 4.69941633600007, 0.0 ], [ -74.184616025999958, 4.699414597000043, 0.0 ], [ -74.184615365999946, 4.699411161000057, 0.0 ], [ -74.184609491999936, 4.699391699000046, 0.0 ], [ -74.184609054999953, 4.699390817000051, 0.0 ], [ -74.184606042999974, 4.69938472900003, 0.0 ], [ -74.184602962999975, 4.699378504000038, 0.0 ], [ -74.184598817999984, 4.69937012500003, 0.0 ], [ -74.184597099999962, 4.699366650000059, 0.0 ], [ -74.184596087999978, 4.699364605000028, 0.0 ], [ -74.184591041999965, 4.699358130000064, 0.0 ], [ -74.184582269999964, 4.699346877000039, 0.0 ], [ -74.184561317999965, 4.699328661000038, 0.0 ], [ -74.18455731499995, 4.699325181000063, 0.0 ], [ -74.184515146999956, 4.699306490000026, 0.0 ], [ -74.184511853999936, 4.699306751000051, 0.0 ], [ -74.184388791999936, 4.699316485000054, 0.0 ], [ -74.184388247999948, 4.699309558000039, 0.0 ], [ -74.184294800999965, 4.699316950000025, 0.0 ], [ -74.184296931999938, 4.699344077000035, 0.0 ], [ -74.182749704999935, 4.699466458000074, 0.0 ], [ -74.182746269999939, 4.699422749000064, 0.0 ], [ -74.182746254999984, 4.69942254800003, 0.0 ], [ -74.18270261899994, 4.699420366000027, 0.0 ], [ -74.182677823999938, 4.699420370000041, 0.0 ], [ -74.182677830999978, 4.69942045800002, 0.0 ], [ -74.182680137999967, 4.699449810000033, 0.0 ], [ -74.182552722999958, 4.699463133000052, 0.0 ], [ -74.182543634999945, 4.699556881000035, 0.0 ], [ -74.182546859999945, 4.699568820000025, 0.0 ], [ -74.182756447999964, 4.699552277000066, 0.0 ], [ -74.182976824999969, 4.699534347000053, 0.0 ], [ -74.18319811899994, 4.699516644000028, 0.0 ], [ -74.183334155999944, 4.699506573000065, 0.0 ], [ -74.183660915999951, 4.699480121000022, 0.0 ], [ -74.184303673999977, 4.699429869000028, 0.0 ], [ -74.184306081999978, 4.69946051200003, 0.0 ], [ -74.18460026799994, 4.699437242000045, 0.0 ], [ -74.184618777999958, 4.699435778000066, 0.0 ], [ -74.184618636999971, 4.699433976000023, 0.0 ] ] ] } },
{ "type": "Feature", "id": 26, "properties": { "OBJECTID": 26, "Name": "Estacion Mosquera 1", "FolderPath": "Mosquera1", "SymbolID": 0, "AltMode": 0, "Base": 0, "Clamped": -1, "Extruded": 0, "Snippet": "Estacion", "PopupInfo": "<html xmlns:fo=\"http://www.w3.org/1999/XSL/Format\" xmlns:msxsl=\"urn:schemas-microsoft-com:xslt\">\n\n<head>\n\n<META http-equiv=\"Content-Type\" content=\"text/html\">\n\n<meta http-equiv=\"content-type\" content=\"text/html; charset=UTF-8\">\n\n</head>\n\n<body style=\"margin:0px 0px 0px 0px;overflow:auto;background:#FFFFFF;\">\n\n<table style=\"font-family:Arial,Verdana,Times;font-size:12px;text-align:left;width:100%;border-collapse:collapse;padding:3px 3px 3px 3px\">\n\n<tr style=\"text-align:center;font-weight:bold;background:#9CBCE2\">\n\n<td></td>\n\n</tr>\n\n<tr>\n\n<td>\n\n<table style=\"font-family:Arial,Verdana,Times;font-size:12px;text-align:left;width:100%;border-spacing:0px; padding:3px 3px 3px 3px\">\n\n<tr>\n\n<td>EXPEDIENTE</td>\n\n<td><Null></td>\n\n</tr>\n\n<tr bgcolor=\"#D4E4F3\">\n\n<td>OPERADOR</td>\n\n<td>Concesionaria Férrea de Occidente S.A.S.</td>\n\n</tr>\n\n<tr>\n\n<td>PROYECTO</td>\n\n<td>Regiotram de Occidente</td>\n\n</tr>\n\n<tr bgcolor=\"#D4E4F3\">\n\n<td>NUM_ACT_AD</td>\n\n<td><Null></td>\n\n</tr>\n\n<tr>\n\n<td>FEC_ACT_AD</td>\n\n<td><Null></td>\n\n</tr>\n\n<tr bgcolor=\"#D4E4F3\">\n\n<td>ART_ACT_AD</td>\n\n<td><Null></td>\n\n</tr>\n\n<tr>\n\n<td>TIPO_INFRA</td>\n\n<td>Estaciones</td>\n\n</tr>\n\n<tr bgcolor=\"#D4E4F3\">\n\n<td>ID_INFRA_PG</td>\n\n<td>Mosquera 1</td>\n\n</tr>\n\n<tr>\n\n<td>CARACTER</td>\n\n<td>Total de 17 estaciones de pasajeros; 9  estaciones en la zona urbana y 8  estaciones en la zona suburbana (2 estaciones por cada municipio)</td>\n\n</tr>\n\n<tr bgcolor=\"#D4E4F3\">\n\n<td>ESTADO</td>\n\n<td>Proyectada</td>\n\n</tr>\n\n<tr>\n\n<td>ADECUACION</td>\n\n<td><Null></td>\n\n</tr>\n\n<tr bgcolor=\"#D4E4F3\">\n\n<td>TIPO_ADEC</td>\n\n<td><Null></td>\n\n</tr>\n\n<tr>\n\n<td>CALIDAD</td>\n\n<td><Null></td>\n\n</tr>\n\n<tr bgcolor=\"#D4E4F3\">\n\n<td>REQU_OCUP</td>\n\n<td><Null></td>\n\n</tr>\n\n<tr>\n\n<td>OBSERV</td>\n\n<td><Null></td>\n\n</tr>\n\n<tr bgcolor=\"#D4E4F3\">\n\n<td>AREA_HA</td>\n\n<td>0,077108</td>\n\n</tr>\n\n</table>\n\n</td>\n\n</tr>\n\n</table>\n\n</body>\n\n</html>", "Shape_Length": 0.0025619645258794536, "Shape_Area": 6.2921116127879815e-08 }, "geometry": { "type": "Polygon", "coordinates": [ [ [ -74.224022570999978, 4.703250508000053, 0.0 ], [ -74.224018490999981, 4.703255680000041, 0.0 ], [ -74.224011015999963, 4.703249752000033, 0.0 ], [ -74.223960139999974, 4.703209730000026, 0.0 ], [ -74.223937904999957, 4.703238695000039, 0.0 ], [ -74.223987902999966, 4.703279128000077, 0.0 ], [ -74.223999061999962, 4.703264232000038, 0.0 ], [ -74.22400698499996, 4.70327063700006, 0.0 ], [ -74.223991489999946, 4.703289909000034, 0.0 ], [ -74.224610273999986, 4.703781223000021, 0.0 ], [ -74.224601911999969, 4.70378644300007, 0.0 ], [ -74.224775699999952, 4.703923685000063, 0.0 ], [ -74.224791112999981, 4.703906615000051, 0.0 ], [ -74.224858538999968, 4.703960314000028, 0.0 ], [ -74.224881410999956, 4.703931432000047, 0.0 ], [ -74.224831450999943, 4.703891705000046, 0.0 ], [ -74.224822032999953, 4.703902934000041, 0.0 ], [ -74.224803537999946, 4.703888308000046, 0.0 ], [ -74.224805581999988, 4.703885715000069, 0.0 ], [ -74.224817379999934, 4.703870718000076, 0.0 ], [ -74.224662826999975, 4.703748295000025, 0.0 ], [ -74.224658978999969, 4.703750701000047, 0.0 ], [ -74.224400654999954, 4.703545592000069, 0.0 ], [ -74.224407654999936, 4.703541223000059, 0.0 ], [ -74.224268376999987, 4.703430767000043, 0.0 ], [ -74.224260473999948, 4.703440711000042, 0.0 ], [ -74.224022570999978, 4.703250508000053, 0.0 ] ] ] } },
{ "type": "Feature", "id": 27, "properties": { "OBJECTID": 27, "Name": "Estacion Mosquera 2", "FolderPath": "Mosquera2", "SymbolID": 1, "AltMode": 0, "Base": 0, "Clamped": -1, "Extruded": 0, "Snippet": "Estacion", "PopupInfo": "<html xmlns:fo=\"http://www.w3.org/1999/XSL/Format\" xmlns:msxsl=\"urn:schemas-microsoft-com:xslt\">\n\n<head>\n\n<META http-equiv=\"Content-Type\" content=\"text/html\">\n\n<meta http-equiv=\"content-type\" content=\"text/html; charset=UTF-8\">\n\n</head>\n\n<body style=\"margin:0px 0px 0px 0px;overflow:auto;background:#FFFFFF;\">\n\n<table style=\"font-family:Arial,Verdana,Times;font-size:12px;text-align:left;width:100%;border-collapse:collapse;padding:3px 3px 3px 3px\">\n\n<tr style=\"text-align:center;font-weight:bold;background:#9CBCE2\">\n\n<td></td>\n\n</tr>\n\n<tr>\n\n<td>\n\n<table style=\"font-family:Arial,Verdana,Times;font-size:12px;text-align:left;width:100%;border-spacing:0px; padding:3px 3px 3px 3px\">\n\n<tr>\n\n<td>EXPEDIENTE</td>\n\n<td><Null></td>\n\n</tr>\n\n<tr bgcolor=\"#D4E4F3\">\n\n<td>OPERADOR</td>\n\n<td>Concesionaria Férrea de Occidente S.A.S.</td>\n\n</tr>\n\n<tr>\n\n<td>PROYECTO</td>\n\n<td>Regiotram de Occidente</td>\n\n</tr>\n\n<tr bgcolor=\"#D4E4F3\">\n\n<td>NUM_ACT_AD</td>\n\n<td><Null></td>\n\n</tr>\n\n<tr>\n\n<td>FEC_ACT_AD</td>\n\n<td><Null></td>\n\n</tr>\n\n<tr bgcolor=\"#D4E4F3\">\n\n<td>ART_ACT_AD</td>\n\n<td><Null></td>\n\n</tr>\n\n<tr>\n\n<td>TIPO_INFRA</td>\n\n<td>Estaciones</td>\n\n</tr>\n\n<tr bgcolor=\"#D4E4F3\">\n\n<td>ID_INFRA_PG</td>\n\n<td>Mosquera 2</td>\n\n</tr>\n\n<tr>\n\n<td>CARACTER</td>\n\n<td>Total de 17 estaciones de pasajeros; 9  estaciones en la zona urbana y 8  estaciones en la zona suburbana (2 estaciones por cada municipio)</td>\n\n</tr>\n\n<tr bgcolor=\"#D4E4F3\">\n\n<td>ESTADO</td>\n\n<td>Proyectada</td>\n\n</tr>\n\n<tr>\n\n<td>ADECUACION</td>\n\n<td><Null></td>\n\n</tr>\n\n<tr bgcolor=\"#D4E4F3\">\n\n<td>TIPO_ADEC</td>\n\n<td><Null></td>\n\n</tr>\n\n<tr>\n\n<td>CALIDAD</td>\n\n<td><Null></td>\n\n</tr>\n\n<tr bgcolor=\"#D4E4F3\">\n\n<td>REQU_OCUP</td>\n\n<td><Null></td>\n\n</tr>\n\n<tr>\n\n<td>OBSERV</td>\n\n<td><Null></td>\n\n</tr>\n\n<tr bgcolor=\"#D4E4F3\">\n\n<td>AREA_HA</td>\n\n<td>0,122732</td>\n\n</tr>\n\n</table>\n\n</td>\n\n</tr>\n\n</table>\n\n</body>\n\n</html>", "Shape_Length": 0.0046657727859863518, "Shape_Area": 1.0015195658044314e-07 }, "geometry": { "type": "Polygon", "coordinates": [ [ [ -74.230525127999954, 4.708656310000038, 0.0 ], [ -74.230566989999943, 4.708689548000052, 0.0 ], [ -74.230627043999959, 4.708613417000038, 0.0 ], [ -74.230661565999981, 4.708569, 0.0 ], [ -74.23067412599994, 4.708578824000028, 0.0 ], [ -74.230662117999941, 4.70859471600005, 0.0 ], [ -74.230763703999969, 4.708674299000052, 0.0 ], [ -74.230785654999977, 4.708646103000035, 0.0 ], [ -74.230671279999967, 4.708556501000032, 0.0 ], [ -74.230695337999975, 4.708525474000055, 0.0 ], [ -74.230652517999943, 4.708492199000034, 0.0 ], [ -74.230631507999988, 4.708519416000058, 0.0 ], [ -74.229394825999975, 4.707551946000024, 0.0 ], [ -74.229379101999939, 4.707571807000022, 0.0 ], [ -74.229365732999952, 4.707562536000069, 0.0 ], [ -74.229378536999945, 4.707546087000026, 0.0 ], [ -74.229234958999939, 4.707433614000024, 0.0 ], [ -74.22921303399994, 4.707461788000046, 0.0 ], [ -74.229369390999977, 4.70758427800007, 0.0 ], [ -74.229294846999949, 4.707679034000023, 0.0 ], [ -74.229337270999963, 4.707712628000024, 0.0 ], [ -74.229409478999969, 4.70762084200004, 0.0 ], [ -74.230603797999947, 4.70855507400006, 0.0 ], [ -74.230525127999954, 4.708656310000038, 0.0 ] ] ] } },
{ "type": "Feature", "id": 28, "properties": { "OBJECTID": 28, "Name": "Estacion Madrid 1", "FolderPath": "Madrid1", "SymbolID": 1, "AltMode": 0, "Base": 0, "Clamped": -1, "Extruded": 0, "Snippet": "Estacion", "PopupInfo": "<html xmlns:fo=\"http://www.w3.org/1999/XSL/Format\" xmlns:msxsl=\"urn:schemas-microsoft-com:xslt\">\n\n<head>\n\n<META http-equiv=\"Content-Type\" content=\"text/html\">\n\n<meta http-equiv=\"content-type\" content=\"text/html; charset=UTF-8\">\n\n</head>\n\n<body style=\"margin:0px 0px 0px 0px;overflow:auto;background:#FFFFFF;\">\n\n<table style=\"font-family:Arial,Verdana,Times;font-size:12px;text-align:left;width:100%;border-collapse:collapse;padding:3px 3px 3px 3px\">\n\n<tr style=\"text-align:center;font-weight:bold;background:#9CBCE2\">\n\n<td></td>\n\n</tr>\n\n<tr>\n\n<td>\n\n<table style=\"font-family:Arial,Verdana,Times;font-size:12px;text-align:left;width:100%;border-spacing:0px; padding:3px 3px 3px 3px\">\n\n<tr>\n\n<td>EXPEDIENTE</td>\n\n<td><Null></td>\n\n</tr>\n\n<tr bgcolor=\"#D4E4F3\">\n\n<td>OPERADOR</td>\n\n<td>Concesionaria Férrea de Occidente S.A.S.</td>\n\n</tr>\n\n<tr>\n\n<td>PROYECTO</td>\n\n<td>Regiotram de Occidente</td>\n\n</tr>\n\n<tr bgcolor=\"#D4E4F3\">\n\n<td>NUM_ACT_AD</td>\n\n<td><Null></td>\n\n</tr>\n\n<tr>\n\n<td>FEC_ACT_AD</td>\n\n<td><Null></td>\n\n</tr>\n\n<tr bgcolor=\"#D4E4F3\">\n\n<td>ART_ACT_AD</td>\n\n<td><Null></td>\n\n</tr>\n\n<tr>\n\n<td>TIPO_INFRA</td>\n\n<td>Estaciones</td>\n\n</tr>\n\n<tr bgcolor=\"#D4E4F3\">\n\n<td>ID_INFRA_PG</td>\n\n<td>Madrid 1</td>\n\n</tr>\n\n<tr>\n\n<td>CARACTER</td>\n\n<td>Total de 17 estaciones de pasajeros; 9  estaciones en la zona urbana y 8  estaciones en la zona suburbana (2 estaciones por cada municipio)</td>\n\n</tr>\n\n<tr bgcolor=\"#D4E4F3\">\n\n<td>ESTADO</td>\n\n<td>Proyectada</td>\n\n</tr>\n\n<tr>\n\n<td>ADECUACION</td>\n\n<td><Null></td>\n\n</tr>\n\n<tr bgcolor=\"#D4E4F3\">\n\n<td>TIPO_ADEC</td>\n\n<td><Null></td>\n\n</tr>\n\n<tr>\n\n<td>CALIDAD</td>\n\n<td><Null></td>\n\n</tr>\n\n<tr bgcolor=\"#D4E4F3\">\n\n<td>REQU_OCUP</td>\n\n<td><Null></td>\n\n</tr>\n\n<tr>\n\n<td>OBSERV</td>\n\n<td><Null></td>\n\n</tr>\n\n<tr bgcolor=\"#D4E4F3\">\n\n<td>AREA_HA</td>\n\n<td>0,220877</td>\n\n</tr>\n\n</table>\n\n</td>\n\n</tr>\n\n</table>\n\n</body>\n\n</html>", "Shape_Length": 0.0044415670604573175, "Shape_Area": 1.8024069375989891e-07 }, "geometry": { "type": "Polygon", "coordinates": [ [ [ -74.252462561999948, 4.726107582000054, 0.0 ], [ -74.252523624999981, 4.726153756000031, 0.0 ], [ -74.252661735999936, 4.725981569000055, 0.0 ], [ -74.25154532199997, 4.725098170000024, 0.0 ], [ -74.251299821999964, 4.724900174000027, 0.0 ], [ -74.25136046199998, 4.724821764000069, 0.0 ], [ -74.25133987199996, 4.724805416000038, 0.0 ], [ -74.251263318999975, 4.724902470000075, 0.0 ], [ -74.251392126999974, 4.725002428000039, 0.0 ], [ -74.251268388999961, 4.725159308000059, 0.0 ], [ -74.251324227999987, 4.725203639000028, 0.0 ], [ -74.25137998799994, 4.725135858000044, 0.0 ], [ -74.251543339999955, 4.725263235000057, 0.0 ], [ -74.251572461999956, 4.725225847000047, 0.0 ], [ -74.252409809999961, 4.725890633000063, 0.0 ], [ -74.252382698999952, 4.725931933000027, 0.0 ], [ -74.252518121999969, 4.726037142000052, 0.0 ], [ -74.252462561999948, 4.726107582000054, 0.0 ] ] ] } },
{ "type": "Feature", "id": 29, "properties": { "OBJECTID": 29, "Name": "Estacion Madrid 2", "FolderPath": "Madrid2", "SymbolID": 1, "AltMode": 0, "Base": 0, "Clamped": -1, "Extruded": 0, "Snippet": "Estacion", "PopupInfo": "<html xmlns:fo=\"http://www.w3.org/1999/XSL/Format\" xmlns:msxsl=\"urn:schemas-microsoft-com:xslt\">\n\n<head>\n\n<META http-equiv=\"Content-Type\" content=\"text/html\">\n\n<meta http-equiv=\"content-type\" content=\"text/html; charset=UTF-8\">\n\n</head>\n\n<body style=\"margin:0px 0px 0px 0px;overflow:auto;background:#FFFFFF;\">\n\n<table style=\"font-family:Arial,Verdana,Times;font-size:12px;text-align:left;width:100%;border-collapse:collapse;padding:3px 3px 3px 3px\">\n\n<tr style=\"text-align:center;font-weight:bold;background:#9CBCE2\">\n\n<td></td>\n\n</tr>\n\n<tr>\n\n<td>\n\n<table style=\"font-family:Arial,Verdana,Times;font-size:12px;text-align:left;width:100%;border-spacing:0px; padding:3px 3px 3px 3px\">\n\n<tr>\n\n<td>EXPEDIENTE</td>\n\n<td><Null></td>\n\n</tr>\n\n<tr bgcolor=\"#D4E4F3\">\n\n<td>OPERADOR</td>\n\n<td>Concesionaria Férrea de Occidente S.A.S.</td>\n\n</tr>\n\n<tr>\n\n<td>PROYECTO</td>\n\n<td>Regiotram de Occidente</td>\n\n</tr>\n\n<tr bgcolor=\"#D4E4F3\">\n\n<td>NUM_ACT_AD</td>\n\n<td><Null></td>\n\n</tr>\n\n<tr>\n\n<td>FEC_ACT_AD</td>\n\n<td><Null></td>\n\n</tr>\n\n<tr bgcolor=\"#D4E4F3\">\n\n<td>ART_ACT_AD</td>\n\n<td><Null></td>\n\n</tr>\n\n<tr>\n\n<td>TIPO_INFRA</td>\n\n<td>Estaciones</td>\n\n</tr>\n\n<tr bgcolor=\"#D4E4F3\">\n\n<td>ID_INFRA_PG</td>\n\n<td>Madrid 2</td>\n\n</tr>\n\n<tr>\n\n<td>CARACTER</td>\n\n<td>Total de 17 estaciones de pasajeros; 9  estaciones en la zona urbana y 8  estaciones en la zona suburbana (2 estaciones por cada municipio)</td>\n\n</tr>\n\n<tr bgcolor=\"#D4E4F3\">\n\n<td>ESTADO</td>\n\n<td>Proyectada</td>\n\n</tr>\n\n<tr>\n\n<td>ADECUACION</td>\n\n<td><Null></td>\n\n</tr>\n\n<tr bgcolor=\"#D4E4F3\">\n\n<td>TIPO_ADEC</td>\n\n<td><Null></td>\n\n</tr>\n\n<tr>\n\n<td>CALIDAD</td>\n\n<td><Null></td>\n\n</tr>\n\n<tr bgcolor=\"#D4E4F3\">\n\n<td>REQU_OCUP</td>\n\n<td><Null></td>\n\n</tr>\n\n<tr>\n\n<td>OBSERV</td>\n\n<td><Null></td>\n\n</tr>\n\n<tr bgcolor=\"#D4E4F3\">\n\n<td>AREA_HA</td>\n\n<td>0,073567</td>\n\n</tr>\n\n</table>\n\n</td>\n\n</tr>\n\n</table>\n\n</body>\n\n</html>", "Shape_Length": 0.0028871382750422616, "Shape_Area": 6.0031294385596752e-08 }, "geometry": { "type": "Polygon", "coordinates": [ [ [ -74.262442351999937, 4.733643673000074, 0.0 ], [ -74.263498294999977, 4.73436717200002, 0.0 ], [ -74.263524549999943, 4.73433041100003, 0.0 ], [ -74.262582076999934, 4.733690137000053, 0.0 ], [ -74.262480884999945, 4.733616619000031, 0.0 ], [ -74.262513747999947, 4.733596257000045, 0.0 ], [ -74.262475069999937, 4.733568663000028, 0.0 ], [ -74.262370143999988, 4.733636939000064, 0.0 ], [ -74.26240925899998, 4.733663737000029, 0.0 ], [ -74.262442351999937, 4.733643673000074, 0.0 ] ] ] } },
{ "type": "Feature", "id": 30, "properties": { "OBJECTID": 30, "Name": "Estacion Facatativa", "FolderPath": "Facatativa", "SymbolID": 1, "AltMode": 0, "Base": 0, "Clamped": -1, "Extruded": 0, "Snippet": "Estacion", "PopupInfo": "<html xmlns:fo=\"http://www.w3.org/1999/XSL/Format\" xmlns:msxsl=\"urn:schemas-microsoft-com:xslt\">\n\n<head>\n\n<META http-equiv=\"Content-Type\" content=\"text/html\">\n\n<meta http-equiv=\"content-type\" content=\"text/html; charset=UTF-8\">\n\n</head>\n\n<body style=\"margin:0px 0px 0px 0px;overflow:auto;background:#FFFFFF;\">\n\n<table style=\"font-family:Arial,Verdana,Times;font-size:12px;text-align:left;width:100%;border-collapse:collapse;padding:3px 3px 3px 3px\">\n\n<tr style=\"text-align:center;font-weight:bold;background:#9CBCE2\">\n\n<td></td>\n\n</tr>\n\n<tr>\n\n<td>\n\n<table style=\"font-family:Arial,Verdana,Times;font-size:12px;text-align:left;width:100%;border-spacing:0px; padding:3px 3px 3px 3px\">\n\n<tr>\n\n<td>EXPEDIENTE</td>\n\n<td><Null></td>\n\n</tr>\n\n<tr bgcolor=\"#D4E4F3\">\n\n<td>OPERADOR</td>\n\n<td>Concesionaria Férrea de Occidente S.A.S.</td>\n\n</tr>\n\n<tr>\n\n<td>PROYECTO</td>\n\n<td>Regiotram de Occidente</td>\n\n</tr>\n\n<tr bgcolor=\"#D4E4F3\">\n\n<td>NUM_ACT_AD</td>\n\n<td><Null></td>\n\n</tr>\n\n<tr>\n\n<td>FEC_ACT_AD</td>\n\n<td><Null></td>\n\n</tr>\n\n<tr bgcolor=\"#D4E4F3\">\n\n<td>ART_ACT_AD</td>\n\n<td><Null></td>\n\n</tr>\n\n<tr>\n\n<td>TIPO_INFRA</td>\n\n<td>Estaciones</td>\n\n</tr>\n\n<tr bgcolor=\"#D4E4F3\">\n\n<td>ID_INFRA_PG</td>\n\n<td>Facatativá</td>\n\n</tr>\n\n<tr>\n\n<td>CARACTER</td>\n\n<td>Total de 17 estaciones de pasajeros; 9  estaciones en la zona urbana y 8  estaciones en la zona suburbana (2 estaciones por cada municipio)</td>\n\n</tr>\n\n<tr bgcolor=\"#D4E4F3\">\n\n<td>ESTADO</td>\n\n<td>Proyectada</td>\n\n</tr>\n\n<tr>\n\n<td>ADECUACION</td>\n\n<td><Null></td>\n\n</tr>\n\n<tr bgcolor=\"#D4E4F3\">\n\n<td>TIPO_ADEC</td>\n\n<td><Null></td>\n\n</tr>\n\n<tr>\n\n<td>CALIDAD</td>\n\n<td><Null></td>\n\n</tr>\n\n<tr bgcolor=\"#D4E4F3\">\n\n<td>REQU_OCUP</td>\n\n<td><Null></td>\n\n</tr>\n\n<tr>\n\n<td>OBSERV</td>\n\n<td><Null></td>\n\n</tr>\n\n<tr bgcolor=\"#D4E4F3\">\n\n<td>AREA_HA</td>\n\n<td>0,26829</td>\n\n</tr>\n\n</table>\n\n</td>\n\n</tr>\n\n</table>\n\n</body>\n\n</html>", "Shape_Length": 0.004255409343434902, "Shape_Area": 2.1893767600893971e-07 }, "geometry": { "type": "Polygon", "coordinates": [ [ [ -74.354714082999976, 4.808173132000036, 0.0 ], [ -74.35474179299996, 4.808199006000052, 0.0 ], [ -74.354912969999987, 4.807989718000044, 0.0 ], [ -74.354883861999951, 4.80796543200006, 0.0 ], [ -74.35479563399997, 4.808071845000029, 0.0 ], [ -74.353639688999976, 4.807101988000056, 0.0 ], [ -74.353682283999945, 4.807048654000027, 0.0 ], [ -74.353650462999951, 4.807019392000029, 0.0 ], [ -74.35360219599994, 4.807072214000073, 0.0 ], [ -74.353455776999965, 4.806962562000024, 0.0 ], [ -74.353386044999979, 4.80704666500003, 0.0 ], [ -74.353527498999938, 4.807164688000057, 0.0 ], [ -74.353517563999958, 4.807178807000071, 0.0 ], [ -74.353552556999944, 4.807208004000074, 0.0 ], [ -74.353563538999936, 4.807194757000048, 0.0 ], [ -74.354721672999972, 4.808161049000034, 0.0 ], [ -74.354714082999976, 4.808173132000036, 0.0 ] ] ] } },
{ "type": "Feature", "id": 31, "properties": { "OBJECTID": 31, "Name": "Estacion Cartagenita", "FolderPath": "Cartagenita", "SymbolID": 1, "AltMode": 0, "Base": 0, "Clamped": -1, "Extruded": 0, "Snippet": "Estacion", "PopupInfo": "<html xmlns:fo=\"http://www.w3.org/1999/XSL/Format\" xmlns:msxsl=\"urn:schemas-microsoft-com:xslt\">\n\n<head>\n\n<META http-equiv=\"Content-Type\" content=\"text/html\">\n\n<meta http-equiv=\"content-type\" content=\"text/html; charset=UTF-8\">\n\n</head>\n\n<body style=\"margin:0px 0px 0px 0px;overflow:auto;background:#FFFFFF;\">\n\n<table style=\"font-family:Arial,Verdana,Times;font-size:12px;text-align:left;width:100%;border-collapse:collapse;padding:3px 3px 3px 3px\">\n\n<tr style=\"text-align:center;font-weight:bold;background:#9CBCE2\">\n\n<td></td>\n\n</tr>\n\n<tr>\n\n<td>\n\n<table style=\"font-family:Arial,Verdana,Times;font-size:12px;text-align:left;width:100%;border-spacing:0px; padding:3px 3px 3px 3px\">\n\n<tr>\n\n<td>EXPEDIENTE</td>\n\n<td><Null></td>\n\n</tr>\n\n<tr bgcolor=\"#D4E4F3\">\n\n<td>OPERADOR</td>\n\n<td>Concesionaria Férrea de Occidente S.A.S.</td>\n\n</tr>\n\n<tr>\n\n<td>PROYECTO</td>\n\n<td>Regiotram de Occidente</td>\n\n</tr>\n\n<tr bgcolor=\"#D4E4F3\">\n\n<td>NUM_ACT_AD</td>\n\n<td><Null></td>\n\n</tr>\n\n<tr>\n\n<td>FEC_ACT_AD</td>\n\n<td><Null></td>\n\n</tr>\n\n<tr bgcolor=\"#D4E4F3\">\n\n<td>ART_ACT_AD</td>\n\n<td><Null></td>\n\n</tr>\n\n<tr>\n\n<td>TIPO_INFRA</td>\n\n<td>Estaciones</td>\n\n</tr>\n\n<tr bgcolor=\"#D4E4F3\">\n\n<td>ID_INFRA_PG</td>\n\n<td>Cartagenita</td>\n\n</tr>\n\n<tr>\n\n<td>CARACTER</td>\n\n<td>Total de 17 estaciones de pasajeros; 9  estaciones en la zona urbana y 8  estaciones en la zona suburbana (2 estaciones por cada municipio)</td>\n\n</tr>\n\n<tr bgcolor=\"#D4E4F3\">\n\n<td>ESTADO</td>\n\n<td>Proyectada</td>\n\n</tr>\n\n<tr>\n\n<td>ADECUACION</td>\n\n<td><Null></td>\n\n</tr>\n\n<tr bgcolor=\"#D4E4F3\">\n\n<td>TIPO_ADEC</td>\n\n<td><Null></td>\n\n</tr>\n\n<tr>\n\n<td>CALIDAD</td>\n\n<td><Null></td>\n\n</tr>\n\n<tr bgcolor=\"#D4E4F3\">\n\n<td>REQU_OCUP</td>\n\n<td><Null></td>\n\n</tr>\n\n<tr>\n\n<td>OBSERV</td>\n\n<td><Null></td>\n\n</tr>\n\n<tr bgcolor=\"#D4E4F3\">\n\n<td>AREA_HA</td>\n\n<td>0,259837</td>\n\n</tr>\n\n</table>\n\n</td>\n\n</tr>\n\n</table>\n\n</body>\n\n</html>", "Shape_Length": 0.0040042273983309663, "Shape_Area": 2.1203742217302586e-07 }, "geometry": { "type": "Polygon", "coordinates": [ [ [ -74.331900448999988, 4.784261658000048, 0.0 ], [ -74.331894018999947, 4.784278467000036, 0.0 ], [ -74.331934458999967, 4.784295971000063, 0.0 ], [ -74.331942290999962, 4.784276873000067, 0.0 ], [ -74.331952339999987, 4.784252364000054, 0.0 ], [ -74.33199899799996, 4.784130398000059, 0.0 ], [ -74.33195625999997, 4.784109675000025, 0.0 ], [ -74.331946965999975, 4.784131212000034, 0.0 ], [ -74.330496822999976, 4.783575776000021, 0.0 ], [ -74.330483777999973, 4.783607916000051, 0.0 ], [ -74.330449054999974, 4.783594547000064, 0.0 ], [ -74.330442059999939, 4.783611374000031, 0.0 ], [ -74.330424733999962, 4.783603990000074, 0.0 ], [ -74.330430408999973, 4.783586788000036, 0.0 ], [ -74.330337408999981, 4.783553927000071, 0.0 ], [ -74.330321136999942, 4.783602805000044, 0.0 ], [ -74.330414211999937, 4.783638110000027, 0.0 ], [ -74.330421274999935, 4.783619571000031, 0.0 ], [ -74.33043474699997, 4.783624518000067, 0.0 ], [ -74.330402026999934, 4.783706136000035, 0.0 ], [ -74.330447409999977, 4.783721544000059, 0.0 ], [ -74.330458530999977, 4.783692471000052, 0.0 ], [ -74.331904939999959, 4.784249921000026, 0.0 ], [ -74.331900448999988, 4.784261658000048, 0.0 ] ] ] } },
{ "type": "Feature", "id": 32, "properties": { "OBJECTID": 32, "Name": "Estacion Cr 50", "FolderPath": "Cr50", "SymbolID": 1, "AltMode": 0, "Base": 0, "Clamped": -1, "Extruded": 0, "Snippet": "Estacion", "PopupInfo": "<html xmlns:fo=\"http://www.w3.org/1999/XSL/Format\" xmlns:msxsl=\"urn:schemas-microsoft-com:xslt\">\n\n<head>\n\n<META http-equiv=\"Content-Type\" content=\"text/html\">\n\n<meta http-equiv=\"content-type\" content=\"text/html; charset=UTF-8\">\n\n</head>\n\n<body style=\"margin:0px 0px 0px 0px;overflow:auto;background:#FFFFFF;\">\n\n<table style=\"font-family:Arial,Verdana,Times;font-size:12px;text-align:left;width:100%;border-collapse:collapse;padding:3px 3px 3px 3px\">\n\n<tr style=\"text-align:center;font-weight:bold;background:#9CBCE2\">\n\n<td></td>\n\n</tr>\n\n<tr>\n\n<td>\n\n<table style=\"font-family:Arial,Verdana,Times;font-size:12px;text-align:left;width:100%;border-spacing:0px; padding:3px 3px 3px 3px\">\n\n<tr>\n\n<td>EXPEDIENTE</td>\n\n<td><Null></td>\n\n</tr>\n\n<tr bgcolor=\"#D4E4F3\">\n\n<td>OPERADOR</td>\n\n<td>Concesionaria Férrea de Occidente S.A.S.</td>\n\n</tr>\n\n<tr>\n\n<td>PROYECTO</td>\n\n<td>Regiotram de Occidente</td>\n\n</tr>\n\n<tr bgcolor=\"#D4E4F3\">\n\n<td>NUM_ACT_AD</td>\n\n<td><Null></td>\n\n</tr>\n\n<tr>\n\n<td>FEC_ACT_AD</td>\n\n<td><Null></td>\n\n</tr>\n\n<tr bgcolor=\"#D4E4F3\">\n\n<td>ART_ACT_AD</td>\n\n<td><Null></td>\n\n</tr>\n\n<tr>\n\n<td>TIPO_INFRA</td>\n\n<td>Estaciones</td>\n\n</tr>\n\n<tr bgcolor=\"#D4E4F3\">\n\n<td>ID_INFRA_PG</td>\n\n<td>Cra. 50</td>\n\n</tr>\n\n<tr>\n\n<td>CARACTER</td>\n\n<td>Total de 17 estaciones de pasajeros; 9  estaciones en la zona urbana y 8  estaciones en la zona suburbana (2 estaciones por cada municipio)</td>\n\n</tr>\n\n<tr bgcolor=\"#D4E4F3\">\n\n<td>ESTADO</td>\n\n<td>Proyectada</td>\n\n</tr>\n\n<tr>\n\n<td>ADECUACION</td>\n\n<td><Null></td>\n\n</tr>\n\n<tr bgcolor=\"#D4E4F3\">\n\n<td>TIPO_ADEC</td>\n\n<td><Null></td>\n\n</tr>\n\n<tr>\n\n<td>CALIDAD</td>\n\n<td><Null></td>\n\n</tr>\n\n<tr bgcolor=\"#D4E4F3\">\n\n<td>REQU_OCUP</td>\n\n<td><Null></td>\n\n</tr>\n\n<tr>\n\n<td>OBSERV</td>\n\n<td><Null></td>\n\n</tr>\n\n<tr bgcolor=\"#D4E4F3\">\n\n<td>AREA_HA</td>\n\n<td>0,125325</td>\n\n</tr>\n\n</table>\n\n</td>\n\n</tr>\n\n</table>\n\n</body>\n\n</html>", "Shape_Length": 0.004810284298981545, "Shape_Area": 1.0226614982333839e-07 }, "geometry": { "type": "Polygon", "coordinates": [ [ [ -74.100840781999977, 4.63566994200005, 0.0 ], [ -74.100848439999936, 4.635676558000057, 0.0 ], [ -74.100855863999982, 4.635665759000062, 0.0 ], [ -74.100850822999973, 4.635656221000033, 0.0 ], [ -74.100955739999961, 4.635555726000064, 0.0 ], [ -74.100918777999937, 4.635511463000057, 0.0 ], [ -74.100965275999954, 4.635464805000026, 0.0 ], [ -74.102076631999978, 4.636609055000065, 0.0 ], [ -74.102007422999975, 4.636677074000033, 0.0 ], [ -74.101974022999968, 4.636778496000034, 0.0 ], [ -74.101955312999962, 4.63679540000004, 0.0 ], [ -74.101954024999941, 4.636793821000026, 0.0 ], [ -74.101938859999962, 4.636807172000033, 0.0 ], [ -74.101979149999977, 4.63684919700006, 0.0 ], [ -74.101993657999969, 4.636835308000059, 0.0 ], [ -74.101990433999958, 4.636832219000041, 0.0 ], [ -74.102008559999945, 4.636816620000047, 0.0 ], [ -74.102039555999966, 4.636707755000032, 0.0 ], [ -74.102140108999947, 4.636612434000028, 0.0 ], [ -74.101662328999964, 4.636120835000042, 0.0 ], [ -74.100997058999951, 4.635434247000035, 0.0 ], [ -74.101014628999962, 4.635407232000034, 0.0 ], [ -74.10106899799996, 4.635323634000031, 0.0 ], [ -74.101036805999968, 4.635302103000072, 0.0 ], [ -74.100973418999956, 4.635391474000073, 0.0 ], [ -74.100968893999948, 4.635397855000065, 0.0 ], [ -74.100948646999939, 4.635418466000033, 0.0 ], [ -74.100922971999978, 4.635444603000053, 0.0 ], [ -74.100892547999933, 4.635475574000054, 0.0 ], [ -74.100872073999938, 4.635497053000051, 0.0 ], [ -74.100868471999945, 4.635517293000021, 0.0 ], [ -74.100871087999963, 4.635540177000053, 0.0 ], [ -74.100888958999974, 4.635565693000046, 0.0 ], [ -74.100821014999951, 4.63563229500005, 0.0 ], [ -74.100815053999952, 4.63563229500005, 0.0 ], [ -74.100805516999969, 4.635639474000072, 0.0 ], [ -74.100840781999977, 4.63566994200005, 0.0 ] ] ] } },
{ "type": "Feature", "properties": { "OBJECTID": 24, "Name": "Estacion La Florida", "FolderPath": "Florida", "SymbolID": null, "AltMode": null, "Base": null, "Clamped": null, "Extruded": null, "Snippet": "Estacion", "PopupInfo": "<html xmlns:fo=\"http:\/\/www.w3.org\/1999\/XSL\/Format\" xmlns:msxsl=\"urn:schemas-microsoft-com:xslt\">\n\n<head>\n\n<META http-equiv=\"Content-Type\" content=\"text\/html\">\n\n<meta http-equiv=\"content-type\" content=\"text\/html; charset=UTF-8\">\n\n<\/head>\n\n<body style=\"margin:0px 0px 0px 0px;overflow:auto;background:#FFFFFF;\">\n\n<table style=\"font-family:Arial,Verdana,Times;font-size:12px;text-align:left;width:100%;border-collapse:collapse;padding:3px 3px 3px 3px\">\n\n<tr style=\"text-align:center;font-weight:bold;background:#9CBCE2\">\n\n<td><\/td>\n\n<\/tr>\n\n<tr>\n\n<td>\n\n<table style=\"font-family:Arial,Verdana,Times;font-size:12px;text-align:left;width:100%;border-spacing:0px; padding:3px 3px 3px 3px\">\n\n<tr>\n\n<td>EXPEDIENTE<\/td>\n\n<td><Null><\/td>\n\n<\/tr>\n\n<tr bgcolor=\"#D4E4F3\">\n\n<td>OPERADOR<\/td>\n\n<td>Concesionaria Férrea de Occidente S.A.S.<\/td>\n\n<\/tr>\n\n<tr>\n\n<td>PROYECTO<\/td>\n\n<td>Regiotram de Occidente<\/td>\n\n<\/tr>\n\n<tr bgcolor=\"#D4E4F3\">\n\n<td>NUM_ACT_AD<\/td>\n\n<td><Null><\/td>\n\n<\/tr>\n\n<tr>\n\n<td>FEC_ACT_AD<\/td>\n\n<td><Null><\/td>\n\n<\/tr>\n\n<tr bgcolor=\"#D4E4F3\">\n\n<td>ART_ACT_AD<\/td>\n\n<td><Null><\/td>\n\n<\/tr>\n\n<tr>\n\n<td>TIPO_INFRA<\/td>\n\n<td>Estaciones<\/td>\n\n<\/tr>\n\n<tr bgcolor=\"#D4E4F3\">\n\n<td>ID_INFRA_PG<\/td>\n\n<td>Cra. 50<\/td>\n\n<\/tr>\n\n<tr>\n\n<td>CARACTER<\/td>\n\n<td>Total de 17 estaciones de pasajeros; 9  estaciones en la zona urbana y 8  estaciones en la zona suburbana (2 estaciones por cada municipio)<\/td>\n\n<\/tr>\n\n<tr bgcolor=\"#D4E4F3\">\n\n<td>ESTADO<\/td>\n\n<td>Proyectada<\/td>\n\n<\/tr>\n\n<tr>\n\n<td>ADECUACION<\/td>\n\n<td><Null><\/td>\n\n<\/tr>\n\n<tr bgcolor=\"#D4E4F3\">\n\n<td>TIPO_ADEC<\/td>\n\n<td><Null><\/td>\n\n<\/tr>\n\n<tr>\n\n<td>CALIDAD<\/td>\n\n<td><Null><\/td>\n\n<\/tr>\n\n<tr bgcolor=\"#D4E4F3\">\n\n<td>REQU_OCUP<\/td>\n\n<td><Null><\/td>\n\n<\/tr>\n\n<tr>\n\n<td>OBSERV<\/td>\n\n<td><Null><\/td>\n\n<\/tr>\n\n<tr bgcolor=\"#D4E4F3\">\n\n<td>AREA_HA<\/td>\n\n<td>0,125325<\/td>\n\n<\/tr>\n\n<\/table>\n\n<\/td>\n\n<\/tr>\n\n<\/table>\n\n<\/body>\n\n<\/html>", "Shape_Length": null, "Shape_Area": null }, "geometry": { "type": "Polygon", "coordinates": [ [ [ -74.160508724183231, 4.69434173481594, 0.0 ], [ -74.160474677522387, 4.694402247486087, 0.0 ], [ -74.161836768188024, 4.695151933406551, 0.0 ], [ -74.161869661395087, 4.695095919326381, 0.0 ], [ -74.161869661395087, 4.695095919326381, 0.0 ], [ -74.161869661395087, 4.695095919326381, 0.0 ], [ -74.160508724183231, 4.69434173481594, 0.0 ] ] ] } }
]
}
