{
"type": "FeatureCollection",
"name": "bicsRegio",
"features": [
{ "type": "Feature", "id": 0, "properties": { "FID": 0, "LotCodigo": "006410066001", "NUMERO_FIC": "006410-066-01", "NOMBRE": "Estación del Ferrocarril Fontibón", "DIRECCION": "KR 99 21 82", "ACTO_ADMIN": "DEC", "NUMERO_ACT": "606", "FECHA_ACTO": 996105600000, "OBSERVACIO": "Se declara Bien de Interés Cultural del ámbito Nacional mediante Decreto 746 de abril 24 de 1996 / Patrimonio Material / Inmueble / Grupo Arquitectónico / Para Zona de Influencia aplica Resolución 1359 de mayo 24 de 2013", "OTROS": "MINCULTURA", "LOCALIZACI": "Bien Interés Cultural - Fuera de Sector Interés Cultural", "Nivel_Inte": "POT 555 - BIC de Ámbito Nacional", "Responsabl": "Ministerio de Cultura", "Localidad": "09", "Categoria": "Conservación Monumental", "AMBITO": "Nacional", "Shape_Leng": 61.797785578499997, "Shape_Area": 231.16470135500001, "FMI": " " }, "geometry": { "type": "Polygon", "coordinates": [ [ [ -74.140514564413607, 4.675988807892148 ], [ -74.14043672684717, 4.676064531043354 ], [ -74.140480326147085, 4.676106471857858 ], [ -74.140535436317435, 4.676163675926967 ], [ -74.140655111714352, 4.676282932476676 ], [ -74.140713101509178, 4.676223940702814 ], [ -74.140716536575269, 4.676198848526305 ], [ -74.140614199017918, 4.676089383568222 ], [ -74.140558454605653, 4.676032816130349 ], [ -74.140514564413607, 4.675988807892148 ] ] ] } },
{ "type": "Feature", "id": 1, "properties": { "FID": 1, "LotCodigo": "006418018047", "NUMERO_FIC": "0064181847", "NOMBRE": "Estación del Ferrocarril Engativá", "DIRECCION": "AK 129 19 9", "ACTO_ADMIN": "DEC", "NUMERO_ACT": "746", "FECHA_ACTO": 830304000000, "OBSERVACIO": "Se declara BIC del ámbito Nacional mediante Decreto 746 de abril 24 de 1996 / Zona de Influencia aplica Resolución 1359 de mayo 24 de 2013 / Patrimonio Material / Inmueble / Grupo Arquitectónico", "OTROS": "MINCULTURA", "LOCALIZACI": "Bien Interés Cultural - Fuera de Sector Interés Cultural", "Nivel_Inte": "POT 555 - Nivel 1", "Responsabl": "Ministerio de Cultura", "Localidad": "09", "Categoria": "Conservación Integral", "AMBITO": "Nacional", "Shape_Leng": 207.266278086, "Shape_Area": 2603.4762348899999, "FMI": " " }, "geometry": { "type": "Polygon", "coordinates": [ [ [ -74.160347273511036, 4.694071324778133 ], [ -74.160323150837186, 4.694085907435134 ], [ -74.160344591684321, 4.69419205513041 ], [ -74.160860672916712, 4.694469762552182 ], [ -74.160996395779748, 4.694212304176686 ], [ -74.161022896080624, 4.694162035651912 ], [ -74.160672536950131, 4.693968083646721 ], [ -74.160572027147936, 4.693912444185224 ], [ -74.160347273511036, 4.694071324778133 ] ] ] } },
{ "type": "Feature", "id": 2, "properties": { "FID": 2, "LotCodigo": " ", "NUMERO_FIC": " ", "NOMBRE": "Estacion tren Cerrito la floresta", "DIRECCION": " ", "ACTO_ADMIN": " ", "NUMERO_ACT": " ", "FECHA_ACTO": -2209161600000, "OBSERVACIO": " ", "OTROS": " ", "LOCALIZACI": " ", "Nivel_Inte": " ", "Responsabl": " ", "Localidad": " ", "Categoria": " ", "AMBITO": " ", "Shape_Leng": 0.0, "Shape_Area": 0.0, "FMI": " " }, "geometry": { "type": "Polygon", "coordinates": [ [ [ -74.181645102521585, 4.69952502252708 ], [ -74.181642852992454, 4.699457123992056 ], [ -74.181531024185475, 4.699460853521282 ], [ -74.181533273703792, 4.699528752056888 ], [ -74.181645102521585, 4.69952502252708 ] ] ] } },
{ "type": "Feature", "id": 4, "properties": { "FID": 4, "LotCodigo": " ", "NUMERO_FIC": " ", "NOMBRE": "Estacion Mosquera", "DIRECCION": " ", "ACTO_ADMIN": " ", "NUMERO_ACT": " ", "FECHA_ACTO": null, "OBSERVACIO": " ", "OTROS": " ", "LOCALIZACI": " ", "Nivel_Inte": " ", "Responsabl": " ", "Localidad": " ", "Categoria": " ", "AMBITO": " ", "Shape_Leng": 0.00091453985027000004, "Shape_Area": 542.58796710800004, "FMI": "50C-776980" }, "geometry": { "type": "Polygon", "coordinates": [ [ [ -74.229403206620461, 4.707349113588252 ], [ -74.229417814355102, 4.707331767635124 ], [ -74.229170990592237, 4.707130784486272 ], [ -74.22908394445308, 4.707239052398499 ], [ -74.229330103977446, 4.707440165942097 ], [ -74.229340834962557, 4.707426410927821 ], [ -74.229403206620461, 4.707349113588252 ] ] ] } },
{ "type": "Feature", "id": 5, "properties": { "FID": 5, "LotCodigo": " ", "NUMERO_FIC": " ", "NOMBRE": "Estacion Madrid Centro", "DIRECCION": " ", "ACTO_ADMIN": " ", "NUMERO_ACT": " ", "FECHA_ACTO": null, "OBSERVACIO": " ", "OTROS": " ", "LOCALIZACI": " ", "Nivel_Inte": " ", "Responsabl": " ", "Localidad": " ", "Categoria": " ", "AMBITO": " ", "Shape_Leng": 0.0016176878192499999, "Shape_Area": 839.55910668299998, "FMI": "50C-776980" }, "geometry": { "type": "Polygon", "coordinates": [ [ [ -74.262983661454342, 4.73377297654181 ], [ -74.262854811560302, 4.73368709232959 ], [ -74.262836598933276, 4.733674846615409 ], [ -74.26275885855442, 4.733622571591242 ], [ -74.262635994124366, 4.733539952989 ], [ -74.262631752217885, 4.733546415368313 ], [ -74.26259515540815, 4.733602163677854 ], [ -74.262717729821674, 4.733685595332933 ], [ -74.262737953795465, 4.733699359740884 ], [ -74.262934114618403, 4.733833040046511 ], [ -74.26294399160993, 4.73383978522071 ], [ -74.262983661454342, 4.73377297654181 ] ] ] } },
{ "type": "Feature", "id": 6, "properties": { "FID": 6, "LotCodigo": " ", "NUMERO_FIC": " ", "NOMBRE": "Estacion el Corzo", "DIRECCION": " ", "ACTO_ADMIN": " ", "NUMERO_ACT": " ", "FECHA_ACTO": null, "OBSERVACIO": " ", "OTROS": " ", "LOCALIZACI": " ", "Nivel_Inte": " ", "Responsabl": " ", "Localidad": " ", "Categoria": " ", "AMBITO": " ", "Shape_Leng": 0.0041574692820599999, "Shape_Area": 2893.6099343300002, "FMI": "50C-776980" }, "geometry": { "type": "Polygon", "coordinates": [ [ [ -74.316599614994047, 4.772733007525596 ], [ -74.316389351830182, 4.77239774747273 ], [ -74.316178996191709, 4.772573114008297 ], [ -74.316326682023217, 4.772734326419283 ], [ -74.316449203575914, 4.772873339190534 ], [ -74.316599614994047, 4.772733007525596 ] ] ] } },
{ "type": "Feature", "id": 7, "properties": { "FID": 7, "LotCodigo": " ", "NUMERO_FIC": " ", "NOMBRE": "Estacion Facatativa", "DIRECCION": " ", "ACTO_ADMIN": " ", "NUMERO_ACT": " ", "FECHA_ACTO": null, "OBSERVACIO": " ", "OTROS": " ", "LOCALIZACI": " ", "Nivel_Inte": " ", "Responsabl": " ", "Localidad": " ", "Categoria": " ", "AMBITO": " ", "Shape_Leng": 0.0016503967383000001, "Shape_Area": 628.7371571, "FMI": "156-53293" }, "geometry": { "type": "Polygon", "coordinates": [ [ [ -74.355032991434058, 4.808437570592807 ], [ -74.355431092935106, 4.808764381724614 ], [ -74.355505832021564, 4.808678937441855 ], [ -74.355102272519829, 4.808349642625092 ], [ -74.355032991434058, 4.808437570592807 ] ] ] } }
]
}
