{
"type": "FeatureCollection",
"name": "bicsAreas",
"features": [
{ "type": "Feature", "id": 1, "properties": { "FID": 1, "Layer": "PROJECT", "CODIGO": "252860000000000071287000000000 ME", "MUNICIPIO": "FUNZA", "FMI": "50C-1482457", "ZI_BIC": "CERRITO", "FOLIO_DE_M": "50C-2182981", "PROPIETA_1": "DEPARTAMENTO DE CUNDINAMARCA", "TIPO": "ADQUIRIDO PARA REGIOTRAM", "RefName": " ", "obs": "CON TRANSFERENCIA A FAVOR DEL DEPARTAMENTO", "Id": 4 }, "geometry": { "type": "Polygon", "coordinates": [ [ [ -74.182032808929989, 4.699414712067142 ], [ -74.182034862478716, 4.699473272438129 ], [ -74.182450162617712, 4.699469105733923 ], [ -74.182490019070258, 4.699468705536939 ], [ -74.182491917210456, 4.699441643446002 ], [ -74.182459290399336, 4.699435949367751 ], [ -74.182319909596472, 4.699410958989017 ], [ -74.182256317857508, 4.699401505565298 ], [ -74.182032808929989, 4.699414712067142 ] ] ] } },
{ "type": "Feature", "id": 2, "properties": { "FID": 2, "Layer": "PROJECT", "CODIGO": "252860000000000071282000000000", "MUNICIPIO": "FUNZA", "FMI": "50C-308946", "ZI_BIC": "CERRITO", "FOLIO_DE_M": "50C-308946", "PROPIETA_1": "EMPRESA FERREA REGIONAL", "TIPO": "ADQUIRIDO PARA REGIOTRAM", "RefName": " ", "obs": "TRANSFERIDO A NOMBRE DE LA EFR", "Id": 2 }, "geometry": { "type": "Polygon", "coordinates": [ [ [ -74.181422763918846, 4.69967462610676 ], [ -74.181371524913374, 4.699756396081595 ], [ -74.181372245362226, 4.699756387128653 ], [ -74.181379478596881, 4.699755785490452 ], [ -74.181449973888817, 4.699749918622903 ], [ -74.181981690298741, 4.699712331455292 ], [ -74.182231871105373, 4.699696184810416 ], [ -74.18243543473865, 4.69968336329075 ], [ -74.182466673652641, 4.699689306258972 ], [ -74.182488915939061, 4.699720816165657 ], [ -74.18248856020621, 4.699748095802436 ], [ -74.182543045723165, 4.699743728553768 ], [ -74.182543210114844, 4.699685310557355 ], [ -74.182543228979455, 4.699678652248426 ], [ -74.182543329590771, 4.69964306158499 ], [ -74.182539160509549, 4.699622453683054 ], [ -74.182863393936628, 4.699598928909095 ], [ -74.183135631078429, 4.699579176012785 ], [ -74.183139681582034, 4.699578882355939 ], [ -74.183136017354002, 4.699511934868162 ], [ -74.181452050793737, 4.699627890810101 ], [ -74.181422763918846, 4.69967462610676 ] ] ] } },
{ "type": "Feature", "id": 3, "properties": { "FID": 3, "Layer": "PROJECT", "CODIGO": "006410660400000000", "MUNICIPIO": "BOGOTA D.C.", "FMI": "50C-1498246", "ZI_BIC": "FONTIBON", "FOLIO_DE_M": "50C-1498246", "PROPIETA_1": "DEPARTAMENTO DE CUNDINAMARCA", "TIPO": "ADQUIRIDO PARA REGIOTRAM", "RefName": " ", "obs": "CON TRANSFERENCIA A FAVOR DEL DEPARTAMENTO", "Id": 3 }, "geometry": { "type": "Polygon", "coordinates": [ [ [ -74.140113282827699, 4.675702528464333 ], [ -74.140447541453327, 4.676051681238682 ], [ -74.140496501432978, 4.676002244955994 ], [ -74.140496519368057, 4.675974409749728 ], [ -74.140119997005428, 4.675683866714912 ], [ -74.140113282827699, 4.675702528464333 ] ] ] } },
{ "type": "Feature", "id": 4, "properties": { "FID": 4, "Layer": "PROJECT", "CODIGO": "254730100000000280001000000000", "MUNICIPIO": "MOSQUERA", "FMI": "50C-1822223", "ZI_BIC": "MOSQUERA", "FOLIO_DE_M": "50C-1822223", "PROPIETA_1": "DEPARTAMENTO DE CUNDINAMARCA", "TIPO": "ADQUIRIDO PARA REGIOTRAM", "RefName": " ", "obs": "CON TRANSFERENCIA A FAVOR DEL DEPARTAMENTO", "Id": 1 }, "geometry": { "type": "Polygon", "coordinates": [ [ [ -74.230944788946829, 4.70889962129405 ], [ -74.230780554372686, 4.70876646670503 ], [ -74.230620863559565, 4.7086349074939 ], [ -74.230360099700576, 4.70843380261937 ], [ -74.230088473413161, 4.708227264208046 ], [ -74.228987358063776, 4.707362229508035 ], [ -74.228973848300214, 4.707373473393884 ], [ -74.228982552076999, 4.707380593596385 ], [ -74.228985964776768, 4.707383387781208 ], [ -74.229028861128214, 4.707418485642277 ], [ -74.229441978361066, 4.707756512968365 ], [ -74.229447635950706, 4.707761140694598 ], [ -74.229479220716101, 4.70778689087026 ], [ -74.229559024351019, 4.707851949407503 ], [ -74.229719832668351, 4.707983040533019 ], [ -74.229950856901539, 4.708173438835495 ], [ -74.230038884612867, 4.708245989073096 ], [ -74.230055491767502, 4.70825967527936 ], [ -74.230419460374534, 4.708542789978486 ], [ -74.230567071542026, 4.708657608301781 ], [ -74.230824341852895, 4.70885772830004 ], [ -74.2309146543233, 4.708927978102937 ], [ -74.230944788946829, 4.70889962129405 ] ] ] } },
{ "type": "Feature", "id": 5, "properties": { "FID": 5, "Layer": "PROJECT", "CODIGO": "254300102000000210016000000000", "MUNICIPIO": "MADRID", "FMI": "50C-1545013", "ZI_BIC": "MADRID", "FOLIO_DE_M": "50C-2188850", "PROPIETA_1": "DEPARTAMENTO DE CUNDINAMARCA", "TIPO": "ADQUIRIDO PARA REGIOTRAM", "RefName": " ", "obs": "CON TRANSFERENCIA A FAVOR DEL DEPARTAMENTO", "Id": 6 }, "geometry": { "type": "Polygon", "coordinates": [ [ [ -74.261976021359217, 4.733396211516645 ], [ -74.261976281870659, 4.733396407576783 ], [ -74.261976542382072, 4.733396603636831 ], [ -74.26217270569407, 4.733592607295792 ], [ -74.262240713550938, 4.733556686232215 ], [ -74.262291484534174, 4.733529869873195 ], [ -74.262040266173372, 4.733359246579497 ], [ -74.261976021359217, 4.733396211516645 ] ] ] } },
{ "type": "Feature", "id": 7, "properties": { "FID": 7, "Layer": "PROJECT", "CODIGO": "AAA0249HSNN", "MUNICIPIO": "BOGOTA D.C.", "FMI": "50C-1663117", "ZI_BIC": "ENGATIVA", "FOLIO_DE_M": "50C-1663117", "PROPIETA_1": "EN ESCRITURACION A NOMBRE DEL DEPARTAMENTO DE CUNDINAMARCA", "TIPO": "ADQUIRIDO PARA REGIOTRAM", "RefName": " ", "obs": "CON PROMESA DE COMPRAVENTA SUSCRITA", "Id": 5 }, "geometry": { "type": "Polygon", "coordinates": [ [ [ -74.159155311181365, 4.693510983305414 ], [ -74.159155302198215, 4.693511010164475 ], [ -74.159404813759934, 4.693650614736088 ], [ -74.159425179465771, 4.693661994929211 ], [ -74.159447975114404, 4.693624019767382 ], [ -74.159177562450949, 4.693470956996256 ], [ -74.159155311181365, 4.693510983305414 ] ] ] } },
{ "type": "Feature", "id": 8, "properties": { "FID": 8, "Layer": "PROJECT", "CODIGO": "254300000000000050024000000000", "MUNICIPIO": "MADRID", "FMI": "50C-1487835", "ZI_BIC": "CORZO", "FOLIO_DE_M": "50C-1487835", "PROPIETA_1": "ANDREA DEL PILAR VERGARA SUAREZ", "TIPO": "EN PROCESO DE ADQUISICION PREDIO PRIVADO", "RefName": " ", "obs": "CON ESCRITURA PUBLICA A FAVOR DEL DEPARTAMENTO EN REGISTRO", "Id": 3 }, "geometry": { "type": "Polygon", "coordinates": [ [ [ -74.317354372051156, 4.77408098957229 ], [ -74.318004134275967, 4.774785696771862 ], [ -74.317989255479887, 4.774704864885419 ], [ -74.317775662156492, 4.774463754935784 ], [ -74.316391865851799, 4.772935723348319 ], [ -74.315318772549375, 4.771750775397864 ], [ -74.315225278589537, 4.771836712071852 ], [ -74.315406811040475, 4.772031186536562 ], [ -74.315466063916617, 4.771980378486708 ], [ -74.3163451301008, 4.772959226828447 ], [ -74.316380371009416, 4.772998748123209 ], [ -74.316758348843294, 4.773419263761004 ], [ -74.316810719726035, 4.773475326525242 ], [ -74.316921846716568, 4.773599158561462 ], [ -74.316934235382689, 4.773610232176793 ], [ -74.316948647054758, 4.773625592901276 ], [ -74.317110414772813, 4.773816402809357 ], [ -74.317354372051156, 4.77408098957229 ] ] ] } },
{ "type": "Feature", "id": 9, "properties": { "FID": 9, "Layer": "PROJECT", "CODIGO": "AAA0242OPWW", "MUNICIPIO": "BOGOTA D.C.", "FMI": "50C-1900614", "ZI_BIC": "FONTIBON", "FOLIO_DE_M": "50C-1900614", "PROPIETA_1": "INSTITUTO DE DESARROLLO URBANO", "TIPO": "ADQUIRIDO PARA REGIOTRAM", "RefName": " ", "obs": "PREDIO PUBLICO CON ENTREGA DE PARTE DE LA ENTIDAD", "Id": 4 }, "geometry": { "type": "Polygon", "coordinates": [ [ [ -74.139893837878518, 4.675618375898481 ], [ -74.139855870583048, 4.675654510353029 ], [ -74.139851220004829, 4.675659094421087 ], [ -74.139852783971719, 4.675660719437389 ], [ -74.139927283054888, 4.675738324481464 ], [ -74.139935008566326, 4.675731044588299 ], [ -74.139976900601269, 4.675691732626557 ], [ -74.139898716628849, 4.675616835042697 ], [ -74.139897086186593, 4.675615282547676 ], [ -74.139893837878518, 4.675618375898481 ] ] ] } },
{ "type": "Feature", "id": 10, "properties": { "FID": 10, "Layer": "PROJECT", "CODIGO": "254300000000000050094000000000", "MUNICIPIO": "MADRID", "FMI": "50C-1195109", "ZI_BIC": "CORZO", "FOLIO_DE_M": "50C-1195109", "PROPIETA_1": "SIMON CARRE", "TIPO": "EN PROCESO DE ADQUISICION PREDIO PRIVADO", "RefName": " ", "obs": "CON PROMESA DE COMPRAVENTA SUSCRITA", "Id": 13 }, "geometry": { "type": "Polygon", "coordinates": [ [ [ -74.315900350847457, 4.772218103658374 ], [ -74.31589999331797, 4.772218446520429 ], [ -74.315895844897966, 4.772222434641312 ], [ -74.315896453057448, 4.772223082766897 ], [ -74.315957857398686, 4.77229187359703 ], [ -74.315963356884836, 4.772286950886635 ], [ -74.315963938094839, 4.772286424508396 ], [ -74.316044105547434, 4.772212455834541 ], [ -74.316090074137151, 4.772170041204358 ], [ -74.31602940910939, 4.772101638879405 ], [ -74.315900350847457, 4.772218103658374 ] ] ] } },
{ "type": "Feature", "id": 11, "properties": { "FID": 11, "Layer": "PROJECT", "CODIGO": "254300000000000050132000000000", "MUNICIPIO": "MADRID", "FMI": "50C-1487422", "ZI_BIC": "CORZO", "FOLIO_DE_M": "50C-1487422", "PROPIETA_1": "BENEDICTA MORENO RAMIREZ", "TIPO": "EN PROCESO DE ADQUISICION PREDIO PRIVADO", "RefName": " ", "obs": "CON PROMESA DE COMPRAVENTA SUSCRITA", "Id": 7 }, "geometry": { "type": "Polygon", "coordinates": [ [ [ -74.316124701496392, 4.772478783486277 ], [ -74.316157333697404, 4.772515339008659 ], [ -74.316169982874925, 4.772505637718398 ], [ -74.316268655622366, 4.77242303217049 ], [ -74.316243502794421, 4.772384898403948 ], [ -74.316208437955623, 4.772414162520475 ], [ -74.316206179590978, 4.772410891456533 ], [ -74.316137940867051, 4.772467610485372 ], [ -74.316124701496392, 4.772478783486277 ] ] ] } },
{ "type": "Feature", "id": 12, "properties": { "FID": 12, "Layer": "PROJECT", "CODIGO": "254300000000000050092000000000 ME", "MUNICIPIO": "MADRID", "FMI": "50C-1104221", "ZI_BIC": "CORZO", "FOLIO_DE_M": "50C-1104221", "PROPIETA_1": "ALFREDO SOTELO SUAREZ", "TIPO": "EN PROCESO DE ADQUISICION PREDIO PRIVADO", "RefName": " ", "obs": "CON ESCRITURA PUBLICA A FAVOR DEL DEPARTAMENTO EN REGISTRO", "Id": 8 }, "geometry": { "type": "Polygon", "coordinates": [ [ [ -74.316124701496392, 4.772478783486277 ], [ -74.316137940867051, 4.772467610485372 ], [ -74.316206179590978, 4.772410891456533 ], [ -74.316208437955623, 4.772414162520475 ], [ -74.316243502794421, 4.772384898403948 ], [ -74.316264837782427, 4.772367093753226 ], [ -74.31616986878889, 4.772260014287429 ], [ -74.316044923014317, 4.772375686786713 ], [ -74.316044719995062, 4.772375865826899 ], [ -74.316037995206855, 4.772381648824717 ], [ -74.316124701496392, 4.772478783486277 ] ] ] } },
{ "type": "Feature", "id": 13, "properties": { "FID": 13, "Layer": "PROJECT", "CODIGO": "254300000000000050901900000000 ME", "MUNICIPIO": "MADRID", "FMI": "50C-2082631", "ZI_BIC": "CORZO", "FOLIO_DE_M": "50C-2082631", "PROPIETA_1": "TERESITA MONROY CARRILLO", "TIPO": "EN PROCESO DE ADQUISICION PREDIO PRIVADO", "RefName": " ", "obs": "CON PROMESA DE COMPRAVENTA SUSCRITA", "Id": 10 }, "geometry": { "type": "Polygon", "coordinates": [ [ [ -74.315993721738096, 4.772332050217297 ], [ -74.316037995206855, 4.772381648824717 ], [ -74.316044719995062, 4.772375865826899 ], [ -74.316044923014317, 4.772375686786713 ], [ -74.31616986878889, 4.772260014287429 ], [ -74.316132109004229, 4.772217438523942 ], [ -74.316125624066188, 4.772210125626057 ], [ -74.316080356162374, 4.772252065797211 ], [ -74.316000337830161, 4.772326200079004 ], [ -74.315999956046156, 4.77232654025537 ], [ -74.315993721738096, 4.772332050217297 ] ] ] } },
{ "type": "Feature", "id": 14, "properties": { "FID": 14, "Layer": "PROJECT", "CODIGO": "254300000000000050111000000000", "MUNICIPIO": "MADRID", "FMI": "50C-1446034", "ZI_BIC": "CORZO", "FOLIO_DE_M": "50C-1446034", "PROPIETA_1": "DEPARTAMENTO DE CUNDINAMARCA", "TIPO": "ADQUIRIDO PARA REGIOTRAM", "RefName": " ", "obs": "CON TRANSFERENCIA A FAVOR DEL DEPARTAMENTO", "Id": 12 }, "geometry": { "type": "Polygon", "coordinates": [ [ [ -74.315957857398686, 4.77229187359703 ], [ -74.315993721738096, 4.772332050217297 ], [ -74.315999956046156, 4.77232654025537 ], [ -74.316000337830161, 4.772326200079004 ], [ -74.316080356162374, 4.772252065797211 ], [ -74.316044105547434, 4.772212455834541 ], [ -74.315963938094839, 4.772286424508396 ], [ -74.315963356884836, 4.772286950886635 ], [ -74.315957857398686, 4.77229187359703 ] ] ] } },
{ "type": "Feature", "id": 15, "properties": { "FID": 15, "Layer": "PROJECT", "CODIGO": "254300000000000050110000000000", "MUNICIPIO": "MADRID", "FMI": "50C-1273943", "ZI_BIC": "CORZO", "FOLIO_DE_M": "50C-1273943", "PROPIETA_1": "DEPARTAMENTO DE CUNDINAMARCA", "TIPO": "ADQUIRIDO PARA REGIOTRAM", "RefName": " ", "obs": "CON TRANSFERENCIA A FAVOR DEL DEPARTAMENTO", "Id": 11 }, "geometry": { "type": "Polygon", "coordinates": [ [ [ -74.316044105547434, 4.772212455834541 ], [ -74.316080356162374, 4.772252065797211 ], [ -74.316125624066188, 4.772210125626057 ], [ -74.316209621935172, 4.772132304893139 ], [ -74.316211487735984, 4.772130576259521 ], [ -74.316181437293082, 4.772085741000027 ], [ -74.316090074137151, 4.772170041204358 ], [ -74.316044105547434, 4.772212455834541 ] ] ] } },
{ "type": "Feature", "id": 16, "properties": { "FID": 16, "Layer": "PROJECT", "CODIGO": "254300102000000210016000000000", "MUNICIPIO": "MADRID", "FMI": " ", "ZI_BIC": "MADRID", "FOLIO_DE_M": "50C-1545013", "PROPIETA_1": "MIGUEL EDUARDO FULA", "TIPO": "EN PROCESO DE ADQUISICION PREDIO PRIVADO", "RefName": " ", "obs": "ZONA DE TERRENO EN GESTINN Y REVISIUN DE TITULARIDAD (EN TERMINOS DE ENTREGA)", "Id": 7 }, "geometry": { "type": "Polygon", "coordinates": [ [ [ -74.26192222485011, 4.73342826062586 ], [ -74.26205101002418, 4.733663020596488 ], [ -74.262181198366733, 4.733601092487436 ], [ -74.26217270569407, 4.733592607295792 ], [ -74.261976542382072, 4.733396603636831 ], [ -74.261976501957889, 4.733396626913373 ], [ -74.261922319173223, 4.733428389542094 ], [ -74.26192222485011, 4.73342826062586 ] ] ] } },
{ "type": "Feature", "id": 17, "properties": { "FID": 17, "Layer": "PROJECT", "CODIGO": "SIN REFERENCIA CATASTRAL", "MUNICIPIO": "FACATATIVA", "FMI": " ", "ZI_BIC": "FACA", "FOLIO_DE_M": "156-57413", "PROPIETA_1": "INSTITUTO NACIONAL DE VIAS", "TIPO": "CORREDOR FERREO", "RefName": " ", "obs": "GESTIONADO MEDIANTE ENTREGA DE CORREDOR FERREO", "Id": 1 }, "geometry": { "type": "Polygon", "coordinates": [ [ [ -74.352134342816342, 4.805843456599592 ], [ -74.352088428705997, 4.80581005841901 ], [ -74.351656419004385, 4.805450175614014 ], [ -74.351410656112336, 4.805245137941909 ], [ -74.351164232958553, 4.805038620511707 ], [ -74.350713851811065, 4.804663423820588 ], [ -74.350646919237562, 4.804608527319288 ], [ -74.350629899756171, 4.804620514389581 ], [ -74.350646963254988, 4.804634750993436 ], [ -74.350817883009171, 4.804777360498511 ], [ -74.350910973625432, 4.804855031606399 ], [ -74.351276483741486, 4.805159999470539 ], [ -74.351380172042028, 4.805246512909546 ], [ -74.351332039723601, 4.805348753581545 ], [ -74.351436944410821, 4.805436289929005 ], [ -74.351667268856403, 4.805624199602446 ], [ -74.351848846223092, 4.80577617493018 ], [ -74.352095852383513, 4.805975782420616 ], [ -74.352127233231329, 4.806006235658407 ], [ -74.352284907326634, 4.806138938177333 ], [ -74.352477711837736, 4.80630006994615 ], [ -74.352821117109599, 4.806584829014519 ], [ -74.35312925721837, 4.806842419986371 ], [ -74.353322863026705, 4.807002239290759 ], [ -74.353512313228563, 4.807159265672897 ], [ -74.353755931842031, 4.807363058503446 ], [ -74.354033665775049, 4.807598315964604 ], [ -74.354370035441619, 4.807888349635339 ], [ -74.354742918031221, 4.808207573259587 ], [ -74.354879852721552, 4.808038458956656 ], [ -74.354843682954936, 4.808008364766574 ], [ -74.354875401569316, 4.807966980889157 ], [ -74.354757221007162, 4.807872477652316 ], [ -74.354230500128551, 4.807376965632956 ], [ -74.354107398595261, 4.807268616948535 ], [ -74.353835587254892, 4.807029383092677 ], [ -74.35371602328722, 4.806924149494725 ], [ -74.353692369747463, 4.806903320117027 ], [ -74.353329186267999, 4.806620862628027 ], [ -74.353328448751142, 4.806621776582372 ], [ -74.352992754617659, 4.806365018917723 ], [ -74.35292446019821, 4.80631278295858 ], [ -74.35285729406273, 4.806261410821485 ], [ -74.352783426495236, 4.806204913013749 ], [ -74.352694871472849, 4.806137180984725 ], [ -74.352687522355481, 4.806133891283817 ], [ -74.352710497667204, 4.806063573139724 ], [ -74.352477630989355, 4.806035912793861 ], [ -74.352462082948435, 4.806032955195638 ], [ -74.352361949540338, 4.806013904467375 ], [ -74.352332764175074, 4.806001272908635 ], [ -74.352329614681679, 4.805998671582707 ], [ -74.352326261270733, 4.805995897491535 ], [ -74.35232291145303, 4.805993126980886 ], [ -74.352319562533651, 4.805990353784842 ], [ -74.352316211817637, 4.805987577008117 ], [ -74.352312859305002, 4.805984796650773 ], [ -74.352312051719565, 4.805984127968557 ], [ -74.352309508589002, 4.805982018978879 ], [ -74.35230616056792, 4.805979238621508 ], [ -74.352302812546881, 4.805976458264132 ], [ -74.352299458237596, 4.805973671640596 ], [ -74.352296111114839, 4.805970888597736 ], [ -74.352292761297164, 4.80596810376451 ], [ -74.352289409682811, 4.805965314455541 ], [ -74.352286055373554, 4.805962523356182 ], [ -74.352282709149108, 4.80595973673264 ], [ -74.35227935304323, 4.805956943842951 ], [ -74.352276001428891, 4.805954151848445 ], [ -74.352272650712877, 4.80595136074905 ], [ -74.352269298200255, 4.805948567859355 ], [ -74.352265944789252, 4.805945773179393 ], [ -74.352262588683388, 4.805942976708983 ], [ -74.352259237069063, 4.805940183819257 ], [ -74.352203682391831, 4.805893896264708 ], [ -74.352174918690508, 4.805872972681971 ], [ -74.352134342816342, 4.805843456599592 ] ] ] } },
{ "type": "Feature", "id": 18, "properties": { "FID": 18, "Layer": "PROJECT", "CODIGO": "254300000000000050901900000000 ME", "MUNICIPIO": "MADRID", "FMI": "50C-2082630", "ZI_BIC": "CORZO", "FOLIO_DE_M": "50C-2082630", "PROPIETA_1": "PAULA ANDREA DIAZ MONROY", "TIPO": "EN PROCESO DE ADQUISICION PREDIO PRIVADO", "RefName": " ", "obs": "CON PROMESA DE COMPRAVENTA SUSCRITA", "Id": 9 }, "geometry": { "type": "Polygon", "coordinates": [ [ [ -74.316125624066188, 4.772210125626057 ], [ -74.316132109004229, 4.772217438523942 ], [ -74.31616986878889, 4.772260014287429 ], [ -74.316246226486356, 4.772189325627721 ], [ -74.316209621935172, 4.772132304893139 ], [ -74.316125624066188, 4.772210125626057 ] ] ] } },
{ "type": "Feature", "id": 19, "properties": { "FID": 19, "Layer": "PROJECT", "CODIGO": "254300000000000050092000000000 ME", "MUNICIPIO": "MADRID", "FMI": "50C-1985560", "ZI_BIC": "CORZO", "FOLIO_DE_M": "50C-1985560", "PROPIETA_1": "DEPARTAMENTO DE CUNDINAMARCA", "TIPO": "ADQUIRIDO PARA REGIOTRAM", "RefName": " ", "obs": "CON TRANSFERENCIA A FAVOR DEL DEPARTAMENTO", "Id": 6 }, "geometry": { "type": "Polygon", "coordinates": [ [ [ -74.316243502794421, 4.772384898403948 ], [ -74.316268655622366, 4.77242303217049 ], [ -74.316351085032835, 4.772354022029337 ], [ -74.316326729908852, 4.772315440658489 ], [ -74.316264837782427, 4.772367093753226 ], [ -74.316243502794421, 4.772384898403948 ] ] ] } },
{ "type": "Feature", "id": 20, "properties": { "FID": 20, "Layer": "PROJECT", "CODIGO": "254300102000000280091000000000", "MUNICIPIO": "MADRID", "FMI": " ", "ZI_BIC": "MADRID", "FOLIO_DE_M": "50C-1520845", "PROPIETA_1": "MARIA ERNESTINA ROJAS DE ACERO", "TIPO": "EN PROCESO DE ADQUISICION PREDIO PRIVADO", "RefName": " ", "obs": "CON RESOLUCIIN DE EXPROPIACIRN A FAVOR DEL DEPARTAMENTO EN REGISTRO", "Id": 3 }, "geometry": { "type": "Polygon", "coordinates": [ [ [ -74.263234564665495, 4.733860352732369 ], [ -74.263034923975084, 4.733722816211849 ], [ -74.262943433258357, 4.733865289146065 ], [ -74.26313792211063, 4.734001087956559 ], [ -74.263152992247839, 4.733978984214909 ], [ -74.263234564665495, 4.733860352732369 ] ] ] } },
{ "type": "Feature", "id": 21, "properties": { "FID": 21, "Layer": "SECONDARY", "CODIGO": "SIN REFERENCIA CATASTRAL", "MUNICIPIO": "FACATATIVA", "FMI": " ", "ZI_BIC": "FACA", "FOLIO_DE_M": "SIN FOLIO", "PROPIETA_1": "MUNICIPIO DE FACATATIVA", "TIPO": "ESPACIO PUBLICO", "RefName": " ", "obs": "ZONA DE TERRENO EN GESTIAN Y REVISIEN DE TITULARIDAD (EN TERMINOS DE ENTREGA)", "Id": 3 }, "geometry": { "type": "Polygon", "coordinates": [ [ [ -74.352155417654814, 4.805782474885847 ], [ -74.352114670048664, 4.80582914662932 ], [ -74.352134344004895, 4.805843457560476 ], [ -74.35217491859602, 4.805872972713655 ], [ -74.352203679861987, 4.805893894355704 ], [ -74.352205591049, 4.805895486729344 ], [ -74.352239872022324, 4.805856420163304 ], [ -74.352301487671113, 4.805767837964117 ], [ -74.352337384948044, 4.80572636878362 ], [ -74.352270069802557, 4.805663232690177 ], [ -74.352155417654814, 4.805782474885847 ] ] ] } },
{ "type": "Feature", "id": 22, "properties": { "FID": 22, "Layer": "SECONDARY", "CODIGO": "SIN REFERENCIA CATASTRAL", "MUNICIPIO": "FACATATIVA", "FMI": " ", "ZI_BIC": "FACA", "FOLIO_DE_M": "SIN FOLIO", "PROPIETA_1": "INSTITUTO NACIONAL DE VIAS", "TIPO": "ESPACIO PUBLICO", "RefName": " ", "obs": "ESPACIO PUBLICO GESTIONADO MEDIANTE ANUENCIA", "Id": 4 }, "geometry": { "type": "Polygon", "coordinates": [ [ [ -74.35194230442201, 4.805851697995609 ], [ -74.351881779975287, 4.805920695485563 ], [ -74.3520090608787, 4.806027101522082 ], [ -74.35201020126425, 4.806088045148988 ], [ -74.352075062948785, 4.806142857310828 ], [ -74.352135573459535, 4.806103519539843 ], [ -74.352196084037146, 4.806064181878375 ], [ -74.352095852102806, 4.805975781262195 ], [ -74.35194230442201, 4.805851697995609 ] ] ] } },
{ "type": "Feature", "id": 23, "properties": { "FID": 23, "Layer": "SECONDARY", "CODIGO": "SIN REFERENCIA CATASTRAL", "MUNICIPIO": "MOSQUERA", "FMI": " ", "ZI_BIC": "MOSQUERA", "FOLIO_DE_M": "SIN FOLIO", "PROPIETA_1": "MUNICIPIO DE MOSQUERA", "TIPO": "ESPACIO PUBLICO", "RefName": " ", "obs": "ZONA DE TERRENO EN GESTIRN Y REVISITN DE TITULARIDAD (EN TERMINOS DE ENTREGA)", "Id": 2 }, "geometry": { "type": "Polygon", "coordinates": [ [ [ -74.229869871083736, 4.707785021516101 ], [ -74.230077894852386, 4.707935758775228 ], [ -74.230192791173849, 4.708019014847166 ], [ -74.230388358902786, 4.708172909722609 ], [ -74.2305266680155, 4.708309761939631 ], [ -74.230619847564981, 4.708390906887611 ], [ -74.230704515577145, 4.708458572434531 ], [ -74.231896441618602, 4.709411158137808 ], [ -74.231919358539827, 4.709429673474866 ], [ -74.231919540897806, 4.709429821196481 ], [ -74.231933221341279, 4.709412307680587 ], [ -74.230681012056039, 4.708419598942506 ], [ -74.230752464952047, 4.708348115006158 ], [ -74.23044031656049, 4.708127579697134 ], [ -74.230129585710458, 4.707879432850613 ], [ -74.229796325113099, 4.707613305015636 ], [ -74.229532895997082, 4.707348893352061 ], [ -74.229554085706965, 4.707323067197852 ], [ -74.229568399039721, 4.707305620430064 ], [ -74.229487509517966, 4.707239084685585 ], [ -74.229473933898277, 4.707256486583177 ], [ -74.229455814578031, 4.707276990519711 ], [ -74.229200236328225, 4.707082784103711 ], [ -74.229193743305345, 4.707113867520001 ], [ -74.229452140103547, 4.707320451026109 ], [ -74.229350775105232, 4.707450551171259 ], [ -74.229380783327272, 4.707430622126457 ], [ -74.229869871083736, 4.707785021516101 ] ] ] } },
{ "type": "Feature", "id": 24, "properties": { "FID": 24, "Layer": "UTILITIES", "CODIGO": "254300000000000050042000000000", "MUNICIPIO": "MADRID", "FMI": " ", "ZI_BIC": "CORZO", "FOLIO_DE_M": "50C-2243291", "PROPIETA_1": "MUNICIPIO DE MADRID", "TIPO": "PREDIO PUBLICO", "RefName": " ", "obs": "ESPACIO PUBLICO GESTIONADO MEDIANTE ANUENCIA", "Id": 4 }, "geometry": { "type": "Polygon", "coordinates": [ [ [ -74.317520273816157, 4.773995953749347 ], [ -74.317492197870266, 4.774016108254584 ], [ -74.317492046953291, 4.774016216573594 ], [ -74.317676887001127, 4.774217784868755 ], [ -74.317707636333282, 4.774185816434344 ], [ -74.31762736826937, 4.774080420225922 ], [ -74.317548034453381, 4.773975468915108 ], [ -74.317520273816157, 4.773995953749347 ] ] ] } },
{ "type": "Feature", "id": 25, "properties": { "FID": 25, "Layer": "UTILITIES", "CODIGO": "254300102000000270001000000000", "MUNICIPIO": "MADRID", "FMI": " ", "ZI_BIC": "MADRID", "FOLIO_DE_M": "S/I", "PROPIETA_1": "MUNICIPIO DE MADRID", "TIPO": "PREDIO PUBLICO", "RefName": " ", "obs": "ZONA DE TERRENO EN GESTIIN Y REVISIVN DE TITULARIDAD (EN TERMINOS DE ENTREGA)", "Id": 2 }, "geometry": { "type": "Polygon", "coordinates": [ [ [ -74.262867831044034, 4.734006433498831 ], [ -74.262816904652269, 4.734074836024412 ], [ -74.26344658953046, 4.734529527420356 ], [ -74.263502289569658, 4.734436998842662 ], [ -74.263403791095371, 4.734370154088313 ], [ -74.262867831044034, 4.734006433498831 ] ] ] } },
{ "type": "Feature", "id": 26, "properties": { "FID": 26, "Layer": "UTILITIES", "CODIGO": "SIN REFERENCIA CATASTRAL", "MUNICIPIO": "FUNZA", "FMI": " ", "ZI_BIC": "CERRITO", "FOLIO_DE_M": "SIN FOLIO", "PROPIETA_1": "DEPARTAMENTO DE CUNDINAMARCA", "TIPO": "ESPACIO PUBLICO", "RefName": " ", "obs": "VIA DEPARTAMENTAL", "Id": 8 }, "geometry": { "type": "Polygon", "coordinates": [ [ [ -74.181335984381448, 4.699502992905359 ], [ -74.181397354900056, 4.699514771823516 ], [ -74.18140293551825, 4.699515832878604 ], [ -74.181430204173481, 4.699521012669811 ], [ -74.18143356166857, 4.699484789516466 ], [ -74.181434090776264, 4.699479164376349 ], [ -74.181437042640312, 4.699411510490925 ], [ -74.181469422414708, 4.699313999390689 ], [ -74.181405438111966, 4.699295613602534 ], [ -74.181399706279606, 4.699294929604282 ], [ -74.181361733868343, 4.699420213066192 ], [ -74.181335984381448, 4.699502992905359 ] ] ] } },
{ "type": "Feature", "id": 27, "properties": { "FID": 27, "Layer": "UTILITIES", "CODIGO": "SIN REFERENCIA CATASTRAL", "MUNICIPIO": "FUNZA", "FMI": " ", "ZI_BIC": "CERRITO", "FOLIO_DE_M": "SIN FOLIO", "PROPIETA_1": "INSTITUTO NACIONAL DE VIAS", "TIPO": "ESPACIO PUBLICO", "RefName": " ", "obs": "ZONA DE TERRENO EN GESTIAN Y REVISI￿N DE TITULARIDAD (EN TERMINOS DE ENTREGA)", "Id": 5 }, "geometry": { "type": "Polygon", "coordinates": [ [ [ -74.18194761091182, 4.699316576946389 ], [ -74.182256317857508, 4.699401505565298 ], [ -74.182264862632493, 4.699401000618686 ], [ -74.182427425359549, 4.699391395889918 ], [ -74.182427505309633, 4.699391391413441 ], [ -74.182443252776565, 4.699390461201563 ], [ -74.182594983617932, 4.699384251432794 ], [ -74.182655608221538, 4.69937973466755 ], [ -74.182660345038002, 4.699379638870909 ], [ -74.182703662699325, 4.699378755214384 ], [ -74.182620086140247, 4.69937288744832 ], [ -74.182421600683256, 4.699351593742109 ], [ -74.182110269758624, 4.699306647224222 ], [ -74.18195166141544, 4.699279657645904 ], [ -74.18194761091182, 4.699316576946389 ] ] ] } },
{ "type": "Feature", "id": 28, "properties": { "FID": 28, "Layer": "UTILITIES", "CODIGO": "252860000000000060382000000000", "MUNICIPIO": "FUNZA", "FMI": " ", "ZI_BIC": "CERRITO", "FOLIO_DE_M": "50C-671943", "PROPIETA_1": "INMOBILIARIA LA RAMADA S.A.S", "TIPO": "EN PROCESO DE ADQUISICION PREDIO PRIVADO", "RefName": " ", "obs": "ZONA DE TERRENO EN GESTI.N Y REVISITN DE TITULARIDAD (EN TERMINOS DE ENTREGA)", "Id": 10 }, "geometry": { "type": "Polygon", "coordinates": [ [ [ -74.180536490889565, 4.699778182736555 ], [ -74.180535800302451, 4.699813750146883 ], [ -74.180552485054733, 4.699812508687873 ], [ -74.181123455351099, 4.699803111144529 ], [ -74.181144331789682, 4.699739201866211 ], [ -74.181088266341362, 4.699726131531814 ], [ -74.180536490889565, 4.699778182736555 ] ] ] } },
{ "type": "Feature", "id": 29, "properties": { "FID": 29, "Layer": "UTILITIES", "CODIGO": "SIN REFERENCIA CATASTRAL", "MUNICIPIO": "BOGOTA D.C.", "FMI": " ", "ZI_BIC": "CUAN", "FOLIO_DE_M": "SIN FOLIO", "PROPIETA_1": "BOGOTA D.C.", "TIPO": "ESPACIO PUBLICO", "RefName": " ", "obs": "ZONA DE TERRENO EN GESTI", "Id": 1 }, "geometry": { "type": "Polygon", "coordinates": [ [ [ -74.090560722540232, 4.62513271136286 ], [ -74.09061675566312, 4.62519718781915 ], [ -74.090940207555903, 4.625499106076724 ], [ -74.090936972722545, 4.625532357262214 ], [ -74.090976424034849, 4.625534434565899 ], [ -74.09098376776231, 4.625493478553308 ], [ -74.09099515318087, 4.625379222763649 ], [ -74.091132838692147, 4.625520043865585 ], [ -74.091129608350371, 4.625545770196911 ], [ -74.09113782344366, 4.6255617600623 ], [ -74.091151077187376, 4.62556557083983 ], [ -74.091225011230193, 4.625573390275989 ], [ -74.091764366014985, 4.626093554949463 ], [ -74.091758489236398, 4.626185320655281 ], [ -74.091534786272774, 4.626159083975641 ], [ -74.09153339029082, 4.626196170975285 ], [ -74.091810516064385, 4.626223564495678 ], [ -74.091810610387483, 4.626212300506557 ], [ -74.091811672196172, 4.626086142920938 ], [ -74.091293947945104, 4.625580674269213 ], [ -74.091278229224272, 4.625565315653887 ], [ -74.091269969215219, 4.625564197312405 ], [ -74.091159848337782, 4.625549694689057 ], [ -74.091168057142866, 4.625457746241368 ], [ -74.091141661944874, 4.625431973346579 ], [ -74.091003353730443, 4.625296927982812 ], [ -74.090877677625585, 4.625174226439354 ], [ -74.090866943296675, 4.625163746447186 ], [ -74.090560722540232, 4.62513271136286 ] ] ] } },
{ "type": "Feature", "id": 30, "properties": { "FID": 30, "Layer": "UTILITIES", "CODIGO": "SIN REFERENCIA CATASTRAL", "MUNICIPIO": "BOGOTA D.C.", "FMI": " ", "ZI_BIC": "CUAN", "FOLIO_DE_M": "SIN FOLIO", "PROPIETA_1": "BOGOTA D.C.", "TIPO": "ESPACIO PUBLICO", "RefName": " ", "obs": "ZONA DE TERRENO EN GESTI", "Id": 2 }, "geometry": { "type": "Polygon", "coordinates": [ [ [ -74.09164500865981, 4.625800499507465 ], [ -74.091717344599743, 4.625873471034796 ], [ -74.091757553191869, 4.625812891693419 ], [ -74.09164500865981, 4.625800499507465 ] ] ] } },
{ "type": "Feature", "id": 31, "properties": { "FID": 31, "Layer": "UTILITIES", "CODIGO": "252860000000000071287000000000", "MUNICIPIO": "FUNZA", "FMI": " ", "ZI_BIC": "CERRITO", "FOLIO_DE_M": "50C-1482457", "PROPIETA_1": "MARGARITA RIVERA MONCADA", "TIPO": "EN PROCESO DE ADQUISICION PREDIO PRIVADO", "RefName": " ", "obs": "ZONA DE TERRENO EN GESTI N Y REVISIRN DE TITULARIDAD (EN TERMINOS DE ENTREGA)", "Id": 6 }, "geometry": { "type": "Polygon", "coordinates": [ [ [ -74.18194761091182, 4.699316576946389 ], [ -74.181943564001443, 4.699353498035507 ], [ -74.182030380783772, 4.699366647239373 ], [ -74.182032808929989, 4.699414712067142 ], [ -74.182256317857508, 4.699401505565298 ], [ -74.18194761091182, 4.699316576946389 ] ] ] } },
{ "type": "Feature", "id": 32, "properties": { "FID": 32, "Layer": "UTILITIES", "CODIGO": "SIN REFERENCIA CATASTRAL", "MUNICIPIO": "MADRID", "FMI": " ", "ZI_BIC": "MADRID", "FOLIO_DE_M": "SIN FOLIO", "PROPIETA_1": "MUNICIPIO DE MADRID", "TIPO": "ESPACIO PUBLICO", "RefName": " ", "obs": "ESPACIO PUBLICO GESTIONADO MEDIANTE ANUENCIA", "Id": 4 }, "geometry": { "type": "Polygon", "coordinates": [ [ [ -74.262698906448122, 4.734007939310574 ], [ -74.262816904652269, 4.734074836024412 ], [ -74.262867831942359, 4.73400643260357 ], [ -74.26286668479375, 4.734005587486827 ], [ -74.262818406635432, 4.733969983363462 ], [ -74.262802692406154, 4.733948105224051 ], [ -74.262586802090553, 4.733796883913953 ], [ -74.262573355209071, 4.733810899068597 ], [ -74.262365470679299, 4.733663280219321 ], [ -74.262262036860847, 4.733572636925008 ], [ -74.262250676765774, 4.733564139199481 ], [ -74.262181198366733, 4.733601092487436 ], [ -74.261895738023952, 4.733742754349226 ], [ -74.26194545887661, 4.733843223895866 ], [ -74.262225206832525, 4.733686860240177 ], [ -74.262281985748359, 4.733725345296228 ], [ -74.262698906448122, 4.734007939310574 ] ] ] } },
{ "type": "Feature", "id": 33, "properties": { "FID": 33, "Layer": "UTILITIES", "CODIGO": "SIN REFERENCIA CATASTRAL", "MUNICIPIO": "MADRID", "FMI": " ", "ZI_BIC": "MADRID", "FOLIO_DE_M": "SIN FOLIO", "PROPIETA_1": "MUNICIPIO DE MADRID", "TIPO": "ESPACIO PUBLICO", "RefName": " ", "obs": "ESPACIO PUBLICO GESTIONADO MEDIANTE ANUENCIA", "Id": 5 }, "geometry": { "type": "Polygon", "coordinates": [ [ [ -74.262420240063832, 4.733470449351541 ], [ -74.262572583556249, 4.733584456928022 ], [ -74.26261278496186, 4.733526139360713 ], [ -74.26261735379336, 4.733519829629078 ], [ -74.262577483866096, 4.733488489563184 ], [ -74.26258315493051, 4.733485332906677 ], [ -74.262576176817376, 4.733472661517868 ], [ -74.262745714064309, 4.73337456970556 ], [ -74.262645207855385, 4.733314142907679 ], [ -74.262519537140406, 4.73341114252173 ], [ -74.262496283350941, 4.73342465992434 ], [ -74.262420240063832, 4.733470449351541 ] ] ] } },
{ "type": "Feature", "id": 34, "properties": { "FID": 34, "Layer": "UTILITIES", "CODIGO": "SIN REFERENCIA CATASTRAL", "MUNICIPIO": "MADRID", "FMI": " ", "ZI_BIC": "CORZO", "FOLIO_DE_M": "SIN FOLIO", "PROPIETA_1": "MUNICIPIO DE MADRID", "TIPO": "ESPACIO PUBLICO", "RefName": " ", "obs": "ESPACIO PUBLICO GESTIONADO MEDIANTE ANUENCIA", "Id": 5 }, "geometry": { "type": "Polygon", "coordinates": [ [ [ -74.317449359010979, 4.773962852878095 ], [ -74.317470582607896, 4.773993542083786 ], [ -74.317492197870266, 4.774016108254584 ], [ -74.317492514077244, 4.774016438582896 ], [ -74.317520273816157, 4.773995953749347 ], [ -74.317548034453381, 4.773975468915108 ], [ -74.317527862783678, 4.773941067318915 ], [ -74.317483397973731, 4.773882995766345 ], [ -74.317462916385267, 4.773884410180655 ], [ -74.317353429718437, 4.773717247872714 ], [ -74.317280635637701, 4.773725110406814 ], [ -74.317267240858513, 4.773737214394306 ], [ -74.31732395419732, 4.773800369794673 ], [ -74.317368487279239, 4.773849962924762 ], [ -74.31738066573952, 4.773863525189151 ], [ -74.317449359010979, 4.773962852878095 ] ] ] } },
{ "type": "Feature", "id": 35, "properties": { "FID": 35, "Layer": "UTILITIES", "CODIGO": "254300000000000050024000000000", "MUNICIPIO": "MADRID", "FMI": " ", "ZI_BIC": "CORZO", "FOLIO_DE_M": "50C-1487835", "PROPIETA_1": "ANDREA DEL PILAR VERGARA SUAREZ", "TIPO": "EN PROCESO DE ADQUISICION PREDIO PRIVADO", "RefName": " ", "obs": "CON PERMISO DE INTERVENCISN ANTICIPADA", "Id": 2 }, "geometry": { "type": "Polygon", "coordinates": [ [ [ -74.317354372051156, 4.77408098957229 ], [ -74.31735651093986, 4.774088775115164 ], [ -74.317366976312925, 4.774129503072577 ], [ -74.31787202803028, 4.774682532383962 ], [ -74.318025212345788, 4.774900195241257 ], [ -74.318004134275967, 4.774785696771862 ], [ -74.317354372051156, 4.77408098957229 ] ] ] } },
{ "type": "Feature", "id": 36, "properties": { "FID": 36, "Layer": "UTILITIES", "CODIGO": "252690100000000170901900000000", "MUNICIPIO": "FACATATIVA", "FMI": " ", "ZI_BIC": "FACA", "FOLIO_DE_M": "156-75587", "PROPIETA_1": "CONSTRUCTORA DE VIVIENDA DE INTERES SOCIAL DE FACATATIVA", "TIPO": "EN PROCESO DE ADQUISICION PREDIO PRIVADO", "RefName": " ", "obs": "ZONA DE TERRENO EN GESTI N Y REVISI N DE TITULARIDAD (EN TERMINOS DE ENTREGA)", "Id": 5 }, "geometry": { "type": "Polygon", "coordinates": [ [ [ -74.352155417722244, 4.805782475009287 ], [ -74.352122703027334, 4.805753830016204 ], [ -74.35172378995577, 4.805421737351258 ], [ -74.350959947978097, 4.804790132619825 ], [ -74.35084917402547, 4.804690491627128 ], [ -74.350732997604723, 4.804547889265102 ], [ -74.350646919237562, 4.804608527319288 ], [ -74.350713851811065, 4.804663423820588 ], [ -74.351164232958553, 4.805038620511707 ], [ -74.351410656112336, 4.805245137941909 ], [ -74.351656419004385, 4.805450175614014 ], [ -74.352088428705997, 4.80581005841901 ], [ -74.352114670048664, 4.80582914662932 ], [ -74.352155417722244, 4.805782475009287 ] ] ] } },
{ "type": "Feature", "id": 37, "properties": { "FID": 37, "Layer": "UTILITIES", "CODIGO": "252690100000000220002000000000", "MUNICIPIO": "FACATATIVA", "FMI": " ", "ZI_BIC": "FACA", "FOLIO_DE_M": "156-132924", "PROPIETA_1": "FIDUCIARIA DAVIVIENDA S.A. COMO VOCERA DEL FIDEICOMISO PORTOFINO", "TIPO": "EN PROCESO DE ADQUISICION PREDIO PRIVADO", "RefName": " ", "obs": "ZONA DE TERRENO EN GESTIAN Y REVISIEN DE TITULARIDAD (EN TERMINOS DE ENTREGA)", "Id": 2 }, "geometry": { "type": "Polygon", "coordinates": [ [ [ -74.352205591049, 4.805895486729344 ], [ -74.352259237069063, 4.805940183819257 ], [ -74.352262588683388, 4.805942976708983 ], [ -74.352265944789252, 4.805945773179393 ], [ -74.352269298200255, 4.805948567859355 ], [ -74.352272650712877, 4.80595136074905 ], [ -74.352276001428891, 4.805954151848445 ], [ -74.35227935304323, 4.805956943842951 ], [ -74.352282709149108, 4.80595973673264 ], [ -74.352286055373554, 4.805962523356182 ], [ -74.352289409682811, 4.805965314455541 ], [ -74.352292761297164, 4.80596810376451 ], [ -74.352296111114839, 4.805970888597736 ], [ -74.352299458237596, 4.805973671640596 ], [ -74.352302812546881, 4.805976458264132 ], [ -74.35230616056792, 4.805979238621508 ], [ -74.352309508589002, 4.805982018978879 ], [ -74.352312051719565, 4.805984127968557 ], [ -74.352312859305002, 4.805984796650773 ], [ -74.352316211817637, 4.805987577008117 ], [ -74.352319562533651, 4.805990353784842 ], [ -74.35232291145303, 4.805993126980886 ], [ -74.352326261270733, 4.805995897491535 ], [ -74.352329614681679, 4.805998671582707 ], [ -74.352332764175074, 4.806001272908635 ], [ -74.352361949540338, 4.806013904467375 ], [ -74.352464227227003, 4.806033914803784 ], [ -74.352462082948435, 4.806032955195638 ], [ -74.352450741717959, 4.806027876970796 ], [ -74.352364663350826, 4.805958551544835 ], [ -74.352250252119575, 4.805865510716074 ], [ -74.352239873026974, 4.805856419069179 ], [ -74.352205591049, 4.805895486729344 ] ] ] } },
{ "type": "Feature", "id": 39, "properties": { "FID": 39, "Layer": "UTILITIES", "CODIGO": "SIN REFERENCIA CATASTRAL", "MUNICIPIO": "Mosquera", "FMI": " ", "ZI_BIC": "MOSQUERA", "FOLIO_DE_M": "SIN FOLIO", "PROPIETA_1": "MUNICIPIO DE MOSQUERA", "TIPO": "ESPACIO PUBLICO", "RefName": " ", "obs": "ZONA DE TERRENO EN GESTIRN Y REVISITN DE TITULARIDAD (EN TERMINOS DE ENTREGA)", "Id": 5 }, "geometry": { "type": "Polygon", "coordinates": [ [ [ -74.228330694980983, 4.707570196155491 ], [ -74.228380328697057, 4.70761010884886 ], [ -74.228746664364834, 4.707338134698851 ], [ -74.228854176534668, 4.707427388356874 ], [ -74.228927885100376, 4.707335865150965 ], [ -74.22885749940292, 4.70727827324446 ], [ -74.228852643110514, 4.707273538080807 ], [ -74.228788818707883, 4.707211308591145 ], [ -74.228691419771508, 4.707116342984254 ], [ -74.228699788476689, 4.707054157349542 ], [ -74.228694643825065, 4.707049581545184 ], [ -74.228568993771333, 4.7071531884559 ], [ -74.228600859709402, 4.707190597955372 ], [ -74.228543491498712, 4.70724149223994 ], [ -74.228582668824899, 4.707275391321253 ], [ -74.228629090165526, 4.707321091155011 ], [ -74.228330694980983, 4.707570196155491 ] ] ] } },
{ "type": "Feature", "id": 40, "properties": { "FID": 40, "Layer": "UTILITIES", "CODIGO": "SIN REFERENCIA CATASTRAL", "MUNICIPIO": "Mosquera", "FMI": " ", "ZI_BIC": "MOSQUERA", "FOLIO_DE_M": "SIN FOLIO", "PROPIETA_1": "MUNICIPIO DE MOSQUERA", "TIPO": "ESPACIO PUBLICO", "RefName": " ", "obs": "ZONA DE TERRENO EN GESTIRN Y REVISITN DE TITULARIDAD (EN TERMINOS DE ENTREGA)", "Id": 4 }, "geometry": { "type": "Polygon", "coordinates": [ [ [ -74.229029839393561, 4.70719185225019 ], [ -74.229046481582515, 4.707205807062772 ], [ -74.229155798467744, 4.707146139873931 ], [ -74.229180280254184, 4.707114767281874 ], [ -74.229193743305345, 4.707113867520001 ], [ -74.229200236328225, 4.707082784103711 ], [ -74.229198109117632, 4.70701584718547 ], [ -74.229062120353277, 4.706901867473958 ], [ -74.228963726981902, 4.706927472645179 ], [ -74.228919863144895, 4.706896523513429 ], [ -74.228831914485298, 4.706993836589202 ], [ -74.228944694375983, 4.707084583627545 ], [ -74.229050873445942, 4.707170020716517 ], [ -74.229029839393561, 4.70719185225019 ] ] ] } },
{ "type": "Feature", "id": 41, "properties": { "FID": 41, "Layer": "UTILITIES", "CODIGO": "SIN REFERENCIA CATASTRAL", "MUNICIPIO": "FUNZA", "FMI": " ", "ZI_BIC": "CERRITO", "FOLIO_DE_M": "SIN FOLIO", "PROPIETA_1": "DEPARTAMENTO DE CUNDINAMARCA", "TIPO": "ESPACIO PUBLICO", "RefName": " ", "obs": "ZONA DE TERRENO EN GESTI.N Y REVISIEN DE TITULARIDAD (EN TERMINOS DE ENTREGA)", "Id": 7 }, "geometry": { "type": "Polygon", "coordinates": [ [ [ -74.181054433991122, 4.700180213343232 ], [ -74.181092261149402, 4.70018004771377 ], [ -74.181153307062871, 4.700017762161623 ], [ -74.181215089594843, 4.700026729432009 ], [ -74.181326323484896, 4.699798910949696 ], [ -74.181342256099597, 4.699764547916659 ], [ -74.181371524587519, 4.699756395924218 ], [ -74.181422763568875, 4.699674626270351 ], [ -74.18127840367768, 4.699685251682381 ], [ -74.181152981211042, 4.699712217790013 ], [ -74.181144331687094, 4.699739201828031 ], [ -74.181123455351099, 4.699803111144529 ], [ -74.181202294890241, 4.699801813495631 ], [ -74.181054433991122, 4.700180213343232 ] ] ] } },
{ "type": "Feature", "id": 42, "properties": { "FID": 42, "Layer": "UTILITIES", "CODIGO": "252860000000000060387000000000", "MUNICIPIO": "FUNZA", "FMI": " ", "ZI_BIC": "CERRITO", "FOLIO_DE_M": "50C-1566049", "PROPIETA_1": "INSTITUTO NACIONAL DE VIAS", "TIPO": "PREDIO PUBLICO", "RefName": " ", "obs": "ZONA DE TERRENO EN GESTIIN Y REVISIIN DE TITULARIDAD (EN TERMINOS DE ENTREGA)", "Id": 13 }, "geometry": { "type": "Polygon", "coordinates": [ [ [ -74.180479533677115, 4.699497973887472 ], [ -74.179887289738716, 4.699553748432455 ], [ -74.179829281653454, 4.699552065691059 ], [ -74.179927614349779, 4.699585044459482 ], [ -74.18005604511994, 4.699630916681413 ], [ -74.180443355099356, 4.699591264274916 ], [ -74.180479533677115, 4.699497973887472 ] ] ] } },
{ "type": "Feature", "id": 43, "properties": { "FID": 43, "Layer": "UTILITIES", "CODIGO": "252860000000000060388000000000", "MUNICIPIO": "FUNZA", "FMI": " ", "ZI_BIC": "CERRITO", "FOLIO_DE_M": "50C-1566048", "PROPIETA_1": "INSTITUTO NACIONAL DE VIAS", "TIPO": "PREDIO PUBLICO", "RefName": " ", "obs": "ZONA DE TERRENO EN GESTIIN Y REVISIIN DE TITULARIDAD (EN TERMINOS DE ENTREGA)", "Id": 12 }, "geometry": { "type": "Polygon", "coordinates": [ [ [ -74.1812979804901, 4.699420895856177 ], [ -74.180479533677115, 4.699497973887472 ], [ -74.180443355099356, 4.699591264274916 ], [ -74.180475304082776, 4.699587993360296 ], [ -74.181271576736478, 4.699506471097586 ], [ -74.1812979804901, 4.699420895856177 ] ] ] } },
{ "type": "Feature", "id": 44, "properties": { "FID": 44, "Layer": "UTILITIES", "CODIGO": "252860000000000060389000000000", "MUNICIPIO": "FUNZA", "FMI": " ", "ZI_BIC": "CERRITO", "FOLIO_DE_M": "50C-1236248", "PROPIETA_1": "INSTITUTO NACIONAL DE VIAS", "TIPO": "PREDIO PUBLICO", "RefName": " ", "obs": "ZONA DE TERRENO EN GESTIIN Y REVISIIN DE TITULARIDAD (EN TERMINOS DE ENTREGA)", "Id": 9 }, "geometry": { "type": "Polygon", "coordinates": [ [ [ -74.181271576736478, 4.699506471097586 ], [ -74.181324913232402, 4.699501010474045 ], [ -74.181335984381448, 4.699502992905359 ], [ -74.181361733868343, 4.699420213066192 ], [ -74.181344043583678, 4.699416557981333 ], [ -74.1812979804901, 4.699420895856177 ], [ -74.181271576736478, 4.699506471097586 ] ] ] } },
{ "type": "Feature", "id": 45, "properties": { "FID": 45, "Layer": "PROJECT", "CODIGO": "252860000000000060382000000000", "MUNICIPIO": "FUNZA", "FMI": "50C-671943", "ZI_BIC": "CERRITO", "FOLIO_DE_M": "50C-671943", "PROPIETA_1": "DEPARTAMENTO DE CUNDINAMARCA", "TIPO": "ADQUIRIDO PARA REGIOTRAM", "RefName": " ", "obs": "CON TRANSFERENCIA A FAVOR DEL DEPARTAMENTO", "Id": 11 }, "geometry": { "type": "Polygon", "coordinates": [ [ [ -74.180538061705519, 4.699697280765362 ], [ -74.180536490889565, 4.699778182736555 ], [ -74.181088266341362, 4.699726131531814 ], [ -74.181144331994858, 4.699739201942619 ], [ -74.181152980974431, 4.699712218648153 ], [ -74.181177457370964, 4.699635862517421 ], [ -74.180914838490921, 4.699659113329868 ], [ -74.180538061705519, 4.699697280765362 ] ] ] } },
{ "type": "Feature", "id": 46, "properties": { "FID": 46, "Layer": "UTILITIES", "CODIGO": "252860000000000071282000000000", "MUNICIPIO": "FUNZA", "FMI": " ", "ZI_BIC": "CERRITO", "FOLIO_DE_M": "50C-308946", "PROPIETA_1": "INMOBILIARIA LA RAMADA S.A.S", "TIPO": "EN PROCESO DE ADQUISICION PREDIO PRIVADO", "RefName": " ", "obs": "ZONA DE TERRENO EN GESTI.N Y REVISION DE TITULARIDAD (EN TERMINOS DE ENTREGA)", "Id": 1 }, "geometry": { "type": "Polygon", "coordinates": [ [ [ -74.183139681193566, 4.699578879378356 ], [ -74.183135631078429, 4.699579176012785 ], [ -74.182863393936628, 4.699598928909095 ], [ -74.182539160509549, 4.699622453683054 ], [ -74.182543329590771, 4.69964306158499 ], [ -74.182543228979455, 4.699678652248426 ], [ -74.182543210114844, 4.699685310557355 ], [ -74.18314281414203, 4.69964120796354 ], [ -74.183139681193566, 4.699578879378356 ] ] ] } },
{ "type": "Feature", "id": 47, "properties": { "FID": 47, "Layer": "PROJECT", "CODIGO": "AAA0249HSNN", "MUNICIPIO": "BOGOTA D.C.", "FMI": " ", "ZI_BIC": "ENGATIVA", "FOLIO_DE_M": "50C-1663117", "PROPIETA_1": "FIDEICOMISO DE OCCIDENTE VOCERA DEL FIDEICOMISO 4-2-1280 MULTIDIMENSIONALES S.A", "TIPO": "EN PROCESO DE ADQUISICION PREDIO PRIVADO", "RefName": " ", "obs": "CON PROMESA DE COMPRAVENTA SUSCRITA", "Id": 6 }, "geometry": { "type": "Polygon", "coordinates": [ [ [ -74.159447925623112, 4.693623959687151 ], [ -74.159477164683437, 4.693578245210055 ], [ -74.159505266016595, 4.693550740104372 ], [ -74.159208951959485, 4.693388731890733 ], [ -74.158877040520963, 4.693199835250545 ], [ -74.15881802573638, 4.693322273059644 ], [ -74.158862877716615, 4.693347367561892 ], [ -74.158904167984147, 4.693370469961327 ], [ -74.159155301949156, 4.693510978694884 ], [ -74.159177563401585, 4.69347092636144 ], [ -74.159447925623112, 4.693623959687151 ] ] ] } },
{ "type": "Feature", "id": 48, "properties": { "FID": 48, "Layer": "AREAS ADICIONALES LINEA VERDE", "CODIGO": "SIN REFERENCIA CATASTRAL", "MUNICIPIO": "BOGOTA D.C.", "FMI": " ", "ZI_BIC": "ENGATIVA", "FOLIO_DE_M": "SIN FOLIO", "PROPIETA_1": "MUNICIPIO DE BOGOTA D.C.", "TIPO": "ESPACIO PUBLICO", "RefName": "G1", "obs": " ", "Id": 4 }, "geometry": { "type": "Polygon", "coordinates": [ [ [ -74.160055712078858, 4.694049823941041 ], [ -74.160113555476215, 4.694081574944038 ], [ -74.160166108178345, 4.694110390970484 ], [ -74.160233072345704, 4.694147110311255 ], [ -74.160320143030134, 4.694084594015363 ], [ -74.160344466529253, 4.694068156408671 ], [ -74.160270748231298, 4.69393879834012 ], [ -74.160236154847524, 4.693979435023756 ], [ -74.160220752651938, 4.69398941657852 ], [ -74.160211982996358, 4.693978488542423 ], [ -74.160198003532926, 4.693994172630386 ], [ -74.160188760307605, 4.693983955004108 ], [ -74.160133078216987, 4.694040039275691 ], [ -74.160078810240606, 4.694009869175441 ], [ -74.159909269921798, 4.693913017788785 ], [ -74.159521957305472, 4.693692931485087 ], [ -74.159638669447929, 4.693606066352042 ], [ -74.159573284112554, 4.693528488147842 ], [ -74.159717503124597, 4.693411741292957 ], [ -74.159704572610423, 4.693398107550603 ], [ -74.159505266016595, 4.693550740104372 ], [ -74.159477165109621, 4.693578244730251 ], [ -74.159447887085264, 4.693624020138548 ], [ -74.159428964024926, 4.693655674940027 ], [ -74.159423477146959, 4.693666312051879 ], [ -74.159431824365782, 4.693675099134778 ], [ -74.159498099020254, 4.693735261310433 ], [ -74.159885824257842, 4.693954511966357 ], [ -74.159898881677336, 4.693961866204367 ], [ -74.160020396476483, 4.694030492358248 ], [ -74.160055712078858, 4.694049823941041 ] ] ] } },
{ "type": "Feature", "id": 49, "properties": { "FID": 49, "Layer": "AREAS ADICIONALES LINEA VERDE", "CODIGO": "SIN REFERENCIA CATASTRAL", "MUNICIPIO": "BOGOTA D.C.", "FMI": " ", "ZI_BIC": "ENGATIVA", "FOLIO_DE_M": "SIN FOLIO", "PROPIETA_1": "MUNICIPIO DE BOGOTA D.C.", "TIPO": "ESPACIO PUBLICO", "RefName": "G4", "obs": " ", "Id": 2 }, "geometry": { "type": "Polygon", "coordinates": [ [ [ -74.160115282096911, 4.694248214853283 ], [ -74.159941946105349, 4.694143878438946 ], [ -74.159776484095076, 4.694251396553826 ], [ -74.159742833634766, 4.694273756526369 ], [ -74.159880200275069, 4.694432144305101 ], [ -74.159903072538597, 4.694435923536102 ], [ -74.160097264420315, 4.694261173909764 ], [ -74.160115282096911, 4.694248214853283 ] ] ] } },
{ "type": "Feature", "id": 50, "properties": { "FID": 50, "Layer": "AREAS ADICIONALES LINEA VERDE", "CODIGO": "AAA0204KSUH", "MUNICIPIO": "BOGOTA D.C.", "FMI": " ", "ZI_BIC": "ENGATIVA", "FOLIO_DE_M": "SIN FOLIO", "PROPIETA_1": "MUNICIPIO DE BOGOTA D.C.", "TIPO": "RESERVA VIAL", "RefName": "G5", "obs": " ", "Id": 1 }, "geometry": { "type": "Polygon", "coordinates": [ [ [ -74.161653838253997, 4.695302625750219 ], [ -74.161730467988988, 4.695403739558918 ], [ -74.161712173698334, 4.69542208512705 ], [ -74.161778996002084, 4.695487479850816 ], [ -74.161885570834457, 4.69537580672023 ], [ -74.161893989319864, 4.695363684327487 ], [ -74.161900330339833, 4.695350349469035 ], [ -74.161904424991533, 4.695336157339772 ], [ -74.161906164207636, 4.695321485969219 ], [ -74.161905501661536, 4.695306726152235 ], [ -74.161902455001339, 4.695292271039572 ], [ -74.161897105379751, 4.695278505665703 ], [ -74.161889595292379, 4.695265796692789 ], [ -74.161880124782215, 4.69525448264406 ], [ -74.16186894611107, 4.69524486488684 ], [ -74.161856357040307, 4.695237199605007 ], [ -74.161827961411106, 4.695221384701894 ], [ -74.161858472330394, 4.695237386006433 ], [ -74.161890845530721, 4.69520452781356 ], [ -74.161873688357133, 4.695195476569832 ], [ -74.161834258036251, 4.695173584039231 ], [ -74.161794707743084, 4.695151905206734 ], [ -74.161755533712267, 4.695129546584369 ], [ -74.161715707326493, 4.695108371041539 ], [ -74.161675543407341, 4.69508780980709 ], [ -74.161637191597293, 4.695063956786214 ], [ -74.161597250522419, 4.695042990843459 ], [ -74.161557747422776, 4.69502122899743 ], [ -74.161518887677957, 4.694998299106659 ], [ -74.161480339029822, 4.694974804259884 ], [ -74.161440349984147, 4.694953925048218 ], [ -74.16140098675713, 4.69493190944953 ], [ -74.161361838016433, 4.694909503555747 ], [ -74.161323019184422, 4.694886499591831 ], [ -74.160177371751587, 4.694261275653439 ], [ -74.160132616531342, 4.694236841412478 ], [ -74.16011528204946, 4.694248214876178 ], [ -74.160097264420315, 4.694261173909764 ], [ -74.159963108575724, 4.694381898629204 ], [ -74.159990294182819, 4.694398440538412 ], [ -74.160035970394858, 4.69442388424665 ], [ -74.160043464198466, 4.694410340270421 ], [ -74.160513177027681, 4.694670602529176 ], [ -74.161230727884345, 4.695068185878764 ], [ -74.161653838253997, 4.695302625750219 ] ] ] } },
{ "type": "Feature", "id": 51, "properties": { "FID": 51, "Layer": "PROJECT", "CODIGO": "SIN REFERENCIA CATASTRAL", "MUNICIPIO": "FUNZA", "FMI": "50C-777298", "ZI_BIC": "ENGATIVA", "FOLIO_DE_M": "50C-777298", "PROPIETA_1": "INSTITUTO NACIONAL DE VIAS", "TIPO": "CORREDOR FERREO", "RefName": " ", "obs": "GESTIONADO MEDIANTE ENTREGA DE CORREDOR FERREO", "Id": 3 }, "geometry": { "type": "Polygon", "coordinates": [ [ [ -74.161976198053395, 4.695102432439561 ], [ -74.160736770086245, 4.694420229088658 ], [ -74.160651315149877, 4.694369717056839 ], [ -74.160465640567168, 4.694268000913638 ], [ -74.16034359635097, 4.694204592940313 ], [ -74.160320134694686, 4.694084600146962 ], [ -74.160233072447809, 4.694147110418132 ], [ -74.160020397873339, 4.694030493257608 ], [ -74.159498848505564, 4.693735941559325 ], [ -74.159422427027749, 4.693666569926173 ], [ -74.159425179465771, 4.693661994929211 ], [ -74.159404813759934, 4.693650614736088 ], [ -74.159350898260584, 4.693620448410152 ], [ -74.159257258856258, 4.693744724616303 ], [ -74.159271433703211, 4.693752554794899 ], [ -74.159513505803858, 4.693885229588342 ], [ -74.159518821862136, 4.693888352642496 ], [ -74.15962905703698, 4.693953066344501 ], [ -74.159814739782192, 4.694066305369634 ], [ -74.159941950972481, 4.694143876403335 ], [ -74.160115282002053, 4.694248214899043 ], [ -74.160132616552076, 4.694236841374238 ], [ -74.160177371192518, 4.694261276300606 ], [ -74.161323018725483, 4.694886499404261 ], [ -74.161361837623858, 4.694909504167271 ], [ -74.161400987102269, 4.694931909973073 ], [ -74.161440350379692, 4.694953925426876 ], [ -74.161480338884587, 4.694974803847656 ], [ -74.161518887390031, 4.694998299232707 ], [ -74.161557747610914, 4.695021229682064 ], [ -74.161597249228905, 4.695042990867583 ], [ -74.161637191021399, 4.695063957025165 ], [ -74.161675543694116, 4.695087810527627 ], [ -74.161715706472137, 4.695108371112577 ], [ -74.161755533280285, 4.695129546768629 ], [ -74.161794707013186, 4.695151906011747 ], [ -74.161834258038539, 4.695173584825503 ], [ -74.161873687791285, 4.695195476720196 ], [ -74.161887463537667, 4.69520274412532 ], [ -74.161976198053395, 4.695102432439561 ] ] ] } },
{ "type": "Feature", "id": 52, "properties": { "FID": 52, "Layer": "PROJECT", "CODIGO": "SIN REFERENCIA CATASTRAL", "MUNICIPIO": "MADRID", "FMI": "50C-456091", "ZI_BIC": "FONTIBON", "FOLIO_DE_M": "50C-456091", "PROPIETA_1": "INSTITUTO NACIONAL DE VIAS", "TIPO": "CORREDOR FERREO", "RefName": " ", "obs": "GESTIONADO MEDIANTE ENTREGA DE CORREDOR FERREO", "Id": 2 }, "geometry": { "type": "Polygon", "coordinates": [ [ [ -74.139803208403336, 4.675609085553222 ], [ -74.139851220004829, 4.675659094421087 ], [ -74.139855870583048, 4.675654510353029 ], [ -74.139893837878518, 4.675618375898481 ], [ -74.139897086186593, 4.675615282547676 ], [ -74.139898716628849, 4.675616835042697 ], [ -74.139976900601269, 4.675691732626557 ], [ -74.139935008566326, 4.675731044588299 ], [ -74.139927283054888, 4.675738324481464 ], [ -74.139953971103651, 4.675766120762111 ], [ -74.140404283080855, 4.676252027253732 ], [ -74.140699950081896, 4.676578990924718 ], [ -74.14082775339736, 4.676680052473538 ], [ -74.140837732781876, 4.676680794697512 ], [ -74.140969488684576, 4.676551986143284 ], [ -74.140793116156658, 4.676326002585034 ], [ -74.140713571236546, 4.676224920392627 ], [ -74.140655239133565, 4.676284047657324 ], [ -74.140434919225314, 4.676064439623878 ], [ -74.140447541453327, 4.676051681238682 ], [ -74.140113282827699, 4.675702528464333 ], [ -74.140120152244705, 4.675683988058811 ], [ -74.140096604706144, 4.675665581951697 ], [ -74.14002745868379, 4.675611229407592 ], [ -74.139916628179208, 4.675496811510651 ], [ -74.13980630535346, 4.675605122164217 ], [ -74.139803208403336, 4.675609085553222 ] ] ] } },
{ "type": "Feature", "id": 53, "properties": { "FID": 53, "Layer": "PROJECT", "CODIGO": "SIN REFERENCIA CATASTRAL", "MUNICIPIO": "FUNZA", "FMI": "50C-777298", "ZI_BIC": "FONTIBON", "FOLIO_DE_M": "50C-777298", "PROPIETA_1": "INSTITUTO NACIONAL DE VIAS", "TIPO": "CORREDOR FERREO", "RefName": " ", "obs": "GESTIONADO MEDIANTE ENTREGA DE CORREDOR FERREO", "Id": 1 }, "geometry": { "type": "Polygon", "coordinates": [ [ [ -74.141300214339338, 4.676914954104829 ], [ -74.141101829390536, 4.676712492764767 ], [ -74.141019567066706, 4.676613150243789 ], [ -74.140978863502895, 4.676563996027972 ], [ -74.140969488684576, 4.676551986143284 ], [ -74.140837732781876, 4.676680794697512 ], [ -74.14093016672966, 4.676687673475469 ], [ -74.141222919581494, 4.676987614939801 ], [ -74.141300214339338, 4.676914954104829 ] ] ] } },
{ "type": "Feature", "id": 54, "properties": { "FID": 54, "Layer": "PROJECT", "CODIGO": "SIN REFERENCIA CATASTRAL", "MUNICIPIO": "BOGOTA D.C.", "FMI": "50C-777321", "ZI_BIC": "CUAN", "FOLIO_DE_M": "50C-777321", "PROPIETA_1": "INSTITUTO NACIONAL DE VIAS", "TIPO": "CORREDOR FERREO", "RefName": " ", "obs": "GESTIONADO MEDIANTE ENTREGA DE CORREDOR FERREO", "Id": 4 }, "geometry": { "type": "Polygon", "coordinates": [ [ [ -74.0908890468897, 4.625165986323716 ], [ -74.090866946850483, 4.625163746237416 ], [ -74.090877677625585, 4.625174226439354 ], [ -74.091003353730443, 4.625296927982812 ], [ -74.091141661944874, 4.625431973346579 ], [ -74.091168057142866, 4.625457746241368 ], [ -74.091159848337782, 4.625549694689057 ], [ -74.091269969215219, 4.625564197312405 ], [ -74.091278229224272, 4.625565315653887 ], [ -74.091293947945104, 4.625580674269213 ], [ -74.091771060817422, 4.626046488972902 ], [ -74.091781062088913, 4.625936448043345 ], [ -74.091717344599743, 4.625873471034796 ], [ -74.091229463280754, 4.625391288631199 ], [ -74.091014350006262, 4.625178685253148 ], [ -74.0908890468897, 4.625165986323716 ] ] ] } },
{ "type": "Feature", "id": 55, "properties": { "FID": 55, "Layer": "UTILITIES", "CODIGO": "SIN REFERECNIA CATASTRAL", "MUNICIPIO": "BOGOTA D.C.", "FMI": " ", "ZI_BIC": "CUAN", "FOLIO_DE_M": "SIN FOLIO", "PROPIETA_1": "BOGOTA D.C.", "TIPO": "ESPACIO PUBLICO", "RefName": " ", "obs": "ZONA DE TERRENO EN GESTI", "Id": 3 }, "geometry": { "type": "Polygon", "coordinates": [ [ [ -74.091014349732816, 4.625178684982862 ], [ -74.091229463280754, 4.625391288631199 ], [ -74.091214026960628, 4.625198921727095 ], [ -74.091014349732816, 4.625178684982862 ] ] ] } },
{ "type": "Feature", "id": 60, "properties": { "FID": 60, "Layer": "PROJECT", "CODIGO": "SIN REFERENCIA CATASTRAL", "MUNICIPIO": "MOSQUERA", "FMI": "50C-776980", "ZI_BIC": "MOSQUERA", "FOLIO_DE_M": "50C-776980", "PROPIETA_1": "INSTITUTO NACIONAL DE VIAS", "TIPO": "CORREDOR FERREO", "RefName": "SECTOR-04", "obs": " ", "Id": 3 }, "geometry": { "type": "Polygon", "coordinates": [ [ [ -74.229936683073433, 4.708108018162538 ], [ -74.229938189775694, 4.708106760896109 ], [ -74.23003005129722, 4.707988341904249 ], [ -74.230442627769222, 4.708319944119174 ], [ -74.23048457650583, 4.70826811381478 ], [ -74.230388358902786, 4.708172909722609 ], [ -74.230192791173849, 4.708019014847166 ], [ -74.230077894852386, 4.707935758775228 ], [ -74.229869871083736, 4.707785021516101 ], [ -74.229380783327272, 4.707430622126457 ], [ -74.229350775105232, 4.707450551171259 ], [ -74.229343841009552, 4.707455156517333 ], [ -74.229110652734818, 4.707259618185654 ], [ -74.229046481582515, 4.707205807062772 ], [ -74.229029839393561, 4.70719185225019 ], [ -74.229029803460918, 4.707191822705749 ], [ -74.229050873445942, 4.707170020716517 ], [ -74.228944694375983, 4.707084583627545 ], [ -74.228831914485298, 4.706993836589202 ], [ -74.22840016080356, 4.706646428085401 ], [ -74.22840195024763, 4.706643783410402 ], [ -74.228392979553135, 4.706636753679735 ], [ -74.228318614491684, 4.706732211823166 ], [ -74.228318488105899, 4.706732312374038 ], [ -74.228470365041318, 4.706853959837901 ], [ -74.228507706211062, 4.706881670723009 ], [ -74.22862049149164, 4.707005443966972 ], [ -74.228636998933283, 4.706998308540749 ], [ -74.228694643825065, 4.707049581545184 ], [ -74.228699788476689, 4.707054157349542 ], [ -74.228691419771508, 4.707116342984254 ], [ -74.228788818707883, 4.707211308591145 ], [ -74.228852643110514, 4.707273538080807 ], [ -74.22885749940292, 4.70727827324446 ], [ -74.228927885100376, 4.707335865150965 ], [ -74.228973848300214, 4.707373473393884 ], [ -74.228987358063776, 4.707362229508035 ], [ -74.229936683073433, 4.708108018162538 ] ] ] } },
{ "type": "Feature", "id": 61, "properties": { "FID": 61, "Layer": "SECONDARY", "CODIGO": "SIN REFERENCIA CATASTRAL", "MUNICIPIO": "MADRID", "FMI": " ", "ZI_BIC": "MADRID", "FOLIO_DE_M": "SIN FOLIO", "PROPIETA_1": "MUNICIPIO DE MADRID", "TIPO": "ESPACIO PUBLICO", "RefName": " ", "obs": "ESPACIO PUBLICO GESTIONADO MEDIANTE ANUENCIA", "Id": 8 }, "geometry": { "type": "Polygon", "coordinates": [ [ [ -74.261736131139514, 4.733035170489361 ], [ -74.261827780640743, 4.73309862740907 ], [ -74.262116717194772, 4.733298683502752 ], [ -74.262401125526608, 4.733495604555304 ], [ -74.262418381799165, 4.733470519102226 ], [ -74.26237721258623, 4.733438839707842 ], [ -74.262374033847749, 4.733436851090471 ], [ -74.262356970892867, 4.733426180351626 ], [ -74.262320743309317, 4.733399198392007 ], [ -74.262293877203405, 4.73338205365145 ], [ -74.262259086705768, 4.733359626278721 ], [ -74.262237034023514, 4.733342992990682 ], [ -74.262230407033343, 4.733338989601623 ], [ -74.262227336633501, 4.733337657478571 ], [ -74.262199596638936, 4.733318735107777 ], [ -74.262193501092497, 4.733313367887643 ], [ -74.262177657885559, 4.73330003816791 ], [ -74.262160538013219, 4.733285447285717 ], [ -74.262150204658568, 4.733278209288662 ], [ -74.262132864825546, 4.733266910127293 ], [ -74.262103161974579, 4.733245753743331 ], [ -74.262084637249728, 4.733232563999158 ], [ -74.262078376969512, 4.733228005268765 ], [ -74.262068893056522, 4.733222107220914 ], [ -74.262060671858848, 4.733215847115045 ], [ -74.262054398964381, 4.733211305569498 ], [ -74.261994977268188, 4.733169820234507 ], [ -74.261961955372826, 4.733147793885037 ], [ -74.261906183674611, 4.733107685726886 ], [ -74.261852021087563, 4.733068220999156 ], [ -74.261829383375257, 4.733051347308448 ], [ -74.26181260218199, 4.733039229595553 ], [ -74.261769062757097, 4.73300684893661 ], [ -74.261739132756247, 4.733031816689318 ], [ -74.261736131139514, 4.733035170489361 ] ] ] } },
{ "type": "Feature", "id": 62, "properties": { "FID": 62, "Layer": "PROJECT", "CODIGO": "SIN REFERENCIA CATASTRAL", "MUNICIPIO": "MOSQUERA", "FMI": "50C-776980", "ZI_BIC": "MADRID", "FOLIO_DE_M": "50C-776980", "PROPIETA_1": "INSTITUTO NACIONAL DE VIAS", "TIPO": "CORREDOR FERREO", "RefName": "SECTOR-04", "obs": " ", "Id": 1 }, "geometry": { "type": "Polygon", "coordinates": [ [ [ -74.263967961781262, 4.734540821564209 ], [ -74.264091374190244, 4.734337877629142 ], [ -74.264008198279797, 4.734288337160234 ], [ -74.264007105030075, 4.734289002331277 ], [ -74.263868265911341, 4.734193535509247 ], [ -74.263703520278128, 4.734079004311464 ], [ -74.263508328044992, 4.733942185825571 ], [ -74.263458734753115, 4.734014789769275 ], [ -74.263241751187792, 4.733865306155795 ], [ -74.263234564665495, 4.733860352732369 ], [ -74.263152992247839, 4.733978984214909 ], [ -74.26313792211063, 4.734001087956559 ], [ -74.262943433258357, 4.733865289146065 ], [ -74.262563380316152, 4.733598426429176 ], [ -74.262572551216891, 4.733584505271578 ], [ -74.262420240063832, 4.733470449351541 ], [ -74.262419045304512, 4.733469554995347 ], [ -74.262401125711236, 4.733495605021425 ], [ -74.26211671639733, 4.733298684597337 ], [ -74.261827779574404, 4.733098628049675 ], [ -74.261736130282173, 4.73303517144732 ], [ -74.261663071625563, 4.733116802150995 ], [ -74.261720321303486, 4.733156116649767 ], [ -74.261734795857677, 4.733167313564585 ], [ -74.261813463123715, 4.733228170096101 ], [ -74.261827052837347, 4.733238681246927 ], [ -74.261816077221198, 4.733275650666775 ], [ -74.26181444408401, 4.73328115198845 ], [ -74.26192222485011, 4.73342826062586 ], [ -74.261922319173223, 4.733428389542094 ], [ -74.261976501957889, 4.733396626913373 ], [ -74.261976542382072, 4.733396603636831 ], [ -74.261976281870659, 4.733396407576783 ], [ -74.261976021359217, 4.733396211516645 ], [ -74.262040266173372, 4.733359246579497 ], [ -74.262291484534174, 4.733529869873195 ], [ -74.262240713550938, 4.733556686232215 ], [ -74.262250676765774, 4.733564139199481 ], [ -74.262262036860847, 4.733572636925008 ], [ -74.262365470679299, 4.733663280219321 ], [ -74.262573355209071, 4.733810899068597 ], [ -74.262586802090553, 4.733796883913953 ], [ -74.262802692406154, 4.733948105224051 ], [ -74.262818406635432, 4.733969983363462 ], [ -74.26286668479375, 4.734005587486827 ], [ -74.262867068374362, 4.734005871281342 ], [ -74.262867831044034, 4.734006433498831 ], [ -74.263403791095371, 4.734370154088313 ], [ -74.263444547659816, 4.734397470859649 ], [ -74.263511819796506, 4.734443065953183 ], [ -74.263701149624112, 4.734570477052854 ], [ -74.263865750628554, 4.734679599964712 ], [ -74.263866302131689, 4.734679960298378 ], [ -74.263967961781262, 4.734540821564209 ] ] ] } },
{ "type": "Feature", "id": 63, "properties": { "FID": 63, "Layer": "PROJECT", "CODIGO": "SIN REFERENCIA CATASTRAL", "MUNICIPIO": "MOSQUERA", "FMI": "50C-776980", "ZI_BIC": "CORZO", "FOLIO_DE_M": "50C-776980", "PROPIETA_1": "INSTITUTO NACIONAL DE VIAS", "TIPO": "CORREDOR FERREO", "RefName": "SECTOR-04", "obs": " ", "Id": 1 }, "geometry": { "type": "Polygon", "coordinates": [ [ [ -74.318107920068101, 4.774665258226303 ], [ -74.318070416469212, 4.774621659819624 ], [ -74.317856599465259, 4.774404306612473 ], [ -74.317709140113081, 4.774252376233151 ], [ -74.317676887001127, 4.774217784868755 ], [ -74.317604082140591, 4.774139699384705 ], [ -74.317492514077244, 4.774016438582896 ], [ -74.317470582607896, 4.773993542083786 ], [ -74.317449359010979, 4.773962852878095 ], [ -74.31738066573952, 4.773863525189151 ], [ -74.317368487279239, 4.773849962924762 ], [ -74.31732395419732, 4.773800369794673 ], [ -74.317267240858513, 4.773737214394306 ], [ -74.317280635637701, 4.773725110406814 ], [ -74.316527206930814, 4.772886089868092 ], [ -74.316476347912698, 4.772856475748452 ], [ -74.31644986827304, 4.772883298633761 ], [ -74.316168552757006, 4.772572726743707 ], [ -74.316147445042759, 4.772529850212193 ], [ -74.31616035113845, 4.77251872018178 ], [ -74.316157333697404, 4.772515339008659 ], [ -74.316124701496392, 4.772478783486277 ], [ -74.316037995206855, 4.772381648824717 ], [ -74.315993721738096, 4.772332050217297 ], [ -74.315957857398686, 4.77229187359703 ], [ -74.315896453057448, 4.772223082766897 ], [ -74.315895844897966, 4.772222434641312 ], [ -74.31589999331797, 4.772218446520429 ], [ -74.315402607106648, 4.771666597684058 ], [ -74.315318770632516, 4.771750777452282 ], [ -74.316391865851799, 4.772935723348319 ], [ -74.317775662156492, 4.774463754935784 ], [ -74.317989255479887, 4.774704864885419 ], [ -74.318004134275967, 4.774785696771862 ], [ -74.318035243832568, 4.774819436774543 ], [ -74.318170067481972, 4.774941725247509 ], [ -74.318174529198131, 4.774945773560609 ], [ -74.318107920068101, 4.774665258226303 ] ] ] } },
{ "type": "Feature", "id": 64, "properties": { "FID": 64, "Layer": "PROJECT", "CODIGO": "SIN REFERENCIA CATASTRAL", "MUNICIPIO": "FUNZA", "FMI": "50C-777298", "ZI_BIC": "CERRITO", "FOLIO_DE_M": "50C-777298", "PROPIETA_1": "INSTITUTO NACIONAL DE VIAS", "TIPO": "CORREDOR FERREO", "RefName": "SECTOR-03", "obs": " ", "Id": 3 }, "geometry": { "type": "Polygon", "coordinates": [ [ [ -74.180538061606327, 4.699697280775427 ], [ -74.180914838490921, 4.699659113329868 ], [ -74.181177457370964, 4.699635862517421 ], [ -74.181152980974431, 4.699712218648153 ], [ -74.181278403754405, 4.699685251467911 ], [ -74.181422763918846, 4.69967462610676 ], [ -74.181452050793737, 4.699627890810101 ], [ -74.182774055216342, 4.699536859498084 ], [ -74.182776543959775, 4.699380137977443 ], [ -74.182703662699325, 4.699378755214384 ], [ -74.182660345038002, 4.699379638870909 ], [ -74.182655608221538, 4.69937973466755 ], [ -74.182594983617932, 4.699384251432794 ], [ -74.182443252776565, 4.699390461201563 ], [ -74.182427505309633, 4.699391391413441 ], [ -74.182427425359549, 4.699391395889918 ], [ -74.182264862632493, 4.699401000618686 ], [ -74.182256317857508, 4.699401505565298 ], [ -74.182319909596472, 4.699410958989017 ], [ -74.182459290399336, 4.699435949367751 ], [ -74.182491917210456, 4.699441643446002 ], [ -74.182490019070258, 4.699468705536939 ], [ -74.182450162617712, 4.699469105733923 ], [ -74.182034862478716, 4.699473272438129 ], [ -74.181893978794406, 4.699476946729942 ], [ -74.181685140253791, 4.699500685483581 ], [ -74.181661676258557, 4.699530514929748 ], [ -74.181535494402183, 4.699541015847046 ], [ -74.181509574412956, 4.699536091723516 ], [ -74.181324913129899, 4.699501010475749 ], [ -74.180540313025759, 4.699581337384107 ], [ -74.180538061606327, 4.699697280775427 ] ] ] } },
{ "type": "Feature", "id": 65, "properties": { "FID": 65, "Layer": " ", "CODIGO": "SIN REFERENCIA CATASTRAL", "MUNICIPIO": "BOGOTA D.C.", "FMI": " ", "ZI_BIC": "FONTIBON", "FOLIO_DE_M": "SIN FOLIO", "PROPIETA_1": "BOGOTA D.C.", "TIPO": "ESPACIO PUBLICO", "RefName": "H13", "obs": " ", "Id": 5 }, "geometry": { "type": "Polygon", "coordinates": [ [ [ -74.141222919227275, 4.676987615035556 ], [ -74.141222887909763, 4.676987582852997 ], [ -74.141046738828095, 4.676807109709761 ], [ -74.140930166970449, 4.676687673611325 ], [ -74.140827753946198, 4.676680052774187 ], [ -74.140767966815147, 4.676632775158424 ], [ -74.140732380513583, 4.676683242255678 ], [ -74.140782187711636, 4.676714966913153 ], [ -74.140735638790233, 4.676750635137551 ], [ -74.140763821748521, 4.67678595824972 ], [ -74.140718844705759, 4.676819658622463 ], [ -74.140794684972406, 4.676920901877347 ], [ -74.140840202333976, 4.676882310656194 ], [ -74.14088247820608, 4.676938828324362 ], [ -74.140958924278507, 4.676876157853701 ], [ -74.140988727693852, 4.676848438073734 ], [ -74.140995547872123, 4.676843579546016 ], [ -74.141072695881874, 4.67692576694278 ], [ -74.141101151426838, 4.676898834001706 ], [ -74.141101203317945, 4.676898888441626 ], [ -74.141168459540566, 4.67696100828457 ], [ -74.141208079971477, 4.677001564790258 ], [ -74.141222919227275, 4.676987615035556 ] ] ] } },
{ "type": "Feature", "id": 66, "properties": { "FID": 66, "Layer": " ", "CODIGO": "SIN REFERENCIA CATASTRAL", "MUNICIPIO": "BOGOTA D.C.", "FMI": " ", "ZI_BIC": "FONTIBON", "FOLIO_DE_M": "SIN FOLIO", "PROPIETA_1": "BOGOTA D.C.", "TIPO": "ESPACIO PUBLICO", "RefName": "H14", "obs": " ", "Id": 6 }, "geometry": { "type": "Polygon", "coordinates": [ [ [ -74.141128023693454, 4.676739222890788 ], [ -74.141274662236327, 4.676888876373415 ], [ -74.141319913708728, 4.676842454133925 ], [ -74.141202304031154, 4.676726159853594 ], [ -74.141214768024682, 4.676716376026647 ], [ -74.141186585734033, 4.676688661510288 ], [ -74.141198485268731, 4.676678340691338 ], [ -74.14125862682738, 4.676635753127099 ], [ -74.141234779037973, 4.676604234757204 ], [ -74.141271086542602, 4.676578686281542 ], [ -74.141206588207965, 4.676481953102128 ], [ -74.141167571625175, 4.676509673728783 ], [ -74.141147517027662, 4.676480328574824 ], [ -74.141109043300148, 4.67650696236695 ], [ -74.14101148595276, 4.676393927128983 ], [ -74.140977887919902, 4.676421647253873 ], [ -74.140957293262247, 4.676399909616956 ], [ -74.140894882112761, 4.676456392605202 ], [ -74.140980462755408, 4.676565925742628 ], [ -74.140986567739247, 4.676573281006783 ], [ -74.141101829581117, 4.676712492310366 ], [ -74.141128023693454, 4.676739222890788 ] ] ] } }
]
}
