{"type":"FeatureCollection","features":[{"type":"Feature","id":0,"geometry":{"type":"Polygon","coordinates":[[[-74.121183227638241,4.6574289160571301],[-74.121733608348023,4.6579803066099377],[-74.122396565238446,4.658687578726342],[-74.12323699875158,4.6595373183456914],[-74.124160225113357,4.6604897480963379],[-74.124398050645908,4.6610015710326262],[-74.124656602837362,4.661344446642441],[-74.124943713445631,4.6617164301619685],[-74.125483637120638,4.6615719052992937],[-74.126028427054095,4.6613747703864439],[-74.12613248607218,4.6612644013676201],[-74.126664871695624,4.6609380804873135],[-74.126250595878375,4.660509917967139],[-74.125727536657266,4.6608448671706935],[-74.125570053699562,4.6609430312360391],[-74.125280586942779,4.6610275416598865],[-74.124944372746768,4.6607798496177901],[-74.124502047114092,4.6600153669796534],[-74.12367881890323,4.6591672565414761],[-74.122816044071101,4.6582757542834745],[-74.122124077725005,4.6575705606261071],[-74.121614288665725,4.6570360734261698],[-74.121183227638241,4.6574289160571301]]]},"properties":{"FID":0,"OBJECTID":10359,"CODIGO_ID":"8577","COMPONENTE":"Áreas de especial importancia ecosistémica","CATEGORIA":"Sistema Hídrico","ELEMENTO":"Cuerpos de agua naturales","AREA_AMBIE":"Canal San Francisco","NOMBRE_TOT":"Canal San Francisco","ACTO_ADMIN":"Dec. 190 de 2004 (Anexo 2)","NORMATIVA":"Hacen parte del Decreto 555 del 29 de diciembre de 2021 - Por el cual se adopta la revisión general del Plan de Ordenamiento Territorial de Bogotá","OBSERVACIO":" ","ESCALA_CAP":" ","FECHA_CAPT":1624665600000,"RESPONSABL":"544","REGLAID":1,"SHAPE_Leng":12404.4132634,"SHAPE_Area":391593.65860000002}},{"type":"Feature","id":1,"geometry":{"type":"Polygon","coordinates":[[[-74.169197749576881,4.6986749041231013],[-74.16916855625152,4.6987208154654336],[-74.169029733962105,4.6989588428879712],[-74.168977666546951,4.699057461729665],[-74.168928606406368,4.6991597127758293],[-74.16888221958709,4.6992689537641192],[-74.168840748782216,4.6993867144893811],[-74.168820170399329,4.6994609391180413],[-74.168803794494465,4.6995321482347894],[-74.168781363230707,4.6996429351564251],[-74.168768066205871,4.6997277238528063],[-74.168758162684668,4.699812664932467],[-74.168750499654593,4.6998960702045522],[-74.168732104861434,4.7001343729771179],[-74.168714813908394,4.7003359182221143],[-74.168710901951798,4.700424465797763],[-74.168709566730627,4.7005118347234243],[-74.168710856223115,4.7005996174782112],[-74.168715248172205,4.7006881169423513],[-74.168723732304571,4.7007778692406132],[-74.168737919231958,4.7008684192952543],[-74.168765493313586,4.7009847991354023],[-74.168789795144349,4.7010631207239362],[-74.168821953725413,4.7011405505389856],[-74.168848495177642,4.7011897558481559],[-74.168875732599005,4.701233127378269],[-74.168905197692254,4.7012733498168835],[-74.168936475028318,4.7013110553290431],[-74.168969875554964,4.70134616881613],[-74.169005221779457,4.7013792166081423],[-74.169044099218993,4.7014108405545771],[-74.16911066646955,4.7014574343794768],[-74.169151295135919,4.7014817015493957],[-74.169195912099454,4.7015053858181712],[-74.169275050155392,4.7015380670129661],[-74.169324065459094,4.7015537810336356],[-74.169374776617659,4.7015661036747689],[-74.169471380076558,4.7015810508860421],[-74.169526935076121,4.70158731492198],[-74.169554567460438,4.7015904302277267],[-74.169569619840701,4.7015921274323516],[-74.169647441896103,4.701596682992383],[-74.169727062447308,4.7015970305637769],[-74.169807119634086,4.7015935193889957],[-74.169886382246418,4.7015861776646428],[-74.170090513776742,4.7015584335500566],[-74.170519311926412,4.7014841825465918],[-74.170756857304127,4.7014491043658229],[-74.171128343444963,4.7013874721272391],[-74.171408361561518,4.7013426748528904],[-74.171719578993617,4.7012974409898662],[-74.172035683119404,4.7012570054842611],[-74.172337407441816,4.7012298642053203],[-74.172520415318118,4.7012090827098918],[-74.172796665575746,4.7011831248269695],[-74.172978061723981,4.7011613975269206],[-74.173386401931253,4.7011203917139044],[-74.173540421148871,4.7011117189963816],[-74.173701272171755,4.701107855311875],[-74.173865091768477,4.7011077015522398],[-74.173943491995928,4.7011090290806239],[-74.17410047776589,4.7011156259603553],[-74.174170516073644,4.70112118225844],[-74.17423828337283,4.701129147034897],[-74.17433557095714,4.701144014801347],[-74.174457074427693,4.7011650682635819],[-74.174532951133457,4.7011807664221843],[-74.174568108051432,4.7011880391914307],[-74.174849125306778,4.700369471011312],[-74.17479248602919,4.7003542413885286],[-74.174648041447526,4.7003214930616899],[-74.174581892326202,4.7003086412218824],[-74.174532830361002,4.7003011088449487],[-74.174393056223224,4.7002796455685578],[-74.174355711734719,4.7002739111213536],[-74.174267543640099,4.7002638602375679],[-74.174178478263343,4.700256967307916],[-74.174088913869056,4.7002523623332388],[-74.173913576704265,4.700247869595632],[-74.17373702870691,4.7002473631673345],[-74.173560543363507,4.7002502396990611],[-74.173385701748373,4.7002576176014292],[-74.173296132566335,4.7002641336959394],[-74.173210379013568,4.7002730131141401],[-74.173005282333449,4.7002982207799411],[-74.172921200101285,4.7003091038785545],[-74.172836960430132,4.7003221627518288],[-74.172519842293525,4.7003789178797586],[-74.172437943323516,4.7003918027589719],[-74.172400757014969,4.7003959857230591],[-74.172363947241024,4.7003985499239107],[-74.172214225784458,4.7004013302327898],[-74.172066851893078,4.7004079399322753],[-74.171709209938328,4.7004436280223976],[-74.171508326931502,4.7004695074845877],[-74.171345439249407,4.7004884312681039],[-74.171145419874904,4.7005157411240566],[-74.170982717931366,4.7005353231339191],[-74.170782245235685,4.7005631972347199],[-74.170618999794598,4.7005829637114731],[-74.170431394083749,4.7006085119227148],[-74.170155448206046,4.7006383573465351],[-74.169968857828906,4.7006606724001596],[-74.169895358218213,4.7006666496725487],[-74.169821099451696,4.7006708166145019],[-74.169750181635564,4.7006729863957517],[-74.169675020931606,4.7006725107277179],[-74.169633824140405,4.7006663985362742],[-74.169619109425625,4.7006277051708194],[-74.16961029444191,4.7005726367324332],[-74.169603908627508,4.7005045676505652],[-74.169600032844471,4.7004284064947637],[-74.169598303390941,4.7003474603649789],[-74.169598371039754,4.7002654442019898],[-74.169603399864414,4.7000963263085414],[-74.169608337862186,4.7000180524294448],[-74.169615382749598,4.6999435474247777],[-74.169625035858417,4.6998743033353305],[-74.169642710110139,4.699779569378352],[-74.16965436419467,4.6997243571609335],[-74.169666802303212,4.6996750445408413],[-74.169690159184853,4.6995993002853975],[-74.169704079471174,4.6995599321364505],[-74.169725892618629,4.6995065995331569],[-74.169750182687139,4.6994539195112832],[-74.169775927713445,4.6994029466282257],[-74.16980444702466,4.6993520773722146],[-74.169851915411613,4.69927113286378],[-74.16988234752904,4.6992218431761819],[-74.169931136483129,4.6991488473490843],[-74.169966223738868,4.6991010256774803],[-74.169197749576881,4.6986749041231013]]]},"properties":{"FID":1,"OBJECTID":3199,"CODIGO_ID":" ","COMPONENTE":" ","CATEGORIA":" ","ELEMENTO":" ","AREA_AMBIE":"Rio Bogota","NOMBRE_TOT":" ","ACTO_ADMIN":" ","NORMATIVA":" ","OBSERVACIO":" ","ESCALA_CAP":" ","FECHA_CAPT":-2209161600000,"RESPONSABL":" ","REGLAID":0,"SHAPE_Leng":189040.70984900001,"SHAPE_Area":9240053.7692200001}},{"type":"Feature","id":2,"geometry":{"type":"Polygon","coordinates":[[[-74.263488374494955,4.7349301600226843],[-74.264066586058902,4.7352657967971465],[-74.264089574799186,4.735241684854687],[-74.264108855289905,4.7352191064471771],[-74.264125555538712,4.7351945519292524],[-74.264139473714835,4.7351683016893373],[-74.264407193587303,4.7345891581976476],[-74.264495729413255,4.7344433098901844],[-74.263946731764491,4.7340912712085803],[-74.263841384847737,4.7342731583856308],[-74.263837328838562,4.7342804011351838],[-74.263831301879918,4.7342922717332785],[-74.263567785558152,4.7348442848049634],[-74.263488374494955,4.7349301600226843]]]},"properties":{"FID":2,"OBJECTID":3215,"CODIGO_ID":" ","COMPONENTE":" ","CATEGORIA":" ","ELEMENTO":" ","AREA_AMBIE":"Rio Subachoque","NOMBRE_TOT":" ","ACTO_ADMIN":" ","NORMATIVA":" ","OBSERVACIO":" ","ESCALA_CAP":" ","FECHA_CAPT":-2209161600000,"RESPONSABL":" ","REGLAID":0,"SHAPE_Leng":58303.051101500001,"SHAPE_Area":2839700.4939000001}},{"type":"Feature","id":3,"geometry":{"type":"Polygon","coordinates":[[[-74.319082629188529,4.7762786251668032],[-74.319160552326508,4.7762262191527514],[-74.319246330887808,4.7761791717339737],[-74.319251247513137,4.7761774518340534],[-74.31932394506596,4.7761520217508275],[-74.319331780120038,4.7761492807726809],[-74.319406330110581,4.776141952275692],[-74.319465010079398,4.7761586828050495],[-74.319510179803515,4.7761939390337034],[-74.319541201594532,4.7762466125192038],[-74.319562843068837,4.776311629370726],[-74.319579818583478,4.7763682776810876],[-74.319624706637796,4.7764151081168578],[-74.319702805632318,4.7764414688782058],[-74.319781433269171,4.7764484412841073],[-74.319894431453108,4.776446340464787],[-74.319994387785258,4.7764361136902025],[-74.31999677880934,4.7764357960032386],[-74.319214676127999,4.7756517445833975],[-74.319179837764921,4.775643213803014],[-74.319120994758151,4.7756524357679933],[-74.319068522362144,4.7756986006021371],[-74.319022931409151,4.7757526096083751],[-74.31898110038297,4.7758198679751205],[-74.318934425407804,4.7759033638206958],[-74.3188771398722,4.775999815665342],[-74.318853314306253,4.7760282135679164],[-74.319082629188529,4.7762786251668032]]]},"properties":{"FID":3,"OBJECTID":3200,"CODIGO_ID":" ","COMPONENTE":" ","CATEGORIA":" ","ELEMENTO":" ","AREA_AMBIE":"Rio Bojaca","NOMBRE_TOT":" ","ACTO_ADMIN":" ","NORMATIVA":" ","OBSERVACIO":" ","ESCALA_CAP":" ","FECHA_CAPT":-2209161600000,"RESPONSABL":" ","REGLAID":0,"SHAPE_Leng":8403.4601742399991,"SHAPE_Area":356129.06512300001}},{"type":"Feature","id":4,"geometry":{"type":"Polygon","coordinates":[[[-74.348584554779833,4.8035002560498246],[-74.34913296652077,4.8039694146768914],[-74.349138465032567,4.8039661344086362],[-74.349168496377686,4.8039443949341667],[-74.349168522510467,4.8039443714120731],[-74.349190465831256,4.803924390396312],[-74.349190492863329,4.803924361448078],[-74.349210389981081,4.8039023348257386],[-74.349210409802609,4.8039023085932655],[-74.349232869601664,4.8038708156862926],[-74.349250162423147,4.803839676608515],[-74.34926064551307,4.8038149345185506],[-74.34926065811834,4.8038148965331251],[-74.349270873900053,4.8037821171694226],[-74.349281983721141,4.8037374531953505],[-74.349283288727392,4.8037321571197511],[-74.349283313027499,4.8037320585418275],[-74.349291320329172,4.803699470864311],[-74.349337265974754,4.8037144249776569],[-74.34937505644713,4.8037231788701833],[-74.34941263485112,4.8037268054886102],[-74.349461114940709,4.8037247261738543],[-74.349550417894307,4.8037084313231029],[-74.349589259492475,4.8036968019599486],[-74.349589285630216,4.803696791097944],[-74.349613916296818,4.8036862643130354],[-74.349644942744021,4.8036688921700534],[-74.349675541056214,4.8036471135637839],[-74.349676185411369,4.8036466548287651],[-74.349677644371738,4.8036454244044418],[-74.349701532019225,4.8036252490782836],[-74.349701571667268,4.8036252092734593],[-74.3497298362078,4.8035968320465594],[-74.349729856030379,4.8035968085269491],[-74.349752254316599,4.8035694066626613],[-74.34975227233484,4.8035693795265964],[-74.349770913206044,4.8035392807433137],[-74.349770929418895,4.8035392472778886],[-74.349784047445013,4.8035101693811511],[-74.349262991951576,4.8029899904056164],[-74.349258213073384,4.803005816906385],[-74.34925122027704,4.8030325072672913],[-74.349242413531798,4.8030312863592135],[-74.349220753211469,4.8030282827784783],[-74.34917831228519,4.8030265760950952],[-74.349147110207312,4.8030283482805904],[-74.349147023669943,4.8030283528365771],[-74.349100312767121,4.8030316847758625],[-74.349057251685522,4.8030392003395992],[-74.349026841965767,4.8030477716038842],[-74.349015687769125,4.8030509157584858],[-74.349012501531163,4.8030518936661073],[-74.348984587922658,4.8030604603178189],[-74.348975084191835,4.8030633813581458],[-74.348973492424591,4.8030638694070262],[-74.34893530993584,4.8030780992261928],[-74.348906081720585,4.8030927703941408],[-74.348878818208476,4.8031108481656668],[-74.348847614235765,4.8031352060289914],[-74.348819812879341,4.8031609470144012],[-74.348797393843228,4.803188374178287],[-74.348778735819309,4.8032184991685067],[-74.348764156818106,4.8032508118362154],[-74.348755913138987,4.8032761100750809],[-74.34875046334993,4.803302159576921],[-74.348746896414028,4.8033411985383712],[-74.348711495709551,4.8034898571322771],[-74.348711477709827,4.8034899312916846],[-74.348584554779833,4.8035002560498246]]]},"properties":{"FID":4,"OBJECTID":3201,"CODIGO_ID":" ","COMPONENTE":" ","CATEGORIA":" ","ELEMENTO":" ","AREA_AMBIE":"Rio Botello","NOMBRE_TOT":" ","ACTO_ADMIN":" ","NORMATIVA":" ","OBSERVACIO":" ","ESCALA_CAP":" ","FECHA_CAPT":-2209161600000,"RESPONSABL":" ","REGLAID":0,"SHAPE_Leng":8473.4054927800007,"SHAPE_Area":340677.63669700001}},{"type":"Feature","id":5,"geometry":{"type":"Polygon","coordinates":[[[-74.216279082368004,4.7014627149104617],[-74.216361462302132,4.7014530272968011],[-74.216415260483743,4.7014433522567591],[-74.216468768112591,4.7014320395726799],[-74.216682616092257,4.7013799803137024],[-74.21673142920659,4.7013666320507328],[-74.216761045860565,4.701357629193506],[-74.216782614809745,4.701381541058316],[-74.216811103315749,4.7014104080391546],[-74.216870611635073,4.7014655144823276],[-74.216901568344412,4.7014916978901145],[-74.216933110778825,4.7015171839595036],[-74.217228022840885,4.7017446943378758],[-74.217276379583254,4.701779513071461],[-74.217325828410054,4.7018126920759551],[-74.217442582226099,4.7018789804731682],[-74.217510114116678,4.701910916028373],[-74.217578964993038,4.7019400425378892],[-74.217925701277338,4.7020700119044987],[-74.217950360619071,4.702078848330987],[-74.217975142469285,4.7020873230095832],[-74.218000048630728,4.7020954368442185],[-74.218059338825668,4.7021138012816852],[-74.218110424106968,4.7021584067056486],[-74.21813539205381,4.7021779590861597],[-74.218160700615087,4.7021970719044184],[-74.218311395510241,4.7023067626854251],[-74.218349457475114,4.7023330015606062],[-74.218388143859329,4.7023582320064259],[-74.218467962020455,4.7024046383939098],[-74.218509016273742,4.7024257682314357],[-74.21858766954594,4.7024612734349827],[-74.218714806557159,4.7026065931142984],[-74.21878533194743,4.7027014965495555],[-74.21885254271983,4.7028522487608946],[-74.218874807628296,4.702898601665412],[-74.218898370316495,4.7029442896408913],[-74.218950609261697,4.7030328376909987],[-74.218979194454036,4.7030755440517833],[-74.219041120468503,4.7031575655609466],[-74.219074355806569,4.7031967369457703],[-74.219145169200374,4.7032711686092394],[-74.219182623747983,4.7033062986926177],[-74.219223180807276,4.7033421154148112],[-74.21946782512525,4.7035454321785144],[-74.219681468088467,4.703747169028528],[-74.219733250457281,4.7037924605503587],[-74.219786678242784,4.7038357070968315],[-74.219841751444946,4.7038769095719086],[-74.219961991062547,4.7039599074766913],[-74.220144215556047,4.7041472305436898],[-74.220176461591961,4.704178763404645],[-74.220213203068582,4.7042128129295362],[-74.220232562562472,4.7042475279670617],[-74.220260408391596,4.7042926859939529],[-74.220322069061183,4.7043805483428978],[-74.220355057143337,4.7044220736194706],[-74.220426672292902,4.704501977835192],[-74.220464336522568,4.7045392844649605],[-74.220502250947462,4.7045747372146876],[-74.220589284518113,4.7046514659416276],[-74.220638737173786,4.7046928214277095],[-74.220710194666893,4.7047639819135778],[-74.22074291076504,4.7047931390386735],[-74.220777386271749,4.7048223500584321],[-74.220906784395893,4.7049265274541527],[-74.221074295971547,4.7050736840348382],[-74.221105536020204,4.7050999015487678],[-74.221137351873111,4.7051253982108632],[-74.221169740825843,4.7051501722130675],[-74.221359599214068,4.7052887042685958],[-74.221400952661583,4.7053171478874862],[-74.221443064790918,4.7053444166540057],[-74.221530177740249,4.7053941707095577],[-74.221575046048486,4.7054165791596585],[-74.222082656919341,4.7050968001185955],[-74.222143095464617,4.7052054389680018],[-74.222286917277998,4.7054639572506929],[-74.222976643717473,4.705020276044789],[-74.223089358379042,4.7051061180981737],[-74.223154464565411,4.7051646474084183],[-74.22319059143301,4.7051939031745231],[-74.223506369689943,4.7054237051395376],[-74.223810663459957,4.7056451517763707],[-74.223923007924171,4.7057269126343968],[-74.223962365360862,4.7057525278492109],[-74.223977839989828,4.7057596577545002],[-74.2240206554644,4.7057878106235602],[-74.224073007144938,4.7057993313054025],[-74.224204661267237,4.7058442538818692],[-74.224271478692657,4.7058614378774859],[-74.224339497208447,4.7058681759815286],[-74.22448207124512,4.705871396870366],[-74.224515589820541,4.705870903275982],[-74.224703525989312,4.7058611106262997],[-74.224758503125727,4.7058548330664758],[-74.224812780287792,4.7058416955898528],[-74.22493066664866,4.7058052750542236],[-74.224961794939162,4.7057921578415938],[-74.224986567949045,4.7057876102675431],[-74.225165354335246,4.7057547931047283],[-74.225208406573756,4.7057428914511572],[-74.225295570449177,4.7057420672150112],[-74.225295621824827,4.7057420662997993],[-74.225320397725838,4.7057640627888642],[-74.225355135764659,4.7057890594550056],[-74.225398093857095,4.7058136673302231],[-74.225443480910315,4.7058334013848953],[-74.225557845266721,4.7058758106949163],[-74.225681138917054,4.7059215323640258],[-74.225725109611915,4.705935197003793],[-74.225764276797506,4.7059430877699286],[-74.225792674273762,4.7059523427119858],[-74.225803878585552,4.7059559946229532],[-74.225815447757697,4.7059545443652064],[-74.225866026382235,4.7059482034495392],[-74.225975499754597,4.7059419033248577],[-74.226026241625888,4.7059360751039092],[-74.22608174357859,4.7059224805933573],[-74.226107572940762,4.7059179182851745],[-74.226110959937245,4.7059212083292135],[-74.226153440282843,4.7059624572853043],[-74.226230796697251,4.7060375695437386],[-74.226527439907798,4.7063256060139667],[-74.226807780311603,4.7065978105552011],[-74.2268574386936,4.706570243910166],[-74.226902859538981,4.7065451487333432],[-74.226990670744755,4.7064897990559684],[-74.227032917812636,4.7064596359214415],[-74.227113811902342,4.7063945329740404],[-74.227152324648642,4.7063597008027491],[-74.227189839380117,4.7063237565485183],[-74.22739038344119,4.7061202139589851],[-74.227427297038687,4.706080424715954],[-74.227462985493446,4.7060395596116864],[-74.227529338385807,4.7059536733894758],[-74.226823142499299,4.7054045972134446],[-74.22681561424676,4.7053987434511555],[-74.226847728767282,4.7053571041544888],[-74.22687612121976,4.7053005554689546],[-74.226885934984566,4.7051994827750638],[-74.226885830566317,4.7051451503252189],[-74.226879231254586,4.7050912216846692],[-74.226866233659379,4.7050384772479896],[-74.22684702271664,4.7049876774958816],[-74.22682187709465,4.7049395566639394],[-74.226805178106147,4.704918110122617],[-74.226785662933011,4.7048903973487786],[-74.226755316459759,4.7048540806223587],[-74.22671485982363,4.7048179613911563],[-74.226709446431855,4.7048136833783953],[-74.226651151284699,4.7047676215113183],[-74.226561351207422,4.7046966681452709],[-74.226809614179558,4.7043625699864986],[-74.227093842195472,4.7039800701182406],[-74.227092987582623,4.7039793486661523],[-74.226891451352429,4.7038092477810123],[-74.226891424307794,4.7038092251791994],[-74.226821902313247,4.70375054524541],[-74.226778012437322,4.7037179779581031],[-74.226733181869363,4.703686772753314],[-74.226639917519563,4.703629923679971],[-74.226591655011774,4.7036043846737048],[-74.226492227194939,4.7035592612182997],[-74.226441243069516,4.7035397590218508],[-74.226337108465032,4.7035070219167849],[-74.226284148177484,4.7034938448427583],[-74.226176832826837,4.7034739739455249],[-74.226122675161108,4.7034673162522234],[-74.226068314145067,4.7034623044338817],[-74.22557789734843,4.7034320775663803],[-74.225508862548708,4.7034304816724637],[-74.225439867065973,4.70343153899546],[-74.225370913603726,4.7034352504390489],[-74.225066029372996,4.7034636053943313],[-74.225028088903997,4.70346791792588],[-74.224677724616342,4.7035137200662973],[-74.224339755209613,4.7033007243753344],[-74.22429955551857,4.7032768248211578],[-74.224258766584498,4.7032539870433894],[-74.224174937207636,4.7032126128313712],[-74.224150218064864,4.7031985045407314],[-74.224115226414796,4.7031581346674622],[-74.224050013130793,4.7030912017520263],[-74.224015723628625,4.70305947326879],[-74.223943961908731,4.702999662221524],[-74.223906587050749,4.7029716592156099],[-74.223868490435976,4.7029446284876082],[-74.223451917409065,4.7026649979239652],[-74.223396017148502,4.7026303638807532],[-74.22333893208372,4.7025978190266855],[-74.223280664016855,4.7025673624567954],[-74.22308946385391,4.7024761507798907],[-74.222947374272437,4.7023544157189043],[-74.222923282209308,4.702304102474625],[-74.22287325801021,4.7022142168041228],[-74.222845736935639,4.7021707751858255],[-74.222825892112454,4.7021430732119631],[-74.222801868436903,4.702109535720945],[-74.222785851752803,4.7020871755846452],[-74.222753587720234,4.7020471541306463],[-74.222728602662016,4.7020195382301377],[-74.222684623230123,4.7019709255988378],[-74.222648034562667,4.7019348423871241],[-74.222585579364988,4.7018799034589902],[-74.222570879677292,4.7018669722372488],[-74.222530044826712,4.7018350035891325],[-74.222529647281632,4.7018347106768603],[-74.222489101278967,4.7018047739407294],[-74.222239131499165,4.7016310039107694],[-74.222045917636422,4.7014716402632635],[-74.222042310986183,4.7014126034196346],[-74.222032822471178,4.7013150742188126],[-74.222016339874216,4.7012184869459555],[-74.221992949829229,4.7011233461850415],[-74.221962773218266,4.7010301474697913],[-74.221925967876075,4.7009393790915235],[-74.221882726785324,4.700851513056687],[-74.221833274472175,4.7007670096091605],[-74.221818757001117,4.7007458600026188],[-74.221792246372729,4.7007064965462657],[-74.221787125472247,4.7006997858501256],[-74.22175455817127,4.7006571120788907],[-74.221727378636729,4.7006214962008297],[-74.22169249448649,4.7005809968566412],[-74.221678506956422,4.7005683964427805],[-74.221650390219523,4.7005379796084759],[-74.221578980830941,4.7004711254938014],[-74.221542961559066,4.7004419871681069],[-74.221510681247992,4.7004141520766192],[-74.221451735647506,4.7003705306020107],[-74.22140775566659,4.7003402707655315],[-74.221378430867802,4.7003215305636612],[-74.221272056333888,4.7002539258248621],[-74.221133789502389,4.7000767800521581],[-74.221055770947885,4.6999885874364464],[-74.220997340711435,4.6999304914978683],[-74.220930717978334,4.6998705262314182],[-74.220749790597552,4.6997232719349595],[-74.220712506919753,4.6996945127274605],[-74.220674597944438,4.6996668189183861],[-74.22063597081997,4.699640115469375],[-74.219902028290662,4.6991605044687237],[-74.219877652520395,4.6991451253981458],[-74.219853036178179,4.6991301406531472],[-74.219828181066859,4.6991155511375764],[-74.219697167006274,4.6990414365573274],[-74.219647781025259,4.6990154840105784],[-74.219636462010797,4.6990099763834143],[-74.219597640956792,4.6989910888284481],[-74.219494547279396,4.698948611080314],[-74.21948411826618,4.6989450529526184],[-74.21944179107561,4.6989306098613017],[-74.219338479470807,4.6989023749499594],[-74.219316801391003,4.6988513819397495],[-74.219294704527314,4.6988064704702817],[-74.219269925511,4.6987624376262787],[-74.219255880583347,4.6987374789294902],[-74.219245617156631,4.6987192411684591],[-74.219218702388247,4.6986770580619428],[-74.219215764156118,4.6986729702927112],[-74.21918593014837,4.6986314660074937],[-74.219185867037964,4.6986313773983808],[-74.219160301087584,4.6985958108206862],[-74.219128902009118,4.6985568723662841],[-74.21909642693285,4.6985188076882629],[-74.218904923696357,4.6983065309231913],[-74.218861883858608,4.6982619935461054],[-74.218817374280277,4.6982189874538394],[-74.218731223884163,4.6981456186830579],[-74.218690184172459,4.6981148932566636],[-74.218648274023479,4.6980853363670541],[-74.218429911705172,4.6979404664293885],[-74.218390901245201,4.6979159965621466],[-74.218351292514882,4.6978925423489617],[-74.218269791941381,4.6978497489680349],[-74.21822800646504,4.6978304667498847],[-74.218226989693889,4.6978300591131301],[-74.218142585074276,4.6977962306869028],[-74.218099058228034,4.6977813211308463],[-74.218010602986695,4.697755999405878],[-74.217965789065104,4.6977456188644808],[-74.217875221170502,4.6977294744435785],[-74.217829585274004,4.6977237313392433],[-74.217783803597655,4.6977191557201206],[-74.217054033449088,4.6976650673079652],[-74.216302563225312,4.6975107980110051],[-74.216264940762386,4.6975039047398459],[-74.216227188669109,4.6974978163247441],[-74.216151239868978,4.6974888634273597],[-74.216113110762436,4.6974860070703794],[-74.216036679236865,4.6974835453644852],[-74.215998444416883,4.6974839418107228],[-74.215960218770704,4.6974851530327095],[-74.215871850563644,4.6974892996336255],[-74.215869279990528,4.6974892576413279],[-74.215844208788255,4.6974888357830826],[-74.215775049705485,4.6974756556758512],[-74.215734641296592,4.6974689049042846],[-74.215694100576499,4.6974630792615999],[-74.215653426643513,4.6974581778436031],[-74.215588785435159,4.6974518794953406],[-74.215389652988065,4.6974324772242761],[-74.215338801627809,4.6974289758571883],[-74.215287855011113,4.6974269168731979],[-74.215185834927468,4.6974285937117868],[-74.215134983183475,4.6974323249691263],[-74.21503380449154,4.6974455604585756],[-74.214983698360328,4.697455034805154],[-74.214884660722845,4.6974796577763822],[-74.214835941015764,4.6974947539096998],[-74.214782174587882,4.6975132973433471],[-74.214642803002889,4.6975663514614805],[-74.214558690961567,4.6975897542557412],[-74.214281573640676,4.6976077473849989],[-74.214242820226914,4.6976111072476963],[-74.214204158009167,4.6976153044777513],[-74.214168791086806,4.6976198555478224],[-74.214004313907026,4.6976443483373513],[-74.213978499535258,4.6976275748961962],[-74.213911842856902,4.6975882298276002],[-74.213843628374136,4.6975518240515761],[-74.213773855185011,4.697518357567839],[-74.213041543239115,4.6972050813725872],[-74.212998602869675,4.6971880037580309],[-74.212955218364016,4.6971720267674941],[-74.212866870210703,4.6971445629643203],[-74.212822083231828,4.6971331312798927],[-74.212731394335833,4.6971148954526694],[-74.212685674492036,4.6971081292553283],[-74.212593601185588,4.6970993147390985],[-74.212547431595027,4.6970972844707397],[-74.212495009791738,4.6970965114906296],[-74.212256664569722,4.6970999505417392],[-74.212203720595312,4.6971022776019549],[-74.212150978813852,4.6971061573127368],[-74.212046126458986,4.6971201138103176],[-74.211994200650707,4.6971301670496866],[-74.211891701270858,4.6971563492890862],[-74.211841306151626,4.6971724357525639],[-74.211796704023399,4.6971896243504228],[-74.211742568433863,4.6972104862634287],[-74.211694397974284,4.6972323851679878],[-74.211600784607612,4.6972817782890868],[-74.211555503020207,4.6973091883745246],[-74.211468300955062,4.697369244727887],[-74.211426530977818,4.6974017878764487],[-74.21134694241438,4.6974716797948997],[-74.211309259904496,4.6975089082664319],[-74.211272667298473,4.6975472470148567],[-74.211110019691617,4.6977279865941712],[-74.211074716443946,4.6977404926767754],[-74.211022663097864,4.6977627105957787],[-74.210921537391073,4.6978136143536355],[-74.21089095717744,4.6978315028578148],[-74.210872667807905,4.6978422006805127],[-74.210778695494724,4.6979054142735794],[-74.210733780215492,4.6979399176145282],[-74.210648441972978,4.6980144442191101],[-74.210608187528933,4.6980543218578301],[-74.210532827002794,4.6981389883372744],[-74.210497869607238,4.698183610757801],[-74.210433675388288,4.6982770821343847],[-74.210404564715475,4.69832574749271],[-74.21035254690976,4.6984265513679739],[-74.210329741589504,4.6984784927272329],[-74.210290718296363,4.6985850378764855],[-74.216279082368004,4.7014627149104617]]]},"properties":{"FID":5,"OBJECTID":2945,"CODIGO_ID":" ","COMPONENTE":" ","CATEGORIA":" ","ELEMENTO":" ","AREA_AMBIE":"Humedal Guali","NOMBRE_TOT":" ","ACTO_ADMIN":" ","NORMATIVA":" ","OBSERVACIO":" ","ESCALA_CAP":" ","FECHA_CAPT":-2209161600000,"RESPONSABL":" ","REGLAID":0,"SHAPE_Leng":63594.671303199997,"SHAPE_Area":12080638.4473}}]}