{"type":"FeatureCollection","features":[{"type":"Feature","id":0,"geometry":{"type":"LineString","coordinates":[[-74.074094390393427,4.6147093565484614],[-74.075292722415369,4.6140166694175262]]},"properties":{"FID":0,"FID_":0,"Entity":"LWPolyline","Layer":"TUBERIA PE 3-4''","RefName":" "}},{"type":"Feature","id":1,"geometry":{"type":"LineString","coordinates":[[-74.074309052242612,4.6143550174639216],[-74.0753432982102,4.613757122580517]]},"properties":{"FID":1,"FID_":0,"Entity":"LWPolyline","Layer":"TUBERIA PE 3-4''","RefName":" "}},{"type":"Feature","id":2,"geometry":{"type":"LineString","coordinates":[[-74.075435635757088,4.6136839317747258],[-74.075447745743716,4.6136947345942012],[-74.07546480650177,4.6136953370896885],[-74.076224163174658,4.6132694431450174]]},"properties":{"FID":2,"FID_":0,"Entity":"LWPolyline","Layer":"TUBERIA PE 3-4''","RefName":" "}},{"type":"Feature","id":3,"geometry":{"type":"LineString","coordinates":[[-74.074309052242612,4.6143550174639216],[-74.074298539184767,4.6143586536767742],[-74.074283423701189,4.6143562536269123],[-74.074254572149826,4.614312407915496]]},"properties":{"FID":3,"FID_":0,"Entity":"LWPolyline","Layer":"TUBERIA PE 3-4''","RefName":" "}},{"type":"Feature","id":4,"geometry":{"type":"LineString","coordinates":[[-74.075710713438013,4.6137644576521639],[-74.075535720322208,4.613869938007098],[-74.075497020897984,4.6139092524863692]]},"properties":{"FID":4,"FID_":0,"Entity":"LWPolyline","Layer":"TUBERIA PE 3-4''","RefName":" "}},{"type":"Feature","id":5,"geometry":{"type":"LineString","coordinates":[[-74.075497020897984,4.6139092524863692],[-74.075482681362956,4.6139325231435775],[-74.075487426829071,4.613952357876733]]},"properties":{"FID":5,"FID_":0,"Entity":"LWPolyline","Layer":"TUBERIA PE 3-4''","RefName":" "}},{"type":"Feature","id":6,"geometry":{"type":"LineString","coordinates":[[-74.075319458041449,4.6140035979218315],[-74.075225771138804,4.6138302822891992]]},"properties":{"FID":6,"FID_":0,"Entity":"LWPolyline","Layer":"TUBERIA PE 3-4''","RefName":" "}},{"type":"Feature","id":7,"geometry":{"type":"LineString","coordinates":[[-74.075710569371509,4.6137655993319076],[-74.075711246608748,4.6137652498213564],[-74.075710347620685,4.6137634393961626],[-74.075709670383461,4.6137637889067227]]},"properties":{"FID":7,"FID_":0,"Entity":"LWPolyline","Layer":"TUBERIA PE 3-4''","RefName":" "}},{"type":"Feature","id":8,"geometry":{"type":"LineString","coordinates":[[-74.076362856858424,4.6131858764657361],[-74.07683481870265,4.6129165449768683]]},"properties":{"FID":8,"FID_":0,"Entity":"LWPolyline","Layer":"TUBERIA PE 3-4''","RefName":" "}},{"type":"Feature","id":9,"geometry":{"type":"LineString","coordinates":[[-74.07683481870265,4.6129165449768683],[-74.077198511659176,4.6127052540955091]]},"properties":{"FID":9,"FID_":0,"Entity":"LWPolyline","Layer":"TUBERIA PE 3-4''","RefName":" "}},{"type":"Feature","id":10,"geometry":{"type":"LineString","coordinates":[[-74.076837424869012,4.6131085026213263],[-74.076461274209862,4.6133267403345473]]},"properties":{"FID":10,"FID_":0,"Entity":"LWPolyline","Layer":"TUBERIA PE 3-4''","RefName":" "}},{"type":"Feature","id":11,"geometry":{"type":"LineString","coordinates":[[-74.077315143852331,4.6128243530715549],[-74.076996626321957,4.6130081690421791]]},"properties":{"FID":11,"FID_":0,"Entity":"LWPolyline","Layer":"TUBERIA PE 3-4''","RefName":" "}},{"type":"Feature","id":12,"geometry":{"type":"LineString","coordinates":[[-74.077358512118622,4.6128243607686557],[-74.077343867376555,4.6128198423768056],[-74.077315143852331,4.6128243530715549]]},"properties":{"FID":12,"FID_":0,"Entity":"LWPolyline","Layer":"TUBERIA PE 3-4''","RefName":" "}},{"type":"Feature","id":13,"geometry":{"type":"LineString","coordinates":[[-74.077358512118622,4.6128243607686557],[-74.077381571325503,4.6128452037667467]]},"properties":{"FID":13,"FID_":0,"Entity":"LWPolyline","Layer":"TUBERIA PE 3-4''","RefName":" "}},{"type":"Feature","id":14,"geometry":{"type":"LineString","coordinates":[[-74.076961968149192,4.6130842807197086],[-74.076968170336272,4.6130531878083918],[-74.076983630594526,4.6130254171516247],[-74.076996626321957,4.6130081690421791]]},"properties":{"FID":14,"FID_":0,"Entity":"LWPolyline","Layer":"TUBERIA PE 3-4''","RefName":" "}},{"type":"Feature","id":15,"geometry":{"type":"LineString","coordinates":[[-74.076332882221166,4.6134013899234461],[-74.076034213876639,4.6135737398413879]]},"properties":{"FID":15,"FID_":0,"Entity":"LWPolyline","Layer":"TUBERIA PE 3-4''","RefName":" "}},{"type":"Feature","id":16,"geometry":{"type":"LineString","coordinates":[[-74.075980851748483,4.6136313818523398],[-74.075984227725215,4.6136212065553535],[-74.075996656445142,4.6136018399801664],[-74.076009352407439,4.6135865309267743],[-74.076034213876639,4.6135737398413879]]},"properties":{"FID":16,"FID_":0,"Entity":"LWPolyline","Layer":"TUBERIA PE 3-4''","RefName":" "}},{"type":"Feature","id":17,"geometry":{"type":"LineString","coordinates":[[-74.077198511659176,4.6127052540955091],[-74.077236943453272,4.6126780445505098],[-74.077291892713049,4.612621577973183],[-74.077333741236529,4.6125798384164955],[-74.077372872188562,4.6125208694616004],[-74.07739054985646,4.6124942298400109],[-74.077390215338838,4.6124787445062276],[-74.077379677194472,4.6124622047547419],[-74.077363902350285,4.6124518914715251]]},"properties":{"FID":17,"FID_":0,"Entity":"LWPolyline","Layer":"TUBERIA PE 3-4''","RefName":" "}},{"type":"Feature","id":18,"geometry":{"type":"LineString","coordinates":[[-74.075435635757088,4.6136839317747258],[-74.075447745743716,4.6136947345942012],[-74.07546480650177,4.6136953370896885],[-74.076224163174658,4.6132694431450174]]},"properties":{"FID":18,"FID_":0,"Entity":"LWPolyline","Layer":"TUBERIA PE 3-4''","RefName":" "}},{"type":"Feature","id":19,"geometry":{"type":"LineString","coordinates":[[-74.075710713438013,4.6137644576521639],[-74.075535720322208,4.613869938007098],[-74.075497020897984,4.6139092524863692]]},"properties":{"FID":19,"FID_":0,"Entity":"LWPolyline","Layer":"TUBERIA PE 3-4''","RefName":" "}},{"type":"Feature","id":20,"geometry":{"type":"LineString","coordinates":[[-74.075497020897984,4.6139092524863692],[-74.075482681362956,4.6139325231435775],[-74.075487426829071,4.613952357876733]]},"properties":{"FID":20,"FID_":0,"Entity":"LWPolyline","Layer":"TUBERIA PE 3-4''","RefName":" "}},{"type":"Feature","id":21,"geometry":{"type":"LineString","coordinates":[[-74.078284772289095,4.6129908609741026],[-74.077788230840511,4.6125812943877076],[-74.077788230840511,4.6125812943877076]]},"properties":{"FID":21,"FID_":0,"Entity":"LWPolyline","Layer":"TUBERIA PE 3-4''","RefName":" "}},{"type":"Feature","id":22,"geometry":{"type":"LineString","coordinates":[[-74.078973395012426,4.6135568120243882],[-74.078747534794701,4.6133710453255681]]},"properties":{"FID":22,"FID_":0,"Entity":"LWPolyline","Layer":"TUBERIA PE 3-4''","RefName":" "}},{"type":"Feature","id":23,"geometry":{"type":"LineString","coordinates":[[-74.078520999793895,4.6131841909482931],[-74.078420272144768,4.6131004584310249],[-74.078420272144768,4.6131004584310249]]},"properties":{"FID":23,"FID_":0,"Entity":"LWPolyline","Layer":"TUBERIA PE 3-4''","RefName":" "}},{"type":"Feature","id":24,"geometry":{"type":"LineString","coordinates":[[-74.07901770454751,4.6135556094017467],[-74.07900282098295,4.6135631215424384],[-74.078973395012412,4.6135568120243819]]},"properties":{"FID":24,"FID_":0,"Entity":"LWPolyline","Layer":"TUBERIA PE 3-4''","RefName":" "}},{"type":"Feature","id":25,"geometry":{"type":"LineString","coordinates":[[-74.078420272144768,4.6131004584310249],[-74.078421350225383,4.6130859831591318]]},"properties":{"FID":25,"FID_":0,"Entity":"LWPolyline","Layer":"TUBERIA PE 3-4''","RefName":" "}},{"type":"Feature","id":26,"geometry":{"type":"LineString","coordinates":[[-74.07860197409336,4.613449774432409],[-74.078359852636467,4.613249891803922],[-74.078327833774537,4.6132343061832612],[-74.078297021695462,4.6132308944428813],[-74.07828145394015,4.6132351121548858]]},"properties":{"FID":26,"FID_":0,"Entity":"LWPolyline","Layer":"TUBERIA PE 3-4''","RefName":" "}},{"type":"Feature","id":27,"geometry":{"type":"LineString","coordinates":[[-74.077788230840511,4.6125812943877076],[-74.077763120102588,4.6125548346547749],[-74.077758096988333,4.6125358383313442],[-74.077762910645689,4.6125171209576719]]},"properties":{"FID":27,"FID_":0,"Entity":"LWPolyline","Layer":"TUBERIA PE 3-4''","RefName":" "}},{"type":"Feature","id":28,"geometry":{"type":"LineString","coordinates":[[-74.078284772289095,4.6129908609741026],[-74.078296843450019,4.6129991749059771],[-74.078331988433803,4.6129987814830073],[-74.078346973968024,4.612981547550107]]},"properties":{"FID":28,"FID_":0,"Entity":"LWPolyline","Layer":"TUBERIA PE 3-4''","RefName":" "}},{"type":"Feature","id":29,"geometry":{"type":"LineString","coordinates":[[-74.078748298628895,4.6133708586070226],[-74.078747907083496,4.6133705261291418],[-74.078747085074454,4.6133715008357301],[-74.078747473630955,4.6133718307756171]]},"properties":{"FID":29,"FID_":0,"Entity":"LWPolyline","Layer":"TUBERIA PE 3-4''","RefName":" "}},{"type":"Feature","id":30,"geometry":{"type":"LineString","coordinates":[[-74.078520208866237,4.6131843449296692],[-74.0785205952469,4.6131846834365371],[-74.078521432161637,4.6131837215867462],[-74.078521048730451,4.6131833856638904]]},"properties":{"FID":30,"FID_":0,"Entity":"LWPolyline","Layer":"TUBERIA PE 3-4''","RefName":" "}},{"type":"Feature","id":31,"geometry":{"type":"LineString","coordinates":[[-74.079207124210626,4.6139499159540618],[-74.079464286879997,4.6141602941356421]]},"properties":{"FID":31,"FID_":0,"Entity":"LWPolyline","Layer":"TUBERIA PE 3-4''","RefName":" "}},{"type":"Feature","id":32,"geometry":{"type":"LineString","coordinates":[[-74.079053234192145,4.6138215194242909],[-74.079207124210626,4.6139499159540618]]},"properties":{"FID":32,"FID_":0,"Entity":"LWPolyline","Layer":"TUBERIA PE 3-4''","RefName":" "}},{"type":"Feature","id":33,"geometry":{"type":"LineString","coordinates":[[-74.079464013808888,4.6141607803401472],[-74.079585172138167,4.614265389789673]]},"properties":{"FID":33,"FID_":0,"Entity":"LWPolyline","Layer":"TUBERIA PE 3-4''","RefName":" "}},{"type":"Feature","id":34,"geometry":{"type":"LineString","coordinates":[[-74.080216563336009,4.6147826004806829],[-74.080285061496767,4.6148397517469357],[-74.080296044614343,4.6148694916571813],[-74.080294890046687,4.6148714303562119]]},"properties":{"FID":34,"FID_":0,"Entity":"LWPolyline","Layer":"TUBERIA PE 3-4''","RefName":" "}},{"type":"Feature","id":35,"geometry":{"type":"LineString","coordinates":[[-74.079666737320153,4.6141300041538411],[-74.07915856893456,4.6137102807802561]]},"properties":{"FID":35,"FID_":0,"Entity":"LWPolyline","Layer":"TUBERIA PE 3-4''","RefName":" "}},{"type":"Feature","id":36,"geometry":{"type":"LineString","coordinates":[[-74.079666737320153,4.6141300041538411],[-74.079678467176336,4.6141382536728122],[-74.079702141963338,4.6141434509764183],[-74.079723095777624,4.61413896622342],[-74.079742813344495,4.6141193869414341]]},"properties":{"FID":36,"FID_":0,"Entity":"LWPolyline","Layer":"TUBERIA PE 3-4''","RefName":" "}},{"type":"Feature","id":37,"geometry":{"type":"LineString","coordinates":[[-74.07915856893456,4.6137102807802561],[-74.079118669075086,4.6136757351655797],[-74.07910712658294,4.6136515773909714],[-74.079117110356535,4.6136396399786719]]},"properties":{"FID":37,"FID_":0,"Entity":"LWPolyline","Layer":"TUBERIA PE 3-4''","RefName":" "}},{"type":"Feature","id":38,"geometry":{"type":"LineString","coordinates":[[-74.079048616609697,4.6138175711488225],[-74.079030306697774,4.6138096664155981],[-74.078990846417383,4.613806315131014],[-74.078983756113473,4.6138104795699144]]},"properties":{"FID":38,"FID_":0,"Entity":"LWPolyline","Layer":"TUBERIA DE 1''","RefName":" "}},{"type":"Feature","id":39,"geometry":{"type":"LineString","coordinates":[[-74.079025665619412,4.6135455790623086],[-74.07901770454751,4.6135556094017467]]},"properties":{"FID":39,"FID_":0,"Entity":"LWPolyline","Layer":"TUBERIA PE 3-4''","RefName":" "}},{"type":"Feature","id":40,"geometry":{"type":"LineString","coordinates":[[-74.080808854472309,4.614477777947835],[-74.080432256090873,4.6146478460849432],[-74.080392974648902,4.614654206613257],[-74.080339645576942,4.6146508941175686]]},"properties":{"FID":40,"FID_":0,"Entity":"LWPolyline","Layer":"TUBERIA PE 3-4''","RefName":" "}},{"type":"Feature","id":41,"geometry":{"type":"LineString","coordinates":[[-74.080595724418217,4.614750243745342],[-74.081060986531725,4.6145499275369275],[-74.081092704857468,4.6145463300645195],[-74.081114374604198,4.6145617083914674]]},"properties":{"FID":41,"FID_":0,"Entity":"LWPolyline","Layer":"TUBERIA PE 3-4''","RefName":" "}},{"type":"Feature","id":42,"geometry":{"type":"MultiLineString","coordinates":[[[-74.081269725608962,4.6143706875926931],[-74.081271889553591,4.6143764297540644]],[[-74.081271889553591,4.6143764297540644],[-74.081265133070175,4.6143757118312312],[-74.081269725608962,4.6143706875926931]],[[-74.08125837658676,4.6143749939083483],[-74.081260540531304,4.6143807360697551]],[[-74.081260540531304,4.6143807360697551],[-74.081265133070175,4.6143757118312312],[-74.08125837658676,4.6143749939083483]]]},"properties":{"FID":42,"FID_":0,"Entity":"Insert","Layer":"VALVULA TRONCAL","RefName":"VALVULA TRONCAL"}},{"type":"Feature","id":43,"geometry":{"type":"LineString","coordinates":[[-74.081250815017327,4.6143811447268597],[-74.081366070480257,4.6143374117515847],[-74.081499681141224,4.6146033818073757],[-74.081562990839529,4.6147225026022491],[-74.081607873854452,4.6148081124854823],[-74.081616243377482,4.6148242279605141],[-74.081650013491185,4.6148835933145804],[-74.081743486993176,4.6150503906130798],[-74.081868220098698,4.6152668434960784],[-74.082147126227795,4.6156786573396467]]},"properties":{"FID":43,"FID_":0,"Entity":"LWPolyline","Layer":"TUBERIA PE 3''","RefName":" "}},{"type":"Feature","id":44,"geometry":{"type":"MultiLineString","coordinates":[[[-74.081269725608962,4.6143706875926931],[-74.081271889553591,4.6143764297540644]],[[-74.081271889553591,4.6143764297540644],[-74.081265133070175,4.6143757118312312],[-74.081269725608962,4.6143706875926931]],[[-74.08125837658676,4.6143749939083483],[-74.081260540531304,4.6143807360697551]],[[-74.081260540531304,4.6143807360697551],[-74.081265133070175,4.6143757118312312],[-74.08125837658676,4.6143749939083483]]]},"properties":{"FID":44,"FID_":0,"Entity":"Insert","Layer":"VALVULA TRONCAL","RefName":"VALVULA TRONCAL"}},{"type":"Feature","id":45,"geometry":{"type":"LineString","coordinates":[[-74.093805206578807,4.6281800191997027],[-74.094356283621792,4.6287350428136342],[-74.094585755251799,4.6289778771044778],[-74.094799361913829,4.6292069241722293],[-74.094856261320885,4.6292679364764027]]},"properties":{"FID":45,"FID_":0,"Entity":"LWPolyline","Layer":"TUBERIA DE 1''","RefName":" "}},{"type":"Feature","id":46,"geometry":{"type":"LineString","coordinates":[[-74.094817156302952,4.6291813817400858],[-74.094792949295808,4.6292000480257638]]},"properties":{"FID":46,"FID_":0,"Entity":"LWPolyline","Layer":"TUBERIA DE 1''","RefName":" "}},{"type":"Feature","id":47,"geometry":{"type":"LineString","coordinates":[[-74.093987946748911,4.6283324748084613],[-74.093974044686462,4.6283500665902162]]},"properties":{"FID":47,"FID_":0,"Entity":"LWPolyline","Layer":"TUBERIA DE 1''","RefName":" "}},{"type":"Feature","id":48,"geometry":{"type":"LineString","coordinates":[[-74.094854849925369,4.6292679315591014],[-74.09485566938794,4.6292689507345282],[-74.094857408102428,4.6292675085434754],[-74.094856598425977,4.6292666275510763]]},"properties":{"FID":48,"FID_":0,"Entity":"LWPolyline","Layer":"TUBERIA DE 1''","RefName":" "}},{"type":"Feature","id":49,"geometry":{"type":"LineString","coordinates":[[-74.093806598435691,4.6281798327625516],[-74.093805687030411,4.6281788954857923],[-74.093804091285492,4.6281804954520274],[-74.093804979989031,4.628181296082964]]},"properties":{"FID":49,"FID_":0,"Entity":"LWPolyline","Layer":"TUBERIA DE 1''","RefName":" "}},{"type":"Feature","id":50,"geometry":{"type":"LineString","coordinates":[[-74.096087602637127,4.630775652499362],[-74.096016085767246,4.6306939879105009]]},"properties":{"FID":50,"FID_":0,"Entity":"LWPolyline","Layer":"TUBERIA PE 4''","RefName":" "}},{"type":"Feature","id":51,"geometry":{"type":"LineString","coordinates":[[-74.09625789650886,4.6309462724386563],[-74.096087602637127,4.630775652499362]]},"properties":{"FID":51,"FID_":0,"Entity":"LWPolyline","Layer":"TUBERIA PE 4''","RefName":" "}},{"type":"Feature","id":52,"geometry":{"type":"LineString","coordinates":[[-74.09625789650886,4.6309462724386563],[-74.096589733130713,4.6306099366517266],[-74.096511613710703,4.6305244544552329]]},"properties":{"FID":52,"FID_":0,"Entity":"LWPolyline","Layer":"TUBERIA PE 4''","RefName":" "}},{"type":"Feature","id":53,"geometry":{"type":"LineString","coordinates":[[-74.111801356470281,4.6462869099743109],[-74.111813186945554,4.6462987866026522],[-74.11193205582056,4.6464157686441254]]},"properties":{"FID":53,"FID_":0,"Entity":"LWPolyline","Layer":"TUBERIA DE 3'' DISEÑADA","RefName":" "}},{"type":"Feature","id":54,"geometry":{"type":"LineString","coordinates":[[-74.110781763817045,4.6452584104919872],[-74.110783932154717,4.6452566207606214],[-74.111442492668857,4.6459218140935237],[-74.111801356470281,4.6462869099743109]]},"properties":{"FID":54,"FID_":0,"Entity":"LWPolyline","Layer":"TUBERIA DE 3'' DISEÑADA","RefName":" "}},{"type":"Feature","id":55,"geometry":{"type":"LineString","coordinates":[[-74.11282487581235,4.6480508041235788],[-74.112631806541373,4.6482391760525026],[-74.112762831711336,4.6483852236592176]]},"properties":{"FID":55,"FID_":0,"Entity":"LWPolyline","Layer":"TUBERIA PE 1'' DISEÑADA","RefName":" "}},{"type":"Feature","id":56,"geometry":{"type":"LineString","coordinates":[[-74.11289377734353,4.6479835887547756],[-74.11282487581235,4.6480508041235788]]},"properties":{"FID":56,"FID_":0,"Entity":"LWPolyline","Layer":"TUBERIA PE 1'' DISEÑADA","RefName":" "}},{"type":"Feature","id":57,"geometry":{"type":"LineString","coordinates":[[-74.11282487581235,4.6480508041235788],[-74.112631806541373,4.6482391760525026],[-74.112762831711336,4.6483852236592176]]},"properties":{"FID":57,"FID_":0,"Entity":"LWPolyline","Layer":"TUBERIA PE 1'' DISEÑADA","RefName":" "}},{"type":"Feature","id":58,"geometry":{"type":"LineString","coordinates":[[-74.112802444770679,4.6473160888980374],[-74.113186085790787,4.6477032172172059]]},"properties":{"FID":58,"FID_":0,"Entity":"LWPolyline","Layer":"TUBERIA DE 3'' DISEÑADA","RefName":" "}},{"type":"Feature","id":59,"geometry":{"type":"LineString","coordinates":[[-74.11289377734353,4.6479835887547756],[-74.11282487581235,4.6480508041235788]]},"properties":{"FID":59,"FID_":0,"Entity":"LWPolyline","Layer":"TUBERIA PE 1'' DISEÑADA","RefName":" "}},{"type":"Feature","id":60,"geometry":{"type":"LineString","coordinates":[[-74.113186085790787,4.6477032172172059],[-74.11289377734353,4.6479835887547756]]},"properties":{"FID":60,"FID_":0,"Entity":"LWPolyline","Layer":"TUBERIA DE 3'' DISEÑADA","RefName":" "}},{"type":"Feature","id":61,"geometry":{"type":"MultiLineString","coordinates":[[[-74.112819916487496,4.6480507645824911],[-74.11281999247656,4.6480516355801011],[-74.112820218048171,4.6480524801052905],[-74.112820586348434,4.6480532724975703],[-74.112821086186742,4.6480539886804983],[-74.11282170237574,4.6480546068932425],[-74.11282241619287,4.6480551083516941],[-74.112823205949127,4.6480554778193079],[-74.112824047648218,4.648055704069991],[-74.112824915715478,4.6480557802292388],[-74.112825783775151,4.648055703982978],[-74.112826625451689,4.6480554776479215],[-74.112827415171168,4.6480551081011479],[-74.112828128938375,4.6480546065711472],[-74.112828745065812,4.6480539882966427],[-74.11282924483281,4.6480532720636081],[-74.112829613054174,4.6480524796344183],[-74.1128298385417,4.6480516350866345],[-74.112829914444049,4.6480507640814093],[-74.112829838454971,4.6480498930837939],[-74.11282961288336,4.6480490485586143],[-74.112829244583082,4.6480482561663381],[-74.112828744744789,4.6480475399834056],[-74.112828128555776,4.648046921770681],[-74.112827414738646,4.648046420312232],[-74.112826624982389,4.6480460508446217],[-74.112825783283327,4.6480458245939396],[-74.112824915216081,4.6480457484346926],[-74.112824047156408,4.6480458246809535],[-74.112823205479884,4.6480460510160011],[-74.112822415760405,4.6480464205627747],[-74.112821701993212,4.6480469220927692],[-74.112821085865761,4.6480475403672648],[-74.112820586098763,4.6480482566002932],[-74.112820217877385,4.6480490490294795],[-74.112819992389859,4.6480498935772614],[-74.112819916487496,4.6480507645824911]],[[-74.112821411029145,4.6480507645075946],[-74.112821464299799,4.6480513751035524],[-74.112821622432392,4.6480519671415355],[-74.112821880622135,4.6480525226327511],[-74.112822231024069,4.6480530246988874],[-74.11282266299142,4.6480534580849246],[-74.112823163399042,4.6480538096226294],[-74.112823717042332,4.648054068630727],[-74.112824307099118,4.6480542272393812],[-74.112824915640815,4.6480542806293395],[-74.112825524177197,4.6480542271783767],[-74.11282611421818,4.6480540685105884],[-74.112826667835691,4.6480538094469912],[-74.112827168208312,4.6480534578591275],[-74.112827600132505,4.6480530244297968],[-74.112827950484458,4.6480525223285385],[-74.112828208618893,4.6480519668114448],[-74.11282836669254,4.6480513747576202],[-74.112828419902414,4.6480507641563253],[-74.112828366631746,4.6480501535603604],[-74.112828208499138,4.6480495615223791],[-74.112827950309395,4.6480490060311661],[-74.112827599907462,4.6480485039650308],[-74.112827167940125,4.6480480705790015],[-74.112826667532488,4.6480477190412932],[-74.112826113889199,4.6480474600332027],[-74.112825523832413,4.6480473014245538],[-74.11282491529073,4.6480472480345929],[-74.112824306754348,4.6480473014855503],[-74.112823716713365,4.6480474601533475],[-74.112823163095868,4.6480477192169305],[-74.112822662723246,4.6480480708047986],[-74.112822230799054,4.6480485042341213],[-74.1128218804471,4.6480490063353761],[-74.112821622312666,4.6480495618524778],[-74.112821464239005,4.6480501539063006],[-74.112821411029145,4.6480507645075946]],[[-74.112823289766183,4.6480507644134414],[-74.112823314478291,4.6480510476674182],[-74.112823387835633,4.6480513223123916],[-74.112823507609221,4.6480515800034086],[-74.112823670159813,4.6480518129106638],[-74.112823870548411,4.6480520139573862],[-74.112824102686304,4.6480521770348728],[-74.112824359520076,4.6480522971880962],[-74.112824633245978,4.6480523707662584],[-74.11282491554698,4.6480523955337318],[-74.112825197845524,4.6480523707379611],[-74.112825471564094,4.6480522971323648],[-74.1128257283859,4.6480521769533913],[-74.112825960507536,4.6480520138526389],[-74.112826160876125,4.6480518127858357],[-74.112826323403524,4.6480515798622797],[-74.112826443151462,4.6480513221592545],[-74.112826516481448,4.6480510475069448],[-74.112826541165376,4.6480507642504918],[-74.112826516453239,4.6480504809965089],[-74.112826443095926,4.6480502063515416],[-74.112826323322324,4.6480499486605247],[-74.112826160771718,4.6480497157532659],[-74.11282596038312,4.6480495147065444],[-74.112825728245255,4.648049351629056],[-74.112825471411483,4.6480492314758335],[-74.112825197685581,4.6480491578976686],[-74.112824915384564,4.6480491331301979],[-74.112824633086035,4.648049157925966],[-74.112824359367451,4.6480492315315729],[-74.112824102545659,4.6480493517105312],[-74.112823870424009,4.6480495148112908],[-74.112823670055434,4.6480497158780931],[-74.11282350752802,4.6480499488016349],[-74.112823387780082,4.648050206504668],[-74.112823314450111,4.6480504811569903],[-74.112823289766183,4.6480507644134414]]]},"properties":{"FID":61,"FID_":0,"Entity":"Insert","Layer":"VALVULA_PE_ANILLO","RefName":"VALVULA DE ANILLO"}},{"type":"Feature","id":62,"geometry":{"type":"LineString","coordinates":[[-74.12425329833998,4.6590255872770401],[-74.124271408262487,4.6590079936402056],[-74.124384628469528,4.658892589003397]]},"properties":{"FID":62,"FID_":0,"Entity":"LWPolyline","Layer":"TUBERIA PE 4'' DISEÑADA","RefName":" "}},{"type":"Feature","id":63,"geometry":{"type":"LineString","coordinates":[[-74.123401715155381,4.6598474950172832],[-74.123449317071518,4.6598091591426991],[-74.123805045313134,4.6594619850445786],[-74.123830249580237,4.6594366826197202],[-74.12425329833998,4.6590255872770401]]},"properties":{"FID":63,"FID_":0,"Entity":"LWPolyline","Layer":"TUBERIA PE 4'' DISEÑADA","RefName":" "}},{"type":"Feature","id":64,"geometry":{"type":"LineString","coordinates":[[-74.134120909459199,4.6693315310248913],[-74.133858837357735,4.6690528423249331],[-74.133006050465497,4.6681794220686603],[-74.132368136958419,4.6675013526760134],[-74.132139835581341,4.6672700799105336],[-74.131853323569317,4.6669737085672551],[-74.131331802920897,4.6664370893117706],[-74.13118184392286,4.666270934924011],[-74.130803563162118,4.6658892467826893],[-74.130559591400655,4.6656108294243488],[-74.130107468600286,4.6651460603640196],[-74.129726956290341,4.6647486494671693],[-74.128890408346422,4.6638656832209868]]},"properties":{"FID":64,"FID_":0,"Entity":"LWPolyline","Layer":"TUBERIA DE 6'' DISEÑADA","RefName":" "}},{"type":"Feature","id":65,"geometry":{"type":"LineString","coordinates":[[-74.128890408346422,4.6638656832209868],[-74.12882201576052,4.6637924527507071],[-74.128378487548162,4.6641974870734391],[-74.12820701066974,4.6643515177416299]]},"properties":{"FID":65,"FID_":0,"Entity":"LWPolyline","Layer":"TUBERIA DE 6'' DISEÑADA","RefName":" "}},{"type":"Feature","id":66,"geometry":{"type":"LineString","coordinates":[[-74.13435881170679,4.6690769024645213],[-74.134212723583403,4.6692205196965464],[-74.134182542457566,4.66925720632881],[-74.13413533034965,4.6693141405325793]]},"properties":{"FID":66,"FID_":0,"Entity":"LWPolyline","Layer":"TUBERIA DE 3'' DISEÑADA","RefName":" "}},{"type":"Feature","id":67,"geometry":{"type":"LineString","coordinates":[[-74.134137943068211,4.669316668614325],[-74.134524996597605,4.66971587243592]]},"properties":{"FID":67,"FID_":0,"Entity":"LWPolyline","Layer":"TUBERIA DE 6'' DISEÑADA","RefName":" "}},{"type":"Feature","id":68,"geometry":{"type":"LineString","coordinates":[[-74.134524996597605,4.66971587243592],[-74.135275779892652,4.670523314800568]]},"properties":{"FID":68,"FID_":0,"Entity":"LWPolyline","Layer":"TUBERIA DE 6'' DISEÑADA","RefName":" "}},{"type":"Feature","id":69,"geometry":{"type":"LineString","coordinates":[[-74.134524996597605,4.66971587243592],[-74.134343802987772,4.669891980113408],[-74.134177845706859,4.6700527290124709],[-74.134167930747338,4.6700427444352988]]},"properties":{"FID":69,"FID_":0,"Entity":"LWPolyline","Layer":"TUBERIA DE 3'' DISEÑADA","RefName":" "}},{"type":"Feature","id":70,"geometry":{"type":"LineString","coordinates":[[-74.14465316579097,4.6803088515135798],[-74.144361687592593,4.6800094846074858],[-74.14416471538658,4.6797959428227731],[-74.144104031023957,4.6797400596259138],[-74.143843383279247,4.679480613871668],[-74.143657342738919,4.6792810361359161],[-74.143570801467973,4.6792002036550757],[-74.14324549296802,4.6788709014174676],[-74.143161927853527,4.6787800986034558],[-74.142977883282754,4.6785914924653662],[-74.142892322762862,4.678500691612733],[-74.142789861085149,4.6783899288111668],[-74.142581934918638,4.6781414441949956],[-74.142510295150487,4.6780616175913527],[-74.142255635928649,4.6778021697563972],[-74.141935301323727,4.6774748595154554],[-74.141841784064397,4.6773800558859691],[-74.14161993928532,4.6771455546653007],[-74.141202118972913,4.676714470925182],[-74.141115559199051,4.6765617926221417],[-74.140800181841271,4.6761935677525504],[-74.140732538283984,4.676097774123825],[-74.14058232455713,4.6759730392014545],[-74.140191366328139,4.6756477266709302],[-74.140072000996582,4.6755389616769492],[-74.13992114189918,4.6753874364466972],[-74.13986679133258,4.6753281746600557]]},"properties":{"FID":70,"FID_":0,"Entity":"LWPolyline","Layer":"TUBERIA DE 6'' DISEÑADA","RefName":" "}},{"type":"Feature","id":71,"geometry":{"type":"LineString","coordinates":[[-74.139352041455837,4.6748050523230615],[-74.139285104957779,4.6747506263111642],[-74.138846386706732,4.6742905969248083],[-74.138778742679747,4.6742257367826241],[-74.138672301262616,4.6741149746003998],[-74.13822661600733,4.6736559464850229],[-74.138110220213164,4.6735371946041564],[-74.137943094519983,4.673367546255772],[-74.137852576768637,4.6732707631822512],[-74.137589939295125,4.6730023218109284],[-74.136998028061967,4.672390616486827],[-74.136757671182963,4.6721443592083913]]},"properties":{"FID":71,"FID_":0,"Entity":"LWPolyline","Layer":"TUBERIA DE 6'' DISEÑADA","RefName":" "}},{"type":"Feature","id":72,"geometry":{"type":"LineString","coordinates":[[-74.138487425873052,4.6745932814199156],[-74.138586867095626,4.6745282882347405],[-74.138981311403199,4.6749401301551696],[-74.139013658396436,4.6750179702036654],[-74.13902498277902,4.675086079022778],[-74.139010445357982,4.6751428356130882],[-74.138963581573861,4.6751931192852645],[-74.13913918060355,4.6753787358132177]]},"properties":{"FID":72,"FID_":0,"Entity":"LWPolyline","Layer":"TUBERIA DE 3-4'' DISEÑADA","RefName":" "}},{"type":"Feature","id":73,"geometry":{"type":"LineString","coordinates":[[-74.139164057495876,4.6753407110639662],[-74.139201197020498,4.6752984829119413],[-74.139259377999593,4.6752854991488499],[-74.139299786553011,4.6752952250424951],[-74.139383851497257,4.6753714318491655]]},"properties":{"FID":73,"FID_":0,"Entity":"LWPolyline","Layer":"TUBERIA DE 3-4'' DISEÑADA","RefName":" "}},{"type":"Feature","id":74,"geometry":{"type":"LineString","coordinates":[[-74.148490697578836,4.6842607084978178],[-74.148237995758379,4.6839917775416522],[-74.148163105260792,4.6839533193006861],[-74.148072385410629,4.6838579292118281],[-74.147848042763428,4.6840666846986654],[-74.147961540352128,4.6841844117748979],[-74.148022582876024,4.6842464781187898],[-74.148248709087895,4.6845096016118211],[-74.148249671476421,4.6845339828218506]]},"properties":{"FID":74,"FID_":0,"Entity":"LWPolyline","Layer":"TUBERIA PE 4  PROY","RefName":" "}},{"type":"Feature","id":75,"geometry":{"type":"LineString","coordinates":[[-74.160131248398955,4.6940464591851088],[-74.15986741924705,4.6942260802587592],[-74.159878189594593,4.6942413063652539]]},"properties":{"FID":75,"FID_":0,"Entity":"LWPolyline","Layer":"TUBERIA PE 3-4''","RefName":" "}},{"type":"Feature","id":76,"geometry":{"type":"LineString","coordinates":[[-74.159917352009145,4.6942468150168555],[-74.159890303483692,4.6942118115628677],[-74.160127093892484,4.6940505990938224],[-74.160143519447146,4.6940744396560623]]},"properties":{"FID":76,"FID_":0,"Entity":"LWPolyline","Layer":"TUBERIA PE 4''","RefName":" "}},{"type":"Feature","id":77,"geometry":{"type":"LineString","coordinates":[[-74.082173093202101,4.6160447637724493],[-74.082057890497921,4.6158919078235598],[-74.081912203658263,4.6156847563804204],[-74.081771853873079,4.615471526370686],[-74.081651297022233,4.6152569348725718],[-74.081550997562729,4.6150850058985577],[-74.081393422682368,4.6148062811433954],[-74.081341944519266,4.6147131787069471],[-74.081229883318301,4.614368357649381]]},"properties":{"FID":77,"FID_":0,"Entity":"LWPolyline","Layer":"TUBERIA SS 4''","RefName":" "}},{"type":"Feature","id":78,"geometry":{"type":"LineString","coordinates":[[-74.192912901261664,4.6989309375021318],[-74.192899042122193,4.6989318615558426],[-74.191795501180692,4.6990057368429303],[-74.191405929396865,4.6990299317958515],[-74.191404170501585,4.6990300423792437],[-74.189693914593136,4.6991078735750778],[-74.189004616920499,4.6991690189351898],[-74.18885808488605,4.699190908329637],[-74.187880063040893,4.6992500218725413],[-74.187873742410673,4.6992050830157464]]},"properties":{"FID":78,"FID_":0,"Entity":"LWPolyline","Layer":"TUBERIA PE 4'' DISEÑADA","RefName":" "}},{"type":"Feature","id":79,"geometry":{"type":"LineString","coordinates":[[-74.18885808488605,4.699190908329637],[-74.189453085960835,4.6991619033115191],[-74.192859153685461,4.6989588039123245],[-74.192913458500115,4.6989555302852279]]},"properties":{"FID":79,"FID_":0,"Entity":"LWPolyline","Layer":"TUBERIA PE 4''","RefName":" "}},{"type":"Feature","id":80,"geometry":{"type":"LineString","coordinates":[[-74.224720067021877,4.7035138952567142],[-74.22449805336467,4.7036662024565663],[-74.224250590792522,4.7038314181908385]]},"properties":{"FID":80,"FID_":0,"Entity":"LWPolyline","Layer":"M-TUB-PE 2 INCH","RefName":" "}},{"type":"Feature","id":81,"geometry":{"type":"LineString","coordinates":[[-74.227072418759619,4.7055494816539545],[-74.227072988714582,4.7055709655845037],[-74.227235693603063,4.7057005282127449],[-74.227863463136728,4.7062004190455839],[-74.227889376894552,4.7062049355762747],[-74.227949260991039,4.7061163179764831]]},"properties":{"FID":81,"FID_":0,"Entity":"LWPolyline","Layer":"TUBERIA PE 1-2'' DISEÑADA","RefName":" "}},{"type":"Feature","id":82,"geometry":{"type":"LineString","coordinates":[[-74.226638403854679,4.7051872871725875],[-74.227006952708507,4.7054912103950812]]},"properties":{"FID":82,"FID_":0,"Entity":"LWPolyline","Layer":"TUBERIA PE 1-2'' DISEÑADA","RefName":" "}},{"type":"Feature","id":83,"geometry":{"type":"LineString","coordinates":[[-74.228858459493296,4.7070463499953208],[-74.228767947269347,4.70713068864461]]},"properties":{"FID":83,"FID_":0,"Entity":"LWPolyline","Layer":"TUBERIA DE 6''","RefName":" "}},{"type":"Feature","id":84,"geometry":{"type":"LineString","coordinates":[[-74.235991082091346,4.7129497639571349],[-74.236014465665278,4.7129675952680072],[-74.236037949325819,4.7129852955045815],[-74.236068453300902,4.7130121391234008],[-74.236155552812718,4.7130822752224608],[-74.236223407563628,4.713134050552882],[-74.236407014659363,4.7132807965356314],[-74.236434556974814,4.7132840880369535],[-74.236490493407004,4.7133297386520514],[-74.236602830032467,4.7134189346382387],[-74.236632044426429,4.7134422380909813],[-74.236650951425617,4.7134584047010568]]},"properties":{"FID":84,"FID_":0,"Entity":"LWPolyline","Layer":"TUBERIA PE 2'' DISEÑADO","RefName":" "}},{"type":"Feature","id":85,"geometry":{"type":"LineString","coordinates":[[-74.255197155171658,4.7281769041929955],[-74.255181289557356,4.7281645089109396],[-74.255291808997669,4.7280288637062622],[-74.255299940661715,4.7280347792489463]]},"properties":{"FID":85,"FID_":0,"Entity":"LWPolyline","Layer":"M-TUB-PE 0.5 INCH","RefName":" "}},{"type":"Feature","id":86,"geometry":{"type":"LineString","coordinates":[[-74.262587533628164,4.733403182240667],[-74.262560570641327,4.7334237507492025],[-74.262410619643106,4.7334960389290321],[-74.262375813967779,4.7335143808211422],[-74.262300785791822,4.7335539191544376],[-74.262249372472283,4.733581012928175],[-74.26229469548835,4.7336307756336424],[-74.262290886951064,4.7336307766505792],[-74.262110242983198,4.7337329736317271]]},"properties":{"FID":86,"FID_":0,"Entity":"LWPolyline","Layer":"TUBERIA DE 6'' DISEÑADA","RefName":" "}},{"type":"Feature","id":87,"geometry":{"type":"LineString","coordinates":[[-74.280048198615972,4.7459027904739148],[-74.280070727868008,4.7458745246068874],[-74.280156337237358,4.7457772003742438],[-74.280187867871334,4.7457399771088999],[-74.280277970604843,4.745632002968633],[-74.280344510088341,4.7455432204625021]]},"properties":{"FID":87,"FID_":0,"Entity":"LWPolyline","Layer":"TUBERIA PE 2'' DISEÑADO","RefName":" "}},{"type":"Feature","id":88,"geometry":{"type":"LineString","coordinates":[[-74.342087784273275,4.7939670041423135],[-74.342228857226601,4.7939226781574193],[-74.342246466393078,4.7939378588798327]]},"properties":{"FID":88,"FID_":0,"Entity":"LWPolyline","Layer":"TUBERIA PE 2'' DISEÑADO","RefName":" "}},{"type":"Feature","id":89,"geometry":{"type":"LineString","coordinates":[[-74.344073673424489,4.7963796570887709],[-74.344313871422486,4.7961879183351037],[-74.344425142923598,4.7961013486485067]]},"properties":{"FID":89,"FID_":0,"Entity":"LWPolyline","Layer":"TUBERIA PE 2'' DISEÑADO","RefName":" "}},{"type":"Feature","id":90,"geometry":{"type":"LineString","coordinates":[[-74.350690834584341,4.8046568434529275],[-74.350608098639469,4.8047181547515532]]},"properties":{"FID":90,"FID_":0,"Entity":"LWPolyline","Layer":"TUBERIA PE 4''","RefName":" "}},{"type":"Feature","id":91,"geometry":{"type":"LineString","coordinates":[[-74.265601465725993,4.7358943138570808],[-74.265838755277869,4.7360526914979193],[-74.265949073277852,4.7361071564493242],[-74.266457767315998,4.7364567845399259],[-74.266450815284799,4.7364706908004726]]},"properties":{"FID":91,"FID_":0,"Entity":"LWPolyline","Layer":"TUBERIA PE 4''","RefName":" "}},{"type":"Feature","id":92,"geometry":{"type":"LineString","coordinates":[[-74.187880929158268,4.699255279968523],[-74.187826580976733,4.6992517305130308]]},"properties":{"FID":92,"FID_":0,"Entity":"Line","Layer":"TUBERIA DE 6''","RefName":" "}},{"type":"Feature","id":93,"geometry":{"type":"LineString","coordinates":[[-74.181830085739747,4.6994977182431317],[-74.181852652174356,4.6997182937606947],[-74.182046506831227,4.6997021300877453],[-74.182438069887269,4.6996820157624439],[-74.182556460464866,4.6996637841323139],[-74.18272970128892,4.6996545512865442],[-74.183401675735283,4.6996008568293481],[-74.184343485152453,4.6995202147096302],[-74.18472795546802,4.6994612247914453],[-74.184951440600727,4.6994437040799717],[-74.185474370969516,4.699404510643034],[-74.187709876145789,4.6992602011322244],[-74.187880929158268,4.699255279968523],[-74.188864947245946,4.6991944502292693],[-74.189195086388807,4.6991719400751704],[-74.191128199407729,4.6990577122173791],[-74.194031023430583,4.6988779184522862],[-74.197220852462536,4.6986868029802107],[-74.197708825636951,4.6986623310315192],[-74.198196459667997,4.6986318037592865],[-74.198710584619462,4.6986040293367806],[-74.199330017415463,4.6985715190868911],[-74.199949288572512,4.6985360449818918],[-74.20039123851771,4.6985175123480847],[-74.200683009825326,4.6985110242906671],[-74.200974717711517,4.6985021168955683],[-74.201294732864127,4.69849804913658],[-74.201731210663255,4.6984773903277812],[-74.202306320303535,4.6984511158809532],[-74.202730785356692,4.6984221370794037],[-74.203459224725492,4.6983676917812316],[-74.203702666423524,4.6983504989061293],[-74.204457308742462,4.698268989644542],[-74.204457018892725,4.6982645488540102]]},"properties":{"FID":93,"FID_":0,"Entity":"LWPolyline","Layer":"TUBERIA DE 6''","RefName":" "}}]}